<?xml version="1.0" encoding="UTF-8"?>
<gpx version="1.1" creator="strava" xmlns="http://www.topografix.com/GPX/1/1">
<trk><name>Salmon River Idaho Day 1</name><trkseg>
<trkpt lat="44.909849" lon="-116.099791"><ele>1535.2</ele></trkpt>
<trkpt lat="44.909204" lon="-116.099320"><ele>1534.6</ele></trkpt>
<trkpt lat="44.909262" lon="-116.099330"><ele>1534.6</ele></trkpt>
<trkpt lat="44.909242" lon="-116.099209"><ele>1534.6</ele></trkpt>
<trkpt lat="44.909202" lon="-116.099242"><ele>1534.2</ele></trkpt>
<trkpt lat="44.909287" lon="-116.098387"><ele>1533.8</ele></trkpt>
<trkpt lat="44.909367" lon="-116.098398"><ele>1533.8</ele></trkpt>
<trkpt lat="44.909287" lon="-116.098589"><ele>1534.0</ele></trkpt>
<trkpt lat="44.909312" lon="-116.098757"><ele>1534.4</ele></trkpt>
<trkpt lat="44.909301" lon="-116.098597"><ele>1534.8</ele></trkpt>
<trkpt lat="44.909257" lon="-116.098718"><ele>1535.0</ele></trkpt>
<trkpt lat="44.909320" lon="-116.098738"><ele>1534.8</ele></trkpt>
<trkpt lat="44.909412" lon="-116.097867"><ele>1534.6</ele></trkpt>
<trkpt lat="44.909516" lon="-116.097726"><ele>1534.8</ele></trkpt>
<trkpt lat="44.909681" lon="-116.097708"><ele>1534.2</ele></trkpt>
<trkpt lat="44.911057" lon="-116.098135"><ele>1530.0</ele></trkpt>
<trkpt lat="44.911221" lon="-116.098304"><ele>1529.2</ele></trkpt>
<trkpt lat="44.911355" lon="-116.098322"><ele>1529.2</ele></trkpt>
<trkpt lat="44.911511" lon="-116.098145"><ele>1528.8</ele></trkpt>
<trkpt lat="44.911703" lon="-116.097499"><ele>1528.8</ele></trkpt>
<trkpt lat="44.912055" lon="-116.097020"><ele>1529.4</ele></trkpt>
<trkpt lat="44.915319" lon="-116.096343"><ele>1526.6</ele></trkpt>
<trkpt lat="44.915466" lon="-116.096190"><ele>1527.2</ele></trkpt>
<trkpt lat="44.915437" lon="-116.095601"><ele>1529.6</ele></trkpt>
<trkpt lat="44.915512" lon="-116.095387"><ele>1530.2</ele></trkpt>
<trkpt lat="44.916209" lon="-116.095184"><ele>1530.4</ele></trkpt>
<trkpt lat="44.916855" lon="-116.095308"><ele>1529.8</ele></trkpt>
<trkpt lat="44.917578" lon="-116.095115"><ele>1529.2</ele></trkpt>
<trkpt lat="44.917702" lon="-116.094943"><ele>1529.2</ele></trkpt>
<trkpt lat="44.917811" lon="-116.094406"><ele>1529.8</ele></trkpt>
<trkpt lat="44.917953" lon="-116.094179"><ele>1530.2</ele></trkpt>
<trkpt lat="44.918279" lon="-116.093910"><ele>1530.2</ele></trkpt>
<trkpt lat="44.918742" lon="-116.093670"><ele>1530.0</ele></trkpt>
<trkpt lat="44.919206" lon="-116.093165"><ele>1530.4</ele></trkpt>
<trkpt lat="44.919990" lon="-116.092675"><ele>1530.4</ele></trkpt>
<trkpt lat="44.921254" lon="-116.092244"><ele>1530.4</ele></trkpt>
<trkpt lat="44.921439" lon="-116.092093"><ele>1530.0</ele></trkpt>
<trkpt lat="44.921473" lon="-116.090623"><ele>1531.6</ele></trkpt>
<trkpt lat="44.921672" lon="-116.090489"><ele>1531.8</ele></trkpt>
<trkpt lat="44.922052" lon="-116.090458"><ele>1532.0</ele></trkpt>
<trkpt lat="44.922117" lon="-116.090222"><ele>1532.0</ele></trkpt>
<trkpt lat="44.922125" lon="-116.087052"><ele>1533.0</ele></trkpt>
<trkpt lat="44.923161" lon="-116.075127"><ele>1534.0</ele></trkpt>
<trkpt lat="44.923180" lon="-116.066074"><ele>1536.6</ele></trkpt>
<trkpt lat="44.923428" lon="-116.064564"><ele>1538.6</ele></trkpt>
<trkpt lat="44.923804" lon="-116.063376"><ele>1541.6</ele></trkpt>
<trkpt lat="44.924108" lon="-116.062712"><ele>1543.4</ele></trkpt>
<trkpt lat="44.925990" lon="-116.059601"><ele>1550.4</ele></trkpt>
<trkpt lat="44.926278" lon="-116.059254"><ele>1550.2</ele></trkpt>
<trkpt lat="44.926615" lon="-116.058983"><ele>1550.6</ele></trkpt>
<trkpt lat="44.928348" lon="-116.057752"><ele>1554.4</ele></trkpt>
<trkpt lat="44.929540" lon="-116.056530"><ele>1555.2</ele></trkpt>
<trkpt lat="44.929870" lon="-116.056012"><ele>1556.2</ele></trkpt>
<trkpt lat="44.930009" lon="-116.055375"><ele>1559.2</ele></trkpt>
<trkpt lat="44.929945" lon="-116.054597"><ele>1563.2</ele></trkpt>
<trkpt lat="44.929700" lon="-116.054034"><ele>1566.6</ele></trkpt>
<trkpt lat="44.928476" lon="-116.052787"><ele>1571.2</ele></trkpt>
<trkpt lat="44.927175" lon="-116.051871"><ele>1572.8</ele></trkpt>
<trkpt lat="44.926857" lon="-116.051433"><ele>1572.8</ele></trkpt>
<trkpt lat="44.926753" lon="-116.050721"><ele>1571.2</ele></trkpt>
<trkpt lat="44.926752" lon="-116.045113"><ele>1568.4</ele></trkpt>
<trkpt lat="44.926895" lon="-116.043932"><ele>1576.0</ele></trkpt>
<trkpt lat="44.927142" lon="-116.043216"><ele>1576.4</ele></trkpt>
<trkpt lat="44.928232" lon="-116.041452"><ele>1577.2</ele></trkpt>
<trkpt lat="44.928667" lon="-116.040635"><ele>1578.6</ele></trkpt>
<trkpt lat="44.929481" lon="-116.038747"><ele>1571.8</ele></trkpt>
<trkpt lat="44.929627" lon="-116.038253"><ele>1570.6</ele></trkpt>
<trkpt lat="44.930071" lon="-116.035934"><ele>1570.4</ele></trkpt>
<trkpt lat="44.930745" lon="-116.033846"><ele>1568.2</ele></trkpt>
<trkpt lat="44.930886" lon="-116.032499"><ele>1569.2</ele></trkpt>
<trkpt lat="44.930990" lon="-116.029964"><ele>1570.6</ele></trkpt>
<trkpt lat="44.930950" lon="-116.028825"><ele>1571.4</ele></trkpt>
<trkpt lat="44.930831" lon="-116.028358"><ele>1572.4</ele></trkpt>
<trkpt lat="44.930012" lon="-116.026784"><ele>1570.6</ele></trkpt>
<trkpt lat="44.929687" lon="-116.026293"><ele>1569.6</ele></trkpt>
<trkpt lat="44.928057" lon="-116.024746"><ele>1568.0</ele></trkpt>
<trkpt lat="44.927878" lon="-116.024500"><ele>1568.2</ele></trkpt>
<trkpt lat="44.926209" lon="-116.020918"><ele>1570.0</ele></trkpt>
<trkpt lat="44.925924" lon="-116.020639"><ele>1569.2</ele></trkpt>
<trkpt lat="44.925039" lon="-116.020198"><ele>1568.4</ele></trkpt>
<trkpt lat="44.923718" lon="-116.018651"><ele>1568.8</ele></trkpt>
<trkpt lat="44.923438" lon="-116.018081"><ele>1568.4</ele></trkpt>
<trkpt lat="44.922977" lon="-116.015874"><ele>1568.2</ele></trkpt>
<trkpt lat="44.922188" lon="-116.014371"><ele>1567.6</ele></trkpt>
<trkpt lat="44.917753" lon="-116.009673"><ele>1567.4</ele></trkpt>
<trkpt lat="44.917639" lon="-116.009466"><ele>1567.6</ele></trkpt>
<trkpt lat="44.916564" lon="-116.006227"><ele>1569.6</ele></trkpt>
<trkpt lat="44.916745" lon="-116.004849"><ele>1568.2</ele></trkpt>
<trkpt lat="44.916966" lon="-116.004092"><ele>1568.4</ele></trkpt>
<trkpt lat="44.917440" lon="-116.003134"><ele>1569.2</ele></trkpt>
<trkpt lat="44.917853" lon="-116.001075"><ele>1570.2</ele></trkpt>
<trkpt lat="44.917717" lon="-116.000588"><ele>1570.8</ele></trkpt>
<trkpt lat="44.916780" lon="-115.998986"><ele>1569.8</ele></trkpt>
<trkpt lat="44.916701" lon="-115.998592"><ele>1570.6</ele></trkpt>
<trkpt lat="44.916727" lon="-115.998176"><ele>1571.6</ele></trkpt>
<trkpt lat="44.916824" lon="-115.997894"><ele>1572.6</ele></trkpt>
<trkpt lat="44.917376" lon="-115.996997"><ele>1576.2</ele></trkpt>
<trkpt lat="44.917732" lon="-115.996093"><ele>1582.0</ele></trkpt>
<trkpt lat="44.917888" lon="-115.996053"><ele>1583.4</ele></trkpt>
<trkpt lat="44.917989" lon="-115.996359"><ele>1585.2</ele></trkpt>
<trkpt lat="44.917954" lon="-115.996778"><ele>1587.0</ele></trkpt>
<trkpt lat="44.917697" lon="-115.997464"><ele>1592.2</ele></trkpt>
<trkpt lat="44.917795" lon="-115.997687"><ele>1594.0</ele></trkpt>
<trkpt lat="44.917880" lon="-115.997659"><ele>1595.0</ele></trkpt>
<trkpt lat="44.918657" lon="-115.996483"><ele>1602.8</ele></trkpt>
<trkpt lat="44.918841" lon="-115.995260"><ele>1605.0</ele></trkpt>
<trkpt lat="44.919297" lon="-115.994161"><ele>1609.4</ele></trkpt>
<trkpt lat="44.919937" lon="-115.993368"><ele>1618.0</ele></trkpt>
<trkpt lat="44.920187" lon="-115.992873"><ele>1623.4</ele></trkpt>
<trkpt lat="44.920369" lon="-115.992134"><ele>1630.2</ele></trkpt>
<trkpt lat="44.920643" lon="-115.991351"><ele>1637.6</ele></trkpt>
<trkpt lat="44.920922" lon="-115.989896"><ele>1645.4</ele></trkpt>
<trkpt lat="44.920727" lon="-115.988174"><ele>1650.8</ele></trkpt>
<trkpt lat="44.920429" lon="-115.987367"><ele>1651.2</ele></trkpt>
<trkpt lat="44.920174" lon="-115.987036"><ele>1653.0</ele></trkpt>
<trkpt lat="44.919859" lon="-115.986824"><ele>1653.0</ele></trkpt>
<trkpt lat="44.919552" lon="-115.986747"><ele>1652.4</ele></trkpt>
<trkpt lat="44.919029" lon="-115.986784"><ele>1655.2</ele></trkpt>
<trkpt lat="44.918866" lon="-115.986681"><ele>1655.6</ele></trkpt>
<trkpt lat="44.918575" lon="-115.986230"><ele>1654.4</ele></trkpt>
<trkpt lat="44.918254" lon="-115.985054"><ele>1652.8</ele></trkpt>
<trkpt lat="44.918232" lon="-115.984626"><ele>1654.0</ele></trkpt>
<trkpt lat="44.918592" lon="-115.982629"><ele>1657.4</ele></trkpt>
<trkpt lat="44.918815" lon="-115.980817"><ele>1661.0</ele></trkpt>
<trkpt lat="44.918720" lon="-115.979830"><ele>1662.4</ele></trkpt>
<trkpt lat="44.918749" lon="-115.979503"><ele>1662.6</ele></trkpt>
<trkpt lat="44.919280" lon="-115.977860"><ele>1656.6</ele></trkpt>
<trkpt lat="44.919419" lon="-115.976960"><ele>1655.0</ele></trkpt>
<trkpt lat="44.919326" lon="-115.976443"><ele>1654.6</ele></trkpt>
<trkpt lat="44.918805" lon="-115.975604"><ele>1653.0</ele></trkpt>
<trkpt lat="44.918686" lon="-115.974070"><ele>1656.8</ele></trkpt>
<trkpt lat="44.918217" lon="-115.972588"><ele>1657.4</ele></trkpt>
<trkpt lat="44.917893" lon="-115.971769"><ele>1653.6</ele></trkpt>
<trkpt lat="44.917703" lon="-115.970751"><ele>1648.2</ele></trkpt>
<trkpt lat="44.917190" lon="-115.969757"><ele>1644.4</ele></trkpt>
<trkpt lat="44.917096" lon="-115.969371"><ele>1644.2</ele></trkpt>
<trkpt lat="44.917383" lon="-115.967871"><ele>1645.8</ele></trkpt>
<trkpt lat="44.917594" lon="-115.967286"><ele>1646.6</ele></trkpt>
<trkpt lat="44.918799" lon="-115.965235"><ele>1644.2</ele></trkpt>
<trkpt lat="44.919178" lon="-115.964808"><ele>1641.4</ele></trkpt>
<trkpt lat="44.920069" lon="-115.964078"><ele>1632.8</ele></trkpt>
<trkpt lat="44.920454" lon="-115.963561"><ele>1629.0</ele></trkpt>
<trkpt lat="44.920586" lon="-115.963190"><ele>1626.8</ele></trkpt>
<trkpt lat="44.920433" lon="-115.961114"><ele>1625.4</ele></trkpt>
<trkpt lat="44.920115" lon="-115.959618"><ele>1624.0</ele></trkpt>
<trkpt lat="44.920028" lon="-115.958930"><ele>1622.4</ele></trkpt>
<trkpt lat="44.920085" lon="-115.958027"><ele>1620.2</ele></trkpt>
<trkpt lat="44.920249" lon="-115.957364"><ele>1622.2</ele></trkpt>
<trkpt lat="44.920150" lon="-115.957110"><ele>1623.0</ele></trkpt>
<trkpt lat="44.920038" lon="-115.957029"><ele>1622.2</ele></trkpt>
<trkpt lat="44.920288" lon="-115.957356"><ele>1622.4</ele></trkpt>
<trkpt lat="44.921633" lon="-115.954365"><ele>1624.2</ele></trkpt>
<trkpt lat="44.921974" lon="-115.953962"><ele>1624.0</ele></trkpt>
<trkpt lat="44.922768" lon="-115.953301"><ele>1625.0</ele></trkpt>
<trkpt lat="44.923476" lon="-115.951657"><ele>1633.2</ele></trkpt>
<trkpt lat="44.923981" lon="-115.951201"><ele>1632.6</ele></trkpt>
<trkpt lat="44.924547" lon="-115.950379"><ele>1635.0</ele></trkpt>
<trkpt lat="44.925453" lon="-115.949592"><ele>1640.2</ele></trkpt>
<trkpt lat="44.926956" lon="-115.947949"><ele>1649.4</ele></trkpt>
<trkpt lat="44.928162" lon="-115.947263"><ele>1657.0</ele></trkpt>
<trkpt lat="44.930395" lon="-115.945711"><ele>1661.4</ele></trkpt>
<trkpt lat="44.931175" lon="-115.945607"><ele>1664.8</ele></trkpt>
<trkpt lat="44.932086" lon="-115.945602"><ele>1670.2</ele></trkpt>
<trkpt lat="44.932111" lon="-115.945550"><ele>1670.6</ele></trkpt>
<trkpt lat="44.931976" lon="-115.945538"><ele>1670.2</ele></trkpt>
<trkpt lat="44.932237" lon="-115.945565"><ele>1671.0</ele></trkpt>
<trkpt lat="44.932436" lon="-115.945534"><ele>1671.4</ele></trkpt>
<trkpt lat="44.932413" lon="-115.945475"><ele>1671.4</ele></trkpt>
<trkpt lat="44.932656" lon="-115.945496"><ele>1671.2</ele></trkpt>
<trkpt lat="44.933040" lon="-115.945392"><ele>1671.4</ele></trkpt>
<trkpt lat="44.935447" lon="-115.943810"><ele>1664.4</ele></trkpt>
<trkpt lat="44.936901" lon="-115.943354"><ele>1661.6</ele></trkpt>
<trkpt lat="44.937268" lon="-115.943165"><ele>1661.8</ele></trkpt>
<trkpt lat="44.937449" lon="-115.942955"><ele>1661.8</ele></trkpt>
<trkpt lat="44.937957" lon="-115.942048"><ele>1662.6</ele></trkpt>
<trkpt lat="44.938306" lon="-115.941642"><ele>1662.6</ele></trkpt>
<trkpt lat="44.939325" lon="-115.941492"><ele>1664.6</ele></trkpt>
<trkpt lat="44.940443" lon="-115.941808"><ele>1664.6</ele></trkpt>
<trkpt lat="44.942229" lon="-115.942965"><ele>1668.2</ele></trkpt>
<trkpt lat="44.942574" lon="-115.943100"><ele>1666.4</ele></trkpt>
<trkpt lat="44.944657" lon="-115.943416"><ele>1667.8</ele></trkpt>
<trkpt lat="44.947778" lon="-115.944400"><ele>1676.2</ele></trkpt>
<trkpt lat="44.949358" lon="-115.944648"><ele>1684.8</ele></trkpt>
<trkpt lat="44.950985" lon="-115.945018"><ele>1684.2</ele></trkpt>
<trkpt lat="44.953701" lon="-115.945919"><ele>1684.8</ele></trkpt>
<trkpt lat="44.956162" lon="-115.946914"><ele>1688.0</ele></trkpt>
<trkpt lat="44.958315" lon="-115.947293"><ele>1688.4</ele></trkpt>
<trkpt lat="44.959340" lon="-115.947277"><ele>1689.4</ele></trkpt>
<trkpt lat="44.959946" lon="-115.947663"><ele>1688.6</ele></trkpt>
<trkpt lat="44.960772" lon="-115.948400"><ele>1692.6</ele></trkpt>
<trkpt lat="44.961855" lon="-115.949096"><ele>1694.6</ele></trkpt>
<trkpt lat="44.964288" lon="-115.949518"><ele>1693.8</ele></trkpt>
<trkpt lat="44.966039" lon="-115.950212"><ele>1692.4</ele></trkpt>
<trkpt lat="44.966279" lon="-115.950420"><ele>1692.2</ele></trkpt>
<trkpt lat="44.966471" lon="-115.950719"><ele>1692.0</ele></trkpt>
<trkpt lat="44.967179" lon="-115.952469"><ele>1693.8</ele></trkpt>
<trkpt lat="44.967432" lon="-115.952814"><ele>1694.8</ele></trkpt>
<trkpt lat="44.969327" lon="-115.953919"><ele>1695.8</ele></trkpt>
<trkpt lat="44.970161" lon="-115.954146"><ele>1699.4</ele></trkpt>
<trkpt lat="44.970948" lon="-115.954692"><ele>1699.0</ele></trkpt>
<trkpt lat="44.971701" lon="-115.954801"><ele>1696.8</ele></trkpt>
<trkpt lat="44.971005" lon="-115.954692"><ele>1698.2</ele></trkpt>
<trkpt lat="44.970512" lon="-115.954403"><ele>1700.0</ele></trkpt>
<trkpt lat="44.970518" lon="-115.954346"><ele>1700.0</ele></trkpt>
<trkpt lat="44.970834" lon="-115.954605"><ele>1699.2</ele></trkpt>
<trkpt lat="44.971164" lon="-115.954749"><ele>1697.8</ele></trkpt>
<trkpt lat="44.972923" lon="-115.954952"><ele>1698.6</ele></trkpt>
<trkpt lat="44.976545" lon="-115.956227"><ele>1706.4</ele></trkpt>
<trkpt lat="44.977577" lon="-115.956503"><ele>1706.6</ele></trkpt>
<trkpt lat="44.980456" lon="-115.956762"><ele>1718.2</ele></trkpt>
<trkpt lat="44.981765" lon="-115.956708"><ele>1723.8</ele></trkpt>
<trkpt lat="44.982290" lon="-115.956568"><ele>1726.0</ele></trkpt>
<trkpt lat="44.985825" lon="-115.954888"><ele>1731.2</ele></trkpt>
<trkpt lat="44.986432" lon="-115.954783"><ele>1732.0</ele></trkpt>
<trkpt lat="44.987297" lon="-115.954938"><ele>1737.2</ele></trkpt>
<trkpt lat="44.988158" lon="-115.954635"><ele>1741.2</ele></trkpt>
<trkpt lat="44.989014" lon="-115.954067"><ele>1742.2</ele></trkpt>
<trkpt lat="44.989372" lon="-115.953405"><ele>1744.4</ele></trkpt>
<trkpt lat="44.989752" lon="-115.952983"><ele>1749.8</ele></trkpt>
<trkpt lat="44.990249" lon="-115.952661"><ele>1756.4</ele></trkpt>
<trkpt lat="44.992437" lon="-115.951632"><ele>1771.8</ele></trkpt>
<trkpt lat="44.993391" lon="-115.950748"><ele>1778.6</ele></trkpt>
<trkpt lat="44.994223" lon="-115.950097"><ele>1786.0</ele></trkpt>
<trkpt lat="44.994935" lon="-115.949807"><ele>1795.0</ele></trkpt>
<trkpt lat="44.995927" lon="-115.949533"><ele>1804.8</ele></trkpt>
<trkpt lat="44.996584" lon="-115.949048"><ele>1807.0</ele></trkpt>
<trkpt lat="44.997448" lon="-115.948240"><ele>1811.0</ele></trkpt>
<trkpt lat="44.998627" lon="-115.947390"><ele>1813.2</ele></trkpt>
<trkpt lat="44.999209" lon="-115.947080"><ele>1814.8</ele></trkpt>
<trkpt lat="44.999777" lon="-115.947060"><ele>1817.0</ele></trkpt>
<trkpt lat="45.000654" lon="-115.946804"><ele>1822.6</ele></trkpt>
<trkpt lat="45.000982" lon="-115.946792"><ele>1825.8</ele></trkpt>
<trkpt lat="45.003583" lon="-115.947834"><ele>1850.2</ele></trkpt>
<trkpt lat="45.004111" lon="-115.947896"><ele>1854.2</ele></trkpt>
<trkpt lat="45.004464" lon="-115.947759"><ele>1857.2</ele></trkpt>
<trkpt lat="45.005223" lon="-115.947245"><ele>1866.6</ele></trkpt>
<trkpt lat="45.006151" lon="-115.946280"><ele>1869.2</ele></trkpt>
<trkpt lat="45.006515" lon="-115.946188"><ele>1868.8</ele></trkpt>
<trkpt lat="45.009740" lon="-115.947140"><ele>1873.2</ele></trkpt>
<trkpt lat="45.010395" lon="-115.947233"><ele>1875.2</ele></trkpt>
<trkpt lat="45.011609" lon="-115.947165"><ele>1877.8</ele></trkpt>
<trkpt lat="45.013649" lon="-115.946868"><ele>1880.2</ele></trkpt>
<trkpt lat="45.017020" lon="-115.945452"><ele>1893.6</ele></trkpt>
<trkpt lat="45.017689" lon="-115.945103"><ele>1898.4</ele></trkpt>
<trkpt lat="45.018141" lon="-115.944738"><ele>1899.4</ele></trkpt>
<trkpt lat="45.019515" lon="-115.943371"><ele>1907.8</ele></trkpt>
<trkpt lat="45.019835" lon="-115.942883"><ele>1912.2</ele></trkpt>
<trkpt lat="45.020159" lon="-115.942058"><ele>1916.8</ele></trkpt>
<trkpt lat="45.020311" lon="-115.941436"><ele>1919.4</ele></trkpt>
<trkpt lat="45.020460" lon="-115.939976"><ele>1923.4</ele></trkpt>
<trkpt lat="45.020650" lon="-115.939417"><ele>1925.2</ele></trkpt>
<trkpt lat="45.021282" lon="-115.938050"><ele>1931.6</ele></trkpt>
<trkpt lat="45.022157" lon="-115.934967"><ele>1949.0</ele></trkpt>
<trkpt lat="45.022852" lon="-115.932105"><ele>1970.6</ele></trkpt>
<trkpt lat="45.023031" lon="-115.930760"><ele>1978.8</ele></trkpt>
<trkpt lat="45.022902" lon="-115.929122"><ele>1985.8</ele></trkpt>
<trkpt lat="45.022945" lon="-115.928901"><ele>1987.2</ele></trkpt>
<trkpt lat="45.023070" lon="-115.928752"><ele>1988.6</ele></trkpt>
<trkpt lat="45.023389" lon="-115.928941"><ele>1991.4</ele></trkpt>
<trkpt lat="45.023700" lon="-115.929471"><ele>1994.8</ele></trkpt>
<trkpt lat="45.024108" lon="-115.930995"><ele>2004.2</ele></trkpt>
<trkpt lat="45.024277" lon="-115.931884"><ele>2010.0</ele></trkpt>
<trkpt lat="45.024530" lon="-115.932484"><ele>2016.0</ele></trkpt>
<trkpt lat="45.024842" lon="-115.932914"><ele>2020.4</ele></trkpt>
<trkpt lat="45.025532" lon="-115.933199"><ele>2027.0</ele></trkpt>
<trkpt lat="45.026632" lon="-115.933214"><ele>2036.2</ele></trkpt>
<trkpt lat="45.029893" lon="-115.934591"><ele>2062.0</ele></trkpt>
<trkpt lat="45.030588" lon="-115.934694"><ele>2067.4</ele></trkpt>
<trkpt lat="45.031237" lon="-115.934672"><ele>2072.2</ele></trkpt>
<trkpt lat="45.031834" lon="-115.934440"><ele>2076.6</ele></trkpt>
<trkpt lat="45.032905" lon="-115.934201"><ele>2081.8</ele></trkpt>
<trkpt lat="45.034018" lon="-115.933561"><ele>2088.8</ele></trkpt>
<trkpt lat="45.034812" lon="-115.933356"><ele>2093.2</ele></trkpt>
<trkpt lat="45.035787" lon="-115.932514"><ele>2101.4</ele></trkpt>
<trkpt lat="45.035914" lon="-115.932617"><ele>2102.2</ele></trkpt>
<trkpt lat="45.035897" lon="-115.932713"><ele>2100.2</ele></trkpt>
<trkpt lat="45.035942" lon="-115.932640"><ele>2099.4</ele></trkpt>
<trkpt lat="45.035870" lon="-115.932649"><ele>2100.2</ele></trkpt>
<trkpt lat="45.035878" lon="-115.932768"><ele>2099.6</ele></trkpt>
<trkpt lat="45.035939" lon="-115.932711"><ele>2099.8</ele></trkpt>
<trkpt lat="45.035868" lon="-115.932572"><ele>2098.6</ele></trkpt>
<trkpt lat="45.035884" lon="-115.932409"><ele>2098.6</ele></trkpt>
<trkpt lat="45.036247" lon="-115.932215"><ele>2098.2</ele></trkpt>
<trkpt lat="45.038016" lon="-115.932082"><ele>2088.8</ele></trkpt>
<trkpt lat="45.039523" lon="-115.932119"><ele>2081.2</ele></trkpt>
<trkpt lat="45.040192" lon="-115.931670"><ele>2075.6</ele></trkpt>
<trkpt lat="45.041349" lon="-115.931156"><ele>2070.2</ele></trkpt>
<trkpt lat="45.041620" lon="-115.930843"><ele>2067.6</ele></trkpt>
<trkpt lat="45.041857" lon="-115.930354"><ele>2065.0</ele></trkpt>
<trkpt lat="45.042025" lon="-115.928975"><ele>2058.8</ele></trkpt>
<trkpt lat="45.042332" lon="-115.927880"><ele>2053.2</ele></trkpt>
<trkpt lat="45.042257" lon="-115.927310"><ele>2051.0</ele></trkpt>
<trkpt lat="45.042060" lon="-115.926641"><ele>2048.2</ele></trkpt>
<trkpt lat="45.042029" lon="-115.926169"><ele>2046.4</ele></trkpt>
<trkpt lat="45.042086" lon="-115.925747"><ele>2044.0</ele></trkpt>
<trkpt lat="45.042362" lon="-115.924897"><ele>2039.4</ele></trkpt>
<trkpt lat="45.042338" lon="-115.923998"><ele>2036.2</ele></trkpt>
<trkpt lat="45.042492" lon="-115.923785"><ele>2034.4</ele></trkpt>
<trkpt lat="45.042728" lon="-115.923881"><ele>2032.0</ele></trkpt>
<trkpt lat="45.042787" lon="-115.924053"><ele>2031.0</ele></trkpt>
<trkpt lat="45.042672" lon="-115.925029"><ele>2029.4</ele></trkpt>
<trkpt lat="45.042731" lon="-115.925500"><ele>2028.2</ele></trkpt>
<trkpt lat="45.042871" lon="-115.925738"><ele>2027.2</ele></trkpt>
<trkpt lat="45.043352" lon="-115.926165"><ele>2024.8</ele></trkpt>
<trkpt lat="45.043478" lon="-115.926439"><ele>2024.0</ele></trkpt>
<trkpt lat="45.043629" lon="-115.927775"><ele>2018.0</ele></trkpt>
<trkpt lat="45.043760" lon="-115.928225"><ele>2015.6</ele></trkpt>
<trkpt lat="45.044064" lon="-115.928609"><ele>2013.0</ele></trkpt>
<trkpt lat="45.045320" lon="-115.929714"><ele>2005.8</ele></trkpt>
<trkpt lat="45.045644" lon="-115.929822"><ele>2003.2</ele></trkpt>
<trkpt lat="45.045908" lon="-115.929794"><ele>2002.0</ele></trkpt>
<trkpt lat="45.046138" lon="-115.929656"><ele>2000.6</ele></trkpt>
<trkpt lat="45.046288" lon="-115.929440"><ele>1998.2</ele></trkpt>
<trkpt lat="45.046332" lon="-115.929177"><ele>1996.6</ele></trkpt>
<trkpt lat="45.046252" lon="-115.928924"><ele>1995.2</ele></trkpt>
<trkpt lat="45.045675" lon="-115.928423"><ele>1991.4</ele></trkpt>
<trkpt lat="45.045572" lon="-115.928069"><ele>1989.0</ele></trkpt>
<trkpt lat="45.045716" lon="-115.927728"><ele>1986.2</ele></trkpt>
<trkpt lat="45.046500" lon="-115.927330"><ele>1979.2</ele></trkpt>
<trkpt lat="45.047042" lon="-115.927233"><ele>1975.0</ele></trkpt>
<trkpt lat="45.047191" lon="-115.927282"><ele>1973.6</ele></trkpt>
<trkpt lat="45.047348" lon="-115.927539"><ele>1972.2</ele></trkpt>
<trkpt lat="45.047578" lon="-115.928487"><ele>1968.2</ele></trkpt>
<trkpt lat="45.047747" lon="-115.928728"><ele>1967.4</ele></trkpt>
<trkpt lat="45.048185" lon="-115.929039"><ele>1964.0</ele></trkpt>
<trkpt lat="45.048625" lon="-115.928991"><ele>1960.8</ele></trkpt>
<trkpt lat="45.049620" lon="-115.928480"><ele>1954.4</ele></trkpt>
<trkpt lat="45.049800" lon="-115.928079"><ele>1950.4</ele></trkpt>
<trkpt lat="45.049938" lon="-115.927030"><ele>1944.8</ele></trkpt>
<trkpt lat="45.050462" lon="-115.926236"><ele>1939.2</ele></trkpt>
<trkpt lat="45.050547" lon="-115.925654"><ele>1936.6</ele></trkpt>
<trkpt lat="45.050102" lon="-115.922913"><ele>1923.2</ele></trkpt>
<trkpt lat="45.050162" lon="-115.921432"><ele>1915.2</ele></trkpt>
<trkpt lat="45.050107" lon="-115.921199"><ele>1914.8</ele></trkpt>
<trkpt lat="45.049939" lon="-115.920907"><ele>1913.4</ele></trkpt>
<trkpt lat="45.049471" lon="-115.920510"><ele>1910.6</ele></trkpt>
<trkpt lat="45.049281" lon="-115.920251"><ele>1909.4</ele></trkpt>
<trkpt lat="45.049133" lon="-115.919518"><ele>1905.6</ele></trkpt>
<trkpt lat="45.049128" lon="-115.918108"><ele>1898.6</ele></trkpt>
<trkpt lat="45.049204" lon="-115.917822"><ele>1897.4</ele></trkpt>
<trkpt lat="45.049714" lon="-115.917008"><ele>1892.4</ele></trkpt>
<trkpt lat="45.049781" lon="-115.916795"><ele>1891.6</ele></trkpt>
<trkpt lat="45.050165" lon="-115.914758"><ele>1881.6</ele></trkpt>
<trkpt lat="45.050073" lon="-115.914383"><ele>1879.4</ele></trkpt>
<trkpt lat="45.049822" lon="-115.914211"><ele>1878.6</ele></trkpt>
<trkpt lat="45.049562" lon="-115.914353"><ele>1877.0</ele></trkpt>
<trkpt lat="45.049401" lon="-115.915160"><ele>1873.2</ele></trkpt>
<trkpt lat="45.049195" lon="-115.915402"><ele>1870.6</ele></trkpt>
<trkpt lat="45.048922" lon="-115.915404"><ele>1870.0</ele></trkpt>
<trkpt lat="45.048806" lon="-115.915295"><ele>1868.8</ele></trkpt>
<trkpt lat="45.048712" lon="-115.914932"><ele>1866.8</ele></trkpt>
<trkpt lat="45.048786" lon="-115.914648"><ele>1866.2</ele></trkpt>
<trkpt lat="45.049386" lon="-115.913503"><ele>1863.0</ele></trkpt>
<trkpt lat="45.050047" lon="-115.912782"><ele>1860.0</ele></trkpt>
<trkpt lat="45.050863" lon="-115.911612"><ele>1851.8</ele></trkpt>
<trkpt lat="45.051037" lon="-115.911194"><ele>1849.2</ele></trkpt>
<trkpt lat="45.051298" lon="-115.909763"><ele>1840.0</ele></trkpt>
<trkpt lat="45.051165" lon="-115.908716"><ele>1833.6</ele></trkpt>
<trkpt lat="45.051699" lon="-115.907565"><ele>1826.0</ele></trkpt>
<trkpt lat="45.051449" lon="-115.905820"><ele>1818.4</ele></trkpt>
<trkpt lat="45.051980" lon="-115.902467"><ele>1802.6</ele></trkpt>
<trkpt lat="45.051718" lon="-115.901078"><ele>1793.8</ele></trkpt>
<trkpt lat="45.051493" lon="-115.899351"><ele>1787.2</ele></trkpt>
<trkpt lat="45.051264" lon="-115.898528"><ele>1782.6</ele></trkpt>
<trkpt lat="45.050914" lon="-115.897593"><ele>1777.0</ele></trkpt>
<trkpt lat="45.050688" lon="-115.896727"><ele>1772.4</ele></trkpt>
<trkpt lat="45.050510" lon="-115.895814"><ele>1767.2</ele></trkpt>
<trkpt lat="45.050482" lon="-115.894971"><ele>1763.2</ele></trkpt>
<trkpt lat="45.050203" lon="-115.893703"><ele>1756.8</ele></trkpt>
<trkpt lat="45.050328" lon="-115.891914"><ele>1749.4</ele></trkpt>
<trkpt lat="45.050322" lon="-115.891247"><ele>1745.2</ele></trkpt>
<trkpt lat="45.050480" lon="-115.890090"><ele>1739.6</ele></trkpt>
<trkpt lat="45.050932" lon="-115.888760"><ele>1733.4</ele></trkpt>
<trkpt lat="45.051512" lon="-115.886611"><ele>1721.2</ele></trkpt>
<trkpt lat="45.052477" lon="-115.885006"><ele>1709.8</ele></trkpt>
<trkpt lat="45.053276" lon="-115.884044"><ele>1703.2</ele></trkpt>
<trkpt lat="45.053812" lon="-115.883167"><ele>1698.0</ele></trkpt>
<trkpt lat="45.054139" lon="-115.882351"><ele>1692.8</ele></trkpt>
<trkpt lat="45.054553" lon="-115.881768"><ele>1689.4</ele></trkpt>
<trkpt lat="45.054877" lon="-115.880663"><ele>1682.4</ele></trkpt>
<trkpt lat="45.055296" lon="-115.880005"><ele>1678.6</ele></trkpt>
<trkpt lat="45.055357" lon="-115.879252"><ele>1675.2</ele></trkpt>
<trkpt lat="45.055486" lon="-115.878727"><ele>1673.0</ele></trkpt>
<trkpt lat="45.055812" lon="-115.878016"><ele>1668.8</ele></trkpt>
<trkpt lat="45.056437" lon="-115.877292"><ele>1663.4</ele></trkpt>
<trkpt lat="45.056801" lon="-115.876439"><ele>1659.4</ele></trkpt>
<trkpt lat="45.057211" lon="-115.874724"><ele>1649.2</ele></trkpt>
<trkpt lat="45.057279" lon="-115.874058"><ele>1646.8</ele></trkpt>
<trkpt lat="45.057573" lon="-115.873352"><ele>1642.2</ele></trkpt>
<trkpt lat="45.057609" lon="-115.873122"><ele>1641.0</ele></trkpt>
<trkpt lat="45.057353" lon="-115.872232"><ele>1636.8</ele></trkpt>
<trkpt lat="45.057234" lon="-115.871316"><ele>1632.0</ele></trkpt>
<trkpt lat="45.057390" lon="-115.870859"><ele>1629.0</ele></trkpt>
<trkpt lat="45.057862" lon="-115.870421"><ele>1625.6</ele></trkpt>
<trkpt lat="45.058064" lon="-115.870128"><ele>1624.6</ele></trkpt>
<trkpt lat="45.058351" lon="-115.868923"><ele>1618.4</ele></trkpt>
<trkpt lat="45.058314" lon="-115.868170"><ele>1616.0</ele></trkpt>
<trkpt lat="45.058506" lon="-115.867344"><ele>1612.6</ele></trkpt>
<trkpt lat="45.058425" lon="-115.866623"><ele>1609.8</ele></trkpt>
<trkpt lat="45.058460" lon="-115.866195"><ele>1607.6</ele></trkpt>
<trkpt lat="45.058683" lon="-115.865683"><ele>1604.8</ele></trkpt>
<trkpt lat="45.059275" lon="-115.865027"><ele>1601.8</ele></trkpt>
<trkpt lat="45.059360" lon="-115.864707"><ele>1600.8</ele></trkpt>
<trkpt lat="45.059427" lon="-115.863804"><ele>1597.0</ele></trkpt>
<trkpt lat="45.059840" lon="-115.862853"><ele>1593.2</ele></trkpt>
<trkpt lat="45.059861" lon="-115.862623"><ele>1592.4</ele></trkpt>
<trkpt lat="45.059790" lon="-115.862286"><ele>1591.0</ele></trkpt>
<trkpt lat="45.059392" lon="-115.861246"><ele>1585.6</ele></trkpt>
<trkpt lat="45.059424" lon="-115.860793"><ele>1584.2</ele></trkpt>
<trkpt lat="45.059577" lon="-115.860503"><ele>1582.2</ele></trkpt>
<trkpt lat="45.059869" lon="-115.860217"><ele>1580.4</ele></trkpt>
<trkpt lat="45.060719" lon="-115.859731"><ele>1575.0</ele></trkpt>
<trkpt lat="45.060939" lon="-115.859445"><ele>1573.2</ele></trkpt>
<trkpt lat="45.061189" lon="-115.858594"><ele>1568.6</ele></trkpt>
<trkpt lat="45.061290" lon="-115.857352"><ele>1562.8</ele></trkpt>
<trkpt lat="45.061561" lon="-115.856066"><ele>1555.4</ele></trkpt>
<trkpt lat="45.062061" lon="-115.854980"><ele>1548.0</ele></trkpt>
<trkpt lat="45.061995" lon="-115.855024"><ele>1548.4</ele></trkpt>
<trkpt lat="45.062146" lon="-115.854915"><ele>1547.6</ele></trkpt>
<trkpt lat="45.062603" lon="-115.854236"><ele>1544.6</ele></trkpt>
<trkpt lat="45.062628" lon="-115.853807"><ele>1542.6</ele></trkpt>
<trkpt lat="45.062558" lon="-115.853150"><ele>1539.4</ele></trkpt>
<trkpt lat="45.062617" lon="-115.852828"><ele>1537.4</ele></trkpt>
<trkpt lat="45.062867" lon="-115.852352"><ele>1535.0</ele></trkpt>
<trkpt lat="45.063303" lon="-115.852028"><ele>1531.6</ele></trkpt>
<trkpt lat="45.063752" lon="-115.851813"><ele>1528.6</ele></trkpt>
<trkpt lat="45.064136" lon="-115.851328"><ele>1526.0</ele></trkpt>
<trkpt lat="45.064201" lon="-115.850838"><ele>1524.0</ele></trkpt>
<trkpt lat="45.063970" lon="-115.849931"><ele>1520.6</ele></trkpt>
<trkpt lat="45.063934" lon="-115.849230"><ele>1516.8</ele></trkpt>
<trkpt lat="45.064161" lon="-115.847934"><ele>1511.0</ele></trkpt>
<trkpt lat="45.064198" lon="-115.846569"><ele>1504.4</ele></trkpt>
<trkpt lat="45.064382" lon="-115.845686"><ele>1500.4</ele></trkpt>
<trkpt lat="45.064601" lon="-115.845044"><ele>1497.8</ele></trkpt>
<trkpt lat="45.064980" lon="-115.844319"><ele>1493.4</ele></trkpt>
<trkpt lat="45.065944" lon="-115.843025"><ele>1484.6</ele></trkpt>
<trkpt lat="45.066514" lon="-115.841585"><ele>1476.0</ele></trkpt>
<trkpt lat="45.066950" lon="-115.840761"><ele>1470.8</ele></trkpt>
<trkpt lat="45.067478" lon="-115.838710"><ele>1461.4</ele></trkpt>
<trkpt lat="45.067635" lon="-115.837779"><ele>1457.6</ele></trkpt>
<trkpt lat="45.067617" lon="-115.837121"><ele>1455.2</ele></trkpt>
<trkpt lat="45.067369" lon="-115.836205"><ele>1449.8</ele></trkpt>
<trkpt lat="45.067353" lon="-115.835644"><ele>1446.0</ele></trkpt>
<trkpt lat="45.067597" lon="-115.834961"><ele>1442.0</ele></trkpt>
<trkpt lat="45.069051" lon="-115.832261"><ele>1430.8</ele></trkpt>
<trkpt lat="45.069362" lon="-115.831060"><ele>1427.0</ele></trkpt>
<trkpt lat="45.069406" lon="-115.830053"><ele>1423.0</ele></trkpt>
<trkpt lat="45.069355" lon="-115.828868"><ele>1418.4</ele></trkpt>
<trkpt lat="45.068964" lon="-115.827056"><ele>1411.2</ele></trkpt>
<trkpt lat="45.068928" lon="-115.826162"><ele>1408.6</ele></trkpt>
<trkpt lat="45.068979" lon="-115.825593"><ele>1407.2</ele></trkpt>
<trkpt lat="45.069371" lon="-115.824384"><ele>1404.8</ele></trkpt>
<trkpt lat="45.069474" lon="-115.823968"><ele>1403.8</ele></trkpt>
<trkpt lat="45.069503" lon="-115.823547"><ele>1402.6</ele></trkpt>
<trkpt lat="45.069137" lon="-115.821718"><ele>1397.2</ele></trkpt>
<trkpt lat="45.069087" lon="-115.821015"><ele>1394.8</ele></trkpt>
<trkpt lat="45.069188" lon="-115.820151"><ele>1392.2</ele></trkpt>
<trkpt lat="45.069464" lon="-115.819039"><ele>1387.6</ele></trkpt>
<trkpt lat="45.069538" lon="-115.818465"><ele>1385.8</ele></trkpt>
<trkpt lat="45.069515" lon="-115.817875"><ele>1383.8</ele></trkpt>
<trkpt lat="45.069346" lon="-115.817189"><ele>1381.6</ele></trkpt>
<trkpt lat="45.069265" lon="-115.816443"><ele>1379.4</ele></trkpt>
<trkpt lat="45.069559" lon="-115.814040"><ele>1372.2</ele></trkpt>
<trkpt lat="45.069432" lon="-115.811436"><ele>1367.2</ele></trkpt>
<trkpt lat="45.069472" lon="-115.810581"><ele>1364.8</ele></trkpt>
<trkpt lat="45.069632" lon="-115.809242"><ele>1361.6</ele></trkpt>
<trkpt lat="45.069568" lon="-115.807346"><ele>1360.2</ele></trkpt>
<trkpt lat="45.069969" lon="-115.805968"><ele>1354.6</ele></trkpt>
<trkpt lat="45.070120" lon="-115.804376"><ele>1351.2</ele></trkpt>
<trkpt lat="45.070312" lon="-115.803749"><ele>1350.4</ele></trkpt>
<trkpt lat="45.070704" lon="-115.802943"><ele>1349.4</ele></trkpt>
<trkpt lat="45.070958" lon="-115.802105"><ele>1347.8</ele></trkpt>
<trkpt lat="45.071181" lon="-115.800308"><ele>1342.8</ele></trkpt>
<trkpt lat="45.071581" lon="-115.799159"><ele>1338.0</ele></trkpt>
<trkpt lat="45.071686" lon="-115.798652"><ele>1336.8</ele></trkpt>
<trkpt lat="45.071691" lon="-115.797616"><ele>1334.2</ele></trkpt>
<trkpt lat="45.072080" lon="-115.795216"><ele>1325.4</ele></trkpt>
<trkpt lat="45.072147" lon="-115.793511"><ele>1320.4</ele></trkpt>
<trkpt lat="45.072488" lon="-115.791197"><ele>1314.4</ele></trkpt>
<trkpt lat="45.072699" lon="-115.788030"><ele>1310.2</ele></trkpt>
<trkpt lat="45.073216" lon="-115.785146"><ele>1307.2</ele></trkpt>
<trkpt lat="45.073415" lon="-115.783510"><ele>1303.2</ele></trkpt>
<trkpt lat="45.073629" lon="-115.779801"><ele>1292.4</ele></trkpt>
<trkpt lat="45.073554" lon="-115.779247"><ele>1290.8</ele></trkpt>
<trkpt lat="45.073384" lon="-115.778761"><ele>1290.0</ele></trkpt>
<trkpt lat="45.072407" lon="-115.776920"><ele>1285.0</ele></trkpt>
<trkpt lat="45.072142" lon="-115.776534"><ele>1283.8</ele></trkpt>
<trkpt lat="45.071831" lon="-115.776207"><ele>1282.8</ele></trkpt>
<trkpt lat="45.071474" lon="-115.776001"><ele>1282.0</ele></trkpt>
<trkpt lat="45.070319" lon="-115.775585"><ele>1277.2</ele></trkpt>
<trkpt lat="45.069860" lon="-115.775261"><ele>1274.6</ele></trkpt>
<trkpt lat="45.069075" lon="-115.774440"><ele>1269.0</ele></trkpt>
<trkpt lat="45.068395" lon="-115.773579"><ele>1266.0</ele></trkpt>
<trkpt lat="45.067932" lon="-115.772851"><ele>1265.0</ele></trkpt>
<trkpt lat="45.067693" lon="-115.772272"><ele>1263.8</ele></trkpt>
<trkpt lat="45.067228" lon="-115.769865"><ele>1257.8</ele></trkpt>
<trkpt lat="45.066907" lon="-115.767776"><ele>1252.8</ele></trkpt>
<trkpt lat="45.066700" lon="-115.767072"><ele>1252.0</ele></trkpt>
<trkpt lat="45.066134" lon="-115.765590"><ele>1247.6</ele></trkpt>
<trkpt lat="45.065841" lon="-115.764979"><ele>1245.8</ele></trkpt>
<trkpt lat="45.065381" lon="-115.764234"><ele>1244.0</ele></trkpt>
<trkpt lat="45.063866" lon="-115.761969"><ele>1240.8</ele></trkpt>
<trkpt lat="45.062726" lon="-115.759567"><ele>1239.8</ele></trkpt>
<trkpt lat="45.062917" lon="-115.759943"><ele>1239.8</ele></trkpt>
<trkpt lat="45.062925" lon="-115.759863"><ele>1239.8</ele></trkpt>
<trkpt lat="45.062910" lon="-115.759952"><ele>1239.0</ele></trkpt>
<trkpt lat="45.062933" lon="-115.759888"><ele>1238.8</ele></trkpt>
<trkpt lat="45.062871" lon="-115.759887"><ele>1238.4</ele></trkpt>
<trkpt lat="45.062728" lon="-115.759459"><ele>1237.6</ele></trkpt>
<trkpt lat="45.062600" lon="-115.759280"><ele>1237.6</ele></trkpt>
<trkpt lat="45.062633" lon="-115.759254"><ele>1237.6</ele></trkpt>
<trkpt lat="45.062617" lon="-115.759350"><ele>1237.6</ele></trkpt>
<trkpt lat="45.062650" lon="-115.759306"><ele>1237.8</ele></trkpt>
<trkpt lat="45.062543" lon="-115.759118"><ele>1237.8</ele></trkpt>
<trkpt lat="45.062145" lon="-115.758541"><ele>1237.0</ele></trkpt>
<trkpt lat="45.061199" lon="-115.757741"><ele>1235.6</ele></trkpt>
<trkpt lat="45.060201" lon="-115.756386"><ele>1230.8</ele></trkpt>
<trkpt lat="45.058708" lon="-115.755322"><ele>1225.2</ele></trkpt>
<trkpt lat="45.057534" lon="-115.754662"><ele>1224.0</ele></trkpt>
<trkpt lat="45.055944" lon="-115.754212"><ele>1222.2</ele></trkpt>
<trkpt lat="45.053036" lon="-115.753211"><ele>1210.8</ele></trkpt>
<trkpt lat="45.049132" lon="-115.751791"><ele>1202.8</ele></trkpt>
<trkpt lat="45.047831" lon="-115.751189"><ele>1199.6</ele></trkpt>
<trkpt lat="45.046838" lon="-115.750996"><ele>1200.4</ele></trkpt>
<trkpt lat="45.046172" lon="-115.750645"><ele>1199.8</ele></trkpt>
<trkpt lat="45.045121" lon="-115.750623"><ele>1197.0</ele></trkpt>
<trkpt lat="45.044376" lon="-115.750384"><ele>1194.6</ele></trkpt>
<trkpt lat="45.043833" lon="-115.750016"><ele>1192.0</ele></trkpt>
<trkpt lat="45.041829" lon="-115.747858"><ele>1188.0</ele></trkpt>
<trkpt lat="45.039813" lon="-115.746081"><ele>1184.4</ele></trkpt>
<trkpt lat="45.039081" lon="-115.744930"><ele>1181.6</ele></trkpt>
<trkpt lat="45.038805" lon="-115.744224"><ele>1177.2</ele></trkpt>
<trkpt lat="45.038479" lon="-115.743088"><ele>1178.4</ele></trkpt>
<trkpt lat="45.037283" lon="-115.738645"><ele>1170.6</ele></trkpt>
<trkpt lat="45.037047" lon="-115.738178"><ele>1170.8</ele></trkpt>
<trkpt lat="45.036466" lon="-115.737413"><ele>1173.0</ele></trkpt>
<trkpt lat="45.035133" lon="-115.736059"><ele>1178.2</ele></trkpt>
<trkpt lat="45.034870" lon="-115.735664"><ele>1176.6</ele></trkpt>
<trkpt lat="45.034741" lon="-115.735327"><ele>1175.4</ele></trkpt>
<trkpt lat="45.034568" lon="-115.733585"><ele>1171.0</ele></trkpt>
<trkpt lat="45.034535" lon="-115.731116"><ele>1167.8</ele></trkpt>
<trkpt lat="45.034442" lon="-115.730656"><ele>1166.8</ele></trkpt>
<trkpt lat="45.034218" lon="-115.730272"><ele>1165.2</ele></trkpt>
<trkpt lat="45.033513" lon="-115.729405"><ele>1162.8</ele></trkpt>
<trkpt lat="45.033405" lon="-115.729110"><ele>1162.0</ele></trkpt>
<trkpt lat="45.032922" lon="-115.726832"><ele>1160.6</ele></trkpt>
<trkpt lat="45.032706" lon="-115.726258"><ele>1160.0</ele></trkpt>
<trkpt lat="45.032208" lon="-115.725522"><ele>1159.0</ele></trkpt>
<trkpt lat="45.031390" lon="-115.724535"><ele>1157.6</ele></trkpt>
<trkpt lat="45.031185" lon="-115.723970"><ele>1157.2</ele></trkpt>
<trkpt lat="45.031204" lon="-115.723548"><ele>1156.4</ele></trkpt>
<trkpt lat="45.031347" lon="-115.723334"><ele>1156.2</ele></trkpt>
<trkpt lat="45.031605" lon="-115.723183"><ele>1156.2</ele></trkpt>
<trkpt lat="45.032019" lon="-115.723098"><ele>1155.8</ele></trkpt>
<trkpt lat="45.032964" lon="-115.723089"><ele>1155.4</ele></trkpt>
<trkpt lat="45.033185" lon="-115.722880"><ele>1155.4</ele></trkpt>
<trkpt lat="45.033334" lon="-115.722338"><ele>1155.2</ele></trkpt>
<trkpt lat="45.033300" lon="-115.721952"><ele>1154.8</ele></trkpt>
<trkpt lat="45.033173" lon="-115.721495"><ele>1154.6</ele></trkpt>
<trkpt lat="45.032916" lon="-115.720907"><ele>1154.4</ele></trkpt>
<trkpt lat="45.032365" lon="-115.719961"><ele>1154.2</ele></trkpt>
<trkpt lat="45.032278" lon="-115.719546"><ele>1154.2</ele></trkpt>
<trkpt lat="45.032386" lon="-115.719211"><ele>1153.4</ele></trkpt>
<trkpt lat="45.033342" lon="-115.718311"><ele>1149.6</ele></trkpt>
<trkpt lat="45.033763" lon="-115.717625"><ele>1148.2</ele></trkpt>
<trkpt lat="45.034072" lon="-115.716531"><ele>1147.4</ele></trkpt>
<trkpt lat="45.034058" lon="-115.715816"><ele>1147.0</ele></trkpt>
<trkpt lat="45.033869" lon="-115.715090"><ele>1146.0</ele></trkpt>
<trkpt lat="45.033524" lon="-115.714453"><ele>1144.8</ele></trkpt>
<trkpt lat="45.033215" lon="-115.713646"><ele>1143.2</ele></trkpt>
<trkpt lat="45.032821" lon="-115.713022"><ele>1142.6</ele></trkpt>
<trkpt lat="45.032614" lon="-115.712844"><ele>1142.6</ele></trkpt>
<trkpt lat="45.032240" lon="-115.712698"><ele>1141.6</ele></trkpt>
<trkpt lat="45.031224" lon="-115.712698"><ele>1139.2</ele></trkpt>
<trkpt lat="45.030496" lon="-115.712876"><ele>1136.4</ele></trkpt>
<trkpt lat="45.029519" lon="-115.713424"><ele>1134.4</ele></trkpt>
<trkpt lat="45.029147" lon="-115.713449"><ele>1133.6</ele></trkpt>
<trkpt lat="45.028861" lon="-115.713345"><ele>1132.4</ele></trkpt>
<trkpt lat="45.028695" lon="-115.713188"><ele>1131.2</ele></trkpt>
<trkpt lat="45.028596" lon="-115.712963"><ele>1130.0</ele></trkpt>
<trkpt lat="45.028390" lon="-115.711769"><ele>1126.8</ele></trkpt>
<trkpt lat="45.028212" lon="-115.711097"><ele>1126.6</ele></trkpt>
<trkpt lat="45.028283" lon="-115.709556"><ele>1125.8</ele></trkpt>
<trkpt lat="45.028176" lon="-115.708814"><ele>1125.8</ele></trkpt>
<trkpt lat="45.028087" lon="-115.708617"><ele>1125.6</ele></trkpt>
<trkpt lat="45.027746" lon="-115.708249"><ele>1125.4</ele></trkpt>
<trkpt lat="45.027397" lon="-115.708036"><ele>1125.2</ele></trkpt>
<trkpt lat="45.026440" lon="-115.707888"><ele>1124.6</ele></trkpt>
<trkpt lat="45.025833" lon="-115.707708"><ele>1122.8</ele></trkpt>
<trkpt lat="45.025418" lon="-115.707814"><ele>1122.4</ele></trkpt>
<trkpt lat="45.024960" lon="-115.708092"><ele>1119.8</ele></trkpt>
<trkpt lat="45.023539" lon="-115.710052"><ele>1119.0</ele></trkpt>
<trkpt lat="45.021830" lon="-115.712093"><ele>1119.4</ele></trkpt>
<trkpt lat="45.021381" lon="-115.712451"><ele>1121.0</ele></trkpt>
<trkpt lat="45.021190" lon="-115.712709"><ele>1121.0</ele></trkpt>
<trkpt lat="45.019749" lon="-115.713642"><ele>1122.2</ele></trkpt>
<trkpt lat="45.018570" lon="-115.714161"><ele>1123.2</ele></trkpt>
<trkpt lat="45.017291" lon="-115.714303"><ele>1125.4</ele></trkpt>
<trkpt lat="45.015812" lon="-115.714774"><ele>1126.4</ele></trkpt>
<trkpt lat="45.011705" lon="-115.714031"><ele>1132.8</ele></trkpt>
<trkpt lat="45.010920" lon="-115.713799"><ele>1130.8</ele></trkpt>
<trkpt lat="45.008533" lon="-115.712381"><ele>1131.0</ele></trkpt>
<trkpt lat="45.007688" lon="-115.711774"><ele>1130.4</ele></trkpt>
<trkpt lat="45.006937" lon="-115.710961"><ele>1131.8</ele></trkpt>
<trkpt lat="45.006346" lon="-115.709797"><ele>1134.0</ele></trkpt>
<trkpt lat="45.005756" lon="-115.707909"><ele>1138.0</ele></trkpt>
<trkpt lat="45.004786" lon="-115.705312"><ele>1141.8</ele></trkpt>
<trkpt lat="45.004347" lon="-115.703518"><ele>1142.8</ele></trkpt>
<trkpt lat="45.004293" lon="-115.703004"><ele>1141.8</ele></trkpt>
<trkpt lat="45.004311" lon="-115.702230"><ele>1142.0</ele></trkpt>
<trkpt lat="45.004537" lon="-115.701001"><ele>1142.2</ele></trkpt>
<trkpt lat="45.004827" lon="-115.700107"><ele>1142.4</ele></trkpt>
<trkpt lat="45.005201" lon="-115.699316"><ele>1143.2</ele></trkpt>
<trkpt lat="45.005739" lon="-115.697863"><ele>1145.6</ele></trkpt>
<trkpt lat="45.005803" lon="-115.697008"><ele>1146.6</ele></trkpt>
<trkpt lat="45.005621" lon="-115.695988"><ele>1148.0</ele></trkpt>
<trkpt lat="45.005336" lon="-115.695471"><ele>1149.2</ele></trkpt>
<trkpt lat="45.004977" lon="-115.695053"><ele>1150.4</ele></trkpt>
<trkpt lat="45.004599" lon="-115.694745"><ele>1150.6</ele></trkpt>
<trkpt lat="45.004091" lon="-115.694476"><ele>1150.8</ele></trkpt>
<trkpt lat="45.001896" lon="-115.694009"><ele>1153.6</ele></trkpt>
<trkpt lat="45.001410" lon="-115.694060"><ele>1153.4</ele></trkpt>
<trkpt lat="45.000334" lon="-115.694476"><ele>1155.2</ele></trkpt>
<trkpt lat="45.000026" lon="-115.694408"><ele>1155.8</ele></trkpt>
<trkpt lat="44.999869" lon="-115.694282"><ele>1157.0</ele></trkpt>
<trkpt lat="44.999436" lon="-115.693649"><ele>1157.4</ele></trkpt>
<trkpt lat="44.998585" lon="-115.691816"><ele>1158.2</ele></trkpt>
<trkpt lat="44.998311" lon="-115.691085"><ele>1158.6</ele></trkpt>
<trkpt lat="44.998033" lon="-115.689751"><ele>1161.8</ele></trkpt>
<trkpt lat="44.997913" lon="-115.688114"><ele>1163.6</ele></trkpt>
<trkpt lat="44.997845" lon="-115.687621"><ele>1164.4</ele></trkpt>
<trkpt lat="44.997724" lon="-115.687239"><ele>1165.2</ele></trkpt>
<trkpt lat="44.997349" lon="-115.686569"><ele>1166.6</ele></trkpt>
<trkpt lat="44.996603" lon="-115.685603"><ele>1169.0</ele></trkpt>
<trkpt lat="44.996164" lon="-115.684433"><ele>1170.2</ele></trkpt>
<trkpt lat="44.995540" lon="-115.683270"><ele>1172.4</ele></trkpt>
<trkpt lat="44.995443" lon="-115.682862"><ele>1173.2</ele></trkpt>
<trkpt lat="44.995486" lon="-115.681870"><ele>1174.2</ele></trkpt>
<trkpt lat="44.995428" lon="-115.681278"><ele>1175.4</ele></trkpt>
<trkpt lat="44.995078" lon="-115.680227"><ele>1177.8</ele></trkpt>
<trkpt lat="44.995025" lon="-115.679758"><ele>1178.4</ele></trkpt>
<trkpt lat="44.995034" lon="-115.677364"><ele>1179.6</ele></trkpt>
<trkpt lat="44.994985" lon="-115.676738"><ele>1179.4</ele></trkpt>
<trkpt lat="44.994767" lon="-115.675718"><ele>1179.2</ele></trkpt>
<trkpt lat="44.994223" lon="-115.674635"><ele>1178.8</ele></trkpt>
<trkpt lat="44.993906" lon="-115.674204"><ele>1179.2</ele></trkpt>
<trkpt lat="44.993005" lon="-115.673427"><ele>1180.4</ele></trkpt>
<trkpt lat="44.992763" lon="-115.673137"><ele>1181.2</ele></trkpt>
<trkpt lat="44.992636" lon="-115.672582"><ele>1182.4</ele></trkpt>
<trkpt lat="44.992632" lon="-115.671345"><ele>1182.8</ele></trkpt>
<trkpt lat="44.992380" lon="-115.670784"><ele>1183.8</ele></trkpt>
<trkpt lat="44.992087" lon="-115.670546"><ele>1185.4</ele></trkpt>
<trkpt lat="44.991799" lon="-115.670462"><ele>1184.4</ele></trkpt>
<trkpt lat="44.991360" lon="-115.670450"><ele>1185.0</ele></trkpt>
<trkpt lat="44.990791" lon="-115.670600"><ele>1188.0</ele></trkpt>
<trkpt lat="44.990469" lon="-115.670809"><ele>1188.0</ele></trkpt>
<trkpt lat="44.989657" lon="-115.671936"><ele>1190.0</ele></trkpt>
<trkpt lat="44.989300" lon="-115.672315"><ele>1190.4</ele></trkpt>
<trkpt lat="44.988390" lon="-115.672862"><ele>1191.0</ele></trkpt>
<trkpt lat="44.987750" lon="-115.672997"><ele>1191.6</ele></trkpt>
<trkpt lat="44.986940" lon="-115.672953"><ele>1192.2</ele></trkpt>
<trkpt lat="44.985436" lon="-115.673197"><ele>1196.4</ele></trkpt>
<trkpt lat="44.983117" lon="-115.673334"><ele>1200.8</ele></trkpt>
<trkpt lat="44.982594" lon="-115.673014"><ele>1201.6</ele></trkpt>
<trkpt lat="44.981909" lon="-115.672385"><ele>1202.2</ele></trkpt>
<trkpt lat="44.981610" lon="-115.672242"><ele>1203.0</ele></trkpt>
<trkpt lat="44.980830" lon="-115.672229"><ele>1203.6</ele></trkpt>
<trkpt lat="44.978617" lon="-115.672634"><ele>1205.2</ele></trkpt>
<trkpt lat="44.977145" lon="-115.672508"><ele>1208.4</ele></trkpt>
<trkpt lat="44.976305" lon="-115.672278"><ele>1210.4</ele></trkpt>
<trkpt lat="44.975682" lon="-115.671865"><ele>1212.6</ele></trkpt>
<trkpt lat="44.974243" lon="-115.670445"><ele>1213.0</ele></trkpt>
<trkpt lat="44.973959" lon="-115.670251"><ele>1214.0</ele></trkpt>
<trkpt lat="44.973545" lon="-115.670118"><ele>1215.6</ele></trkpt>
<trkpt lat="44.971978" lon="-115.670058"><ele>1218.4</ele></trkpt>
<trkpt lat="44.971425" lon="-115.669960"><ele>1219.0</ele></trkpt>
<trkpt lat="44.970095" lon="-115.669228"><ele>1220.0</ele></trkpt>
<trkpt lat="44.969912" lon="-115.668921"><ele>1220.6</ele></trkpt>
<trkpt lat="44.969367" lon="-115.667478"><ele>1223.8</ele></trkpt>
<trkpt lat="44.968997" lon="-115.666736"><ele>1225.0</ele></trkpt>
<trkpt lat="44.966864" lon="-115.663218"><ele>1226.0</ele></trkpt>
<trkpt lat="44.966427" lon="-115.662903"><ele>1225.8</ele></trkpt>
<trkpt lat="44.965400" lon="-115.662644"><ele>1226.6</ele></trkpt>
<trkpt lat="44.964980" lon="-115.662455"><ele>1227.0</ele></trkpt>
<trkpt lat="44.963949" lon="-115.661712"><ele>1229.8</ele></trkpt>
<trkpt lat="44.963291" lon="-115.661086"><ele>1231.6</ele></trkpt>
<trkpt lat="44.962841" lon="-115.660578"><ele>1234.8</ele></trkpt>
<trkpt lat="44.962298" lon="-115.659735"><ele>1236.8</ele></trkpt>
<trkpt lat="44.961046" lon="-115.657284"><ele>1239.2</ele></trkpt>
<trkpt lat="44.960615" lon="-115.656739"><ele>1239.2</ele></trkpt>
<trkpt lat="44.959951" lon="-115.656119"><ele>1239.2</ele></trkpt>
<trkpt lat="44.959797" lon="-115.655772"><ele>1239.2</ele></trkpt>
<trkpt lat="44.959757" lon="-115.655292"><ele>1239.6</ele></trkpt>
<trkpt lat="44.959799" lon="-115.654875"><ele>1239.6</ele></trkpt>
<trkpt lat="44.960239" lon="-115.651930"><ele>1240.4</ele></trkpt>
<trkpt lat="44.961199" lon="-115.649779"><ele>1241.4</ele></trkpt>
<trkpt lat="44.961299" lon="-115.649471"><ele>1242.8</ele></trkpt>
<trkpt lat="44.961184" lon="-115.649627"><ele>1241.8</ele></trkpt>
<trkpt lat="44.961276" lon="-115.649563"><ele>1241.2</ele></trkpt>
<trkpt lat="44.961333" lon="-115.649467"><ele>1241.2</ele></trkpt>
<trkpt lat="44.961283" lon="-115.649466"><ele>1240.8</ele></trkpt>
<trkpt lat="44.961322" lon="-115.649526"><ele>1241.0</ele></trkpt>
<trkpt lat="44.961040" lon="-115.650041"><ele>1240.4</ele></trkpt>
<trkpt lat="44.961373" lon="-115.649371"><ele>1240.8</ele></trkpt>
<trkpt lat="44.961531" lon="-115.648841"><ele>1241.8</ele></trkpt>
<trkpt lat="44.961561" lon="-115.648083"><ele>1242.6</ele></trkpt>
<trkpt lat="44.961344" lon="-115.646272"><ele>1245.0</ele></trkpt>
<trkpt lat="44.961453" lon="-115.645223"><ele>1247.4</ele></trkpt>
<trkpt lat="44.961837" lon="-115.643066"><ele>1252.0</ele></trkpt>
<trkpt lat="44.961836" lon="-115.642530"><ele>1253.4</ele></trkpt>
<trkpt lat="44.961736" lon="-115.642091"><ele>1253.4</ele></trkpt>
<trkpt lat="44.958715" lon="-115.635926"><ele>1260.6</ele></trkpt>
<trkpt lat="44.958234" lon="-115.635235"><ele>1261.4</ele></trkpt>
<trkpt lat="44.957528" lon="-115.634545"><ele>1262.6</ele></trkpt>
<trkpt lat="44.957285" lon="-115.634217"><ele>1263.4</ele></trkpt>
<trkpt lat="44.957183" lon="-115.633823"><ele>1263.4</ele></trkpt>
<trkpt lat="44.957203" lon="-115.633454"><ele>1263.8</ele></trkpt>
<trkpt lat="44.957611" lon="-115.632026"><ele>1265.6</ele></trkpt>
<trkpt lat="44.957678" lon="-115.631424"><ele>1267.0</ele></trkpt>
<trkpt lat="44.957546" lon="-115.630659"><ele>1268.2</ele></trkpt>
<trkpt lat="44.957157" lon="-115.629769"><ele>1269.2</ele></trkpt>
<trkpt lat="44.955557" lon="-115.626936"><ele>1273.6</ele></trkpt>
<trkpt lat="44.954962" lon="-115.626350"><ele>1275.0</ele></trkpt>
<trkpt lat="44.953673" lon="-115.625572"><ele>1277.0</ele></trkpt>
<trkpt lat="44.952969" lon="-115.624628"><ele>1277.4</ele></trkpt>
<trkpt lat="44.952560" lon="-115.623911"><ele>1278.8</ele></trkpt>
<trkpt lat="44.952180" lon="-115.622705"><ele>1279.8</ele></trkpt>
<trkpt lat="44.951600" lon="-115.621361"><ele>1282.0</ele></trkpt>
<trkpt lat="44.950947" lon="-115.619372"><ele>1285.8</ele></trkpt>
<trkpt lat="44.950618" lon="-115.618878"><ele>1286.8</ele></trkpt>
<trkpt lat="44.949015" lon="-115.617169"><ele>1290.6</ele></trkpt>
<trkpt lat="44.947168" lon="-115.614068"><ele>1293.4</ele></trkpt>
<trkpt lat="44.946802" lon="-115.613342"><ele>1294.0</ele></trkpt>
<trkpt lat="44.946289" lon="-115.612108"><ele>1295.2</ele></trkpt>
<trkpt lat="44.946081" lon="-115.611335"><ele>1295.8</ele></trkpt>
<trkpt lat="44.945739" lon="-115.609659"><ele>1299.2</ele></trkpt>
<trkpt lat="44.945484" lon="-115.607597"><ele>1301.0</ele></trkpt>
<trkpt lat="44.945123" lon="-115.606179"><ele>1303.2</ele></trkpt>
<trkpt lat="44.944709" lon="-115.604941"><ele>1304.8</ele></trkpt>
<trkpt lat="44.944646" lon="-115.604436"><ele>1306.4</ele></trkpt>
<trkpt lat="44.944795" lon="-115.602859"><ele>1309.8</ele></trkpt>
<trkpt lat="44.945079" lon="-115.601501"><ele>1313.4</ele></trkpt>
<trkpt lat="44.945356" lon="-115.600729"><ele>1315.6</ele></trkpt>
<trkpt lat="44.945755" lon="-115.600292"><ele>1316.8</ele></trkpt>
<trkpt lat="44.945924" lon="-115.599891"><ele>1317.4</ele></trkpt>
<trkpt lat="44.945958" lon="-115.599387"><ele>1315.6</ele></trkpt>
<trkpt lat="44.945695" lon="-115.597749"><ele>1316.2</ele></trkpt>
<trkpt lat="44.945646" lon="-115.595593"><ele>1317.4</ele></trkpt>
<trkpt lat="44.945770" lon="-115.594671"><ele>1321.2</ele></trkpt>
<trkpt lat="44.945935" lon="-115.594118"><ele>1321.8</ele></trkpt>
<trkpt lat="44.946336" lon="-115.593168"><ele>1322.2</ele></trkpt>
<trkpt lat="44.946588" lon="-115.592034"><ele>1324.2</ele></trkpt>
<trkpt lat="44.948264" lon="-115.587992"><ele>1332.2</ele></trkpt>
<trkpt lat="44.948828" lon="-115.586487"><ele>1334.6</ele></trkpt>
<trkpt lat="44.948959" lon="-115.585876"><ele>1335.6</ele></trkpt>
<trkpt lat="44.948974" lon="-115.585098"><ele>1337.0</ele></trkpt>
<trkpt lat="44.949085" lon="-115.584198"><ele>1337.8</ele></trkpt>
<trkpt lat="44.949365" lon="-115.580042"><ele>1341.0</ele></trkpt>
<trkpt lat="44.949229" lon="-115.576813"><ele>1345.2</ele></trkpt>
<trkpt lat="44.948779" lon="-115.575361"><ele>1347.2</ele></trkpt>
<trkpt lat="44.948815" lon="-115.574733"><ele>1347.8</ele></trkpt>
<trkpt lat="44.949132" lon="-115.574002"><ele>1349.0</ele></trkpt>
<trkpt lat="44.949431" lon="-115.573553"><ele>1350.2</ele></trkpt>
<trkpt lat="44.951172" lon="-115.571853"><ele>1352.0</ele></trkpt>
<trkpt lat="44.951586" lon="-115.571369"><ele>1352.6</ele></trkpt>
<trkpt lat="44.951927" lon="-115.570777"><ele>1353.8</ele></trkpt>
<trkpt lat="44.952057" lon="-115.569886"><ele>1355.0</ele></trkpt>
<trkpt lat="44.952103" lon="-115.568609"><ele>1356.4</ele></trkpt>
<trkpt lat="44.952318" lon="-115.567316"><ele>1358.2</ele></trkpt>
<trkpt lat="44.953551" lon="-115.561877"><ele>1361.8</ele></trkpt>
<trkpt lat="44.954152" lon="-115.558862"><ele>1367.8</ele></trkpt>
<trkpt lat="44.954240" lon="-115.557437"><ele>1373.4</ele></trkpt>
<trkpt lat="44.954110" lon="-115.555545"><ele>1379.6</ele></trkpt>
<trkpt lat="44.953485" lon="-115.552678"><ele>1383.6</ele></trkpt>
<trkpt lat="44.952515" lon="-115.550068"><ele>1381.0</ele></trkpt>
<trkpt lat="44.952540" lon="-115.549682"><ele>1381.6</ele></trkpt>
<trkpt lat="44.952890" lon="-115.548312"><ele>1383.8</ele></trkpt>
<trkpt lat="44.952928" lon="-115.547886"><ele>1385.2</ele></trkpt>
<trkpt lat="44.952868" lon="-115.547282"><ele>1387.0</ele></trkpt>
<trkpt lat="44.952644" lon="-115.546169"><ele>1389.2</ele></trkpt>
<trkpt lat="44.952636" lon="-115.545631"><ele>1390.2</ele></trkpt>
<trkpt lat="44.953095" lon="-115.544701"><ele>1392.2</ele></trkpt>
<trkpt lat="44.953982" lon="-115.543722"><ele>1395.2</ele></trkpt>
<trkpt lat="44.954158" lon="-115.543413"><ele>1395.8</ele></trkpt>
<trkpt lat="44.954710" lon="-115.541183"><ele>1399.8</ele></trkpt>
<trkpt lat="44.954902" lon="-115.540695"><ele>1400.4</ele></trkpt>
<trkpt lat="44.955832" lon="-115.539378"><ele>1400.8</ele></trkpt>
<trkpt lat="44.956253" lon="-115.538468"><ele>1401.8</ele></trkpt>
<trkpt lat="44.956419" lon="-115.537824"><ele>1401.6</ele></trkpt>
<trkpt lat="44.957143" lon="-115.533908"><ele>1408.8</ele></trkpt>
<trkpt lat="44.958550" lon="-115.525956"><ele>1408.2</ele></trkpt>
<trkpt lat="44.958839" lon="-115.521086"><ele>1412.6</ele></trkpt>
<trkpt lat="44.958926" lon="-115.520530"><ele>1413.0</ele></trkpt>
<trkpt lat="44.959394" lon="-115.519321"><ele>1414.2</ele></trkpt>
<trkpt lat="44.962974" lon="-115.512195"><ele>1431.8</ele></trkpt>
<trkpt lat="44.963549" lon="-115.510421"><ele>1436.0</ele></trkpt>
<trkpt lat="44.963770" lon="-115.509255"><ele>1436.0</ele></trkpt>
<trkpt lat="44.963873" lon="-115.507662"><ele>1437.2</ele></trkpt>
<trkpt lat="44.963859" lon="-115.506881"><ele>1437.2</ele></trkpt>
<trkpt lat="44.963683" lon="-115.503963"><ele>1433.6</ele></trkpt>
<trkpt lat="44.963520" lon="-115.502860"><ele>1433.2</ele></trkpt>
<trkpt lat="44.963145" lon="-115.501782"><ele>1433.0</ele></trkpt>
<trkpt lat="44.962334" lon="-115.500325"><ele>1431.8</ele></trkpt>
<trkpt lat="44.961101" lon="-115.497709"><ele>1445.4</ele></trkpt>
<trkpt lat="44.960148" lon="-115.494871"><ele>1453.4</ele></trkpt>
<trkpt lat="44.960091" lon="-115.494418"><ele>1453.0</ele></trkpt>
<trkpt lat="44.960173" lon="-115.493633"><ele>1453.6</ele></trkpt>
<trkpt lat="44.960299" lon="-115.493420"><ele>1454.2</ele></trkpt>
<trkpt lat="44.961913" lon="-115.493629"><ele>1452.4</ele></trkpt>
<trkpt lat="44.963044" lon="-115.493375"><ele>1455.2</ele></trkpt>
<trkpt lat="44.963873" lon="-115.493358"><ele>1458.8</ele></trkpt>
<trkpt lat="44.963967" lon="-115.493387"><ele>1459.2</ele></trkpt>
<trkpt lat="44.963954" lon="-115.493437"><ele>1459.2</ele></trkpt>
<trkpt lat="44.963912" lon="-115.493407"><ele>1459.4</ele></trkpt>
<trkpt lat="44.963948" lon="-115.493322"><ele>1459.4</ele></trkpt>
<trkpt lat="44.964132" lon="-115.493256"><ele>1459.8</ele></trkpt>
<trkpt lat="44.964722" lon="-115.493253"><ele>1460.2</ele></trkpt>
<trkpt lat="44.965027" lon="-115.492437"><ele>1461.0</ele></trkpt>
<trkpt lat="44.964949" lon="-115.491996"><ele>1464.0</ele></trkpt>
<trkpt lat="44.964899" lon="-115.490667"><ele>1471.8</ele></trkpt>
<trkpt lat="44.964722" lon="-115.490249"><ele>1475.2</ele></trkpt>
<trkpt lat="44.964813" lon="-115.490041"><ele>1476.8</ele></trkpt>
<trkpt lat="44.964974" lon="-115.489969"><ele>1478.2</ele></trkpt>
<trkpt lat="44.965272" lon="-115.490049"><ele>1481.2</ele></trkpt>
<trkpt lat="44.965838" lon="-115.490510"><ele>1486.6</ele></trkpt>
<trkpt lat="44.966296" lon="-115.491051"><ele>1490.6</ele></trkpt>
<trkpt lat="44.966412" lon="-115.491096"><ele>1491.8</ele></trkpt>
<trkpt lat="44.966569" lon="-115.491005"><ele>1492.8</ele></trkpt>
<trkpt lat="44.966667" lon="-115.490502"><ele>1494.2</ele></trkpt>
<trkpt lat="44.966392" lon="-115.488844"><ele>1495.8</ele></trkpt>
<trkpt lat="44.966400" lon="-115.487074"><ele>1495.6</ele></trkpt>
<trkpt lat="44.966500" lon="-115.485361"><ele>1500.2</ele></trkpt>
<trkpt lat="44.966562" lon="-115.485201"><ele>1500.8</ele></trkpt>
<trkpt lat="44.966724" lon="-115.485062"><ele>1501.8</ele></trkpt>
<trkpt lat="44.967129" lon="-115.485045"><ele>1504.2</ele></trkpt>
<trkpt lat="44.967300" lon="-115.484931"><ele>1504.8</ele></trkpt>
<trkpt lat="44.967888" lon="-115.483676"><ele>1507.8</ele></trkpt>
<trkpt lat="44.968666" lon="-115.482451"><ele>1514.4</ele></trkpt>
<trkpt lat="44.968717" lon="-115.482221"><ele>1515.6</ele></trkpt>
<trkpt lat="44.968656" lon="-115.481736"><ele>1515.8</ele></trkpt>
<trkpt lat="44.968730" lon="-115.481443"><ele>1515.4</ele></trkpt>
<trkpt lat="44.969137" lon="-115.480783"><ele>1513.2</ele></trkpt>
<trkpt lat="44.969518" lon="-115.480335"><ele>1513.2</ele></trkpt>
<trkpt lat="44.970155" lon="-115.478538"><ele>1510.4</ele></trkpt>
<trkpt lat="44.969917" lon="-115.477973"><ele>1509.6</ele></trkpt>
<trkpt lat="44.969715" lon="-115.477848"><ele>1509.2</ele></trkpt>
<trkpt lat="44.969414" lon="-115.477859"><ele>1507.8</ele></trkpt>
<trkpt lat="44.968546" lon="-115.478213"><ele>1507.4</ele></trkpt>
<trkpt lat="44.968144" lon="-115.478158"><ele>1508.2</ele></trkpt>
<trkpt lat="44.967747" lon="-115.477850"><ele>1509.8</ele></trkpt>
<trkpt lat="44.967133" lon="-115.476961"><ele>1513.0</ele></trkpt>
<trkpt lat="44.965811" lon="-115.476253"><ele>1517.2</ele></trkpt>
<trkpt lat="44.965612" lon="-115.476292"><ele>1517.2</ele></trkpt>
<trkpt lat="44.964852" lon="-115.477033"><ele>1520.8</ele></trkpt>
<trkpt lat="44.964218" lon="-115.477468"><ele>1523.2</ele></trkpt>
<trkpt lat="44.963352" lon="-115.477784"><ele>1527.2</ele></trkpt>
<trkpt lat="44.962641" lon="-115.477721"><ele>1528.8</ele></trkpt>
<trkpt lat="44.962057" lon="-115.477292"><ele>1531.8</ele></trkpt>
<trkpt lat="44.961981" lon="-115.477127"><ele>1532.2</ele></trkpt>
<trkpt lat="44.961721" lon="-115.475824"><ele>1534.6</ele></trkpt>
<trkpt lat="44.961247" lon="-115.475494"><ele>1534.8</ele></trkpt>
<trkpt lat="44.960981" lon="-115.475042"><ele>1535.8</ele></trkpt>
<trkpt lat="44.960814" lon="-115.473846"><ele>1535.4</ele></trkpt>
<trkpt lat="44.960830" lon="-115.473416"><ele>1536.0</ele></trkpt>
<trkpt lat="44.961338" lon="-115.471326"><ele>1535.0</ele></trkpt>
<trkpt lat="44.961370" lon="-115.470641"><ele>1537.2</ele></trkpt>
<trkpt lat="44.960761" lon="-115.468350"><ele>1540.0</ele></trkpt>
<trkpt lat="44.960673" lon="-115.467648"><ele>1541.2</ele></trkpt>
<trkpt lat="44.960949" lon="-115.465917"><ele>1541.6</ele></trkpt>
<trkpt lat="44.961200" lon="-115.463545"><ele>1544.0</ele></trkpt>
<trkpt lat="44.962503" lon="-115.459794"><ele>1547.6</ele></trkpt>
<trkpt lat="44.962404" lon="-115.459337"><ele>1546.2</ele></trkpt>
<trkpt lat="44.961232" lon="-115.457462"><ele>1553.4</ele></trkpt>
<trkpt lat="44.961081" lon="-115.456374"><ele>1557.8</ele></trkpt>
<trkpt lat="44.961112" lon="-115.456039"><ele>1558.6</ele></trkpt>
<trkpt lat="44.961226" lon="-115.455761"><ele>1559.2</ele></trkpt>
<trkpt lat="44.962127" lon="-115.454789"><ele>1561.8</ele></trkpt>
<trkpt lat="44.962265" lon="-115.454030"><ele>1560.6</ele></trkpt>
<trkpt lat="44.962184" lon="-115.453362"><ele>1559.4</ele></trkpt>
<trkpt lat="44.962032" lon="-115.453052"><ele>1559.0</ele></trkpt>
<trkpt lat="44.961747" lon="-115.452766"><ele>1558.4</ele></trkpt>
<trkpt lat="44.960757" lon="-115.452405"><ele>1558.6</ele></trkpt>
<trkpt lat="44.960503" lon="-115.452216"><ele>1559.6</ele></trkpt>
<trkpt lat="44.960260" lon="-115.451944"><ele>1559.6</ele></trkpt>
<trkpt lat="44.960111" lon="-115.451627"><ele>1558.4</ele></trkpt>
<trkpt lat="44.960144" lon="-115.451405"><ele>1558.8</ele></trkpt>
<trkpt lat="44.960452" lon="-115.450911"><ele>1561.0</ele></trkpt>
<trkpt lat="44.961200" lon="-115.450436"><ele>1564.8</ele></trkpt>
<trkpt lat="44.961344" lon="-115.450067"><ele>1565.8</ele></trkpt>
<trkpt lat="44.961320" lon="-115.449784"><ele>1566.2</ele></trkpt>
<trkpt lat="44.961132" lon="-115.449141"><ele>1566.2</ele></trkpt>
<trkpt lat="44.961102" lon="-115.448756"><ele>1566.0</ele></trkpt>
<trkpt lat="44.961266" lon="-115.448070"><ele>1567.0</ele></trkpt>
<trkpt lat="44.961536" lon="-115.447389"><ele>1568.0</ele></trkpt>
<trkpt lat="44.961585" lon="-115.446865"><ele>1568.8</ele></trkpt>
<trkpt lat="44.961428" lon="-115.446381"><ele>1570.2</ele></trkpt>
<trkpt lat="44.960725" lon="-115.445375"><ele>1572.2</ele></trkpt>
<trkpt lat="44.960644" lon="-115.445003"><ele>1572.6</ele></trkpt>
<trkpt lat="44.960783" lon="-115.443992"><ele>1572.2</ele></trkpt>
<trkpt lat="44.961473" lon="-115.441342"><ele>1575.2</ele></trkpt>
<trkpt lat="44.961496" lon="-115.440761"><ele>1576.0</ele></trkpt>
<trkpt lat="44.961406" lon="-115.440495"><ele>1576.2</ele></trkpt>
<trkpt lat="44.961198" lon="-115.440202"><ele>1575.8</ele></trkpt>
<trkpt lat="44.960486" lon="-115.439581"><ele>1577.2</ele></trkpt>
<trkpt lat="44.960303" lon="-115.439254"><ele>1578.4</ele></trkpt>
<trkpt lat="44.960256" lon="-115.438929"><ele>1579.4</ele></trkpt>
<trkpt lat="44.960349" lon="-115.437684"><ele>1583.4</ele></trkpt>
<trkpt lat="44.960270" lon="-115.437377"><ele>1583.8</ele></trkpt>
<trkpt lat="44.960117" lon="-115.437135"><ele>1583.4</ele></trkpt>
<trkpt lat="44.959919" lon="-115.437008"><ele>1583.8</ele></trkpt>
<trkpt lat="44.959423" lon="-115.437040"><ele>1585.0</ele></trkpt>
<trkpt lat="44.957832" lon="-115.436688"><ele>1587.2</ele></trkpt>
<trkpt lat="44.957516" lon="-115.436423"><ele>1587.8</ele></trkpt>
<trkpt lat="44.957457" lon="-115.436095"><ele>1587.4</ele></trkpt>
<trkpt lat="44.957590" lon="-115.435137"><ele>1590.8</ele></trkpt>
<trkpt lat="44.957604" lon="-115.434632"><ele>1591.8</ele></trkpt>
<trkpt lat="44.957517" lon="-115.434039"><ele>1592.8</ele></trkpt>
<trkpt lat="44.957138" lon="-115.432489"><ele>1593.6</ele></trkpt>
<trkpt lat="44.957110" lon="-115.432063"><ele>1593.8</ele></trkpt>
<trkpt lat="44.957289" lon="-115.431161"><ele>1595.0</ele></trkpt>
<trkpt lat="44.957868" lon="-115.430121"><ele>1596.8</ele></trkpt>
<trkpt lat="44.958148" lon="-115.429012"><ele>1600.6</ele></trkpt>
<trkpt lat="44.958353" lon="-115.428591"><ele>1600.8</ele></trkpt>
<trkpt lat="44.958638" lon="-115.427748"><ele>1602.2</ele></trkpt>
<trkpt lat="44.959803" lon="-115.426128"><ele>1607.2</ele></trkpt>
<trkpt lat="44.960437" lon="-115.425492"><ele>1610.4</ele></trkpt>
<trkpt lat="44.960919" lon="-115.425447"><ele>1613.4</ele></trkpt>
<trkpt lat="44.961323" lon="-115.425103"><ele>1615.2</ele></trkpt>
<trkpt lat="44.962074" lon="-115.424911"><ele>1619.2</ele></trkpt>
<trkpt lat="44.962509" lon="-115.424669"><ele>1621.4</ele></trkpt>
<trkpt lat="44.963100" lon="-115.424766"><ele>1623.4</ele></trkpt>
<trkpt lat="44.964155" lon="-115.424575"><ele>1626.0</ele></trkpt>
<trkpt lat="44.965196" lon="-115.423558"><ele>1631.0</ele></trkpt>
<trkpt lat="44.966170" lon="-115.423756"><ele>1635.2</ele></trkpt>
<trkpt lat="44.966539" lon="-115.423742"><ele>1636.8</ele></trkpt>
<trkpt lat="44.967028" lon="-115.423583"><ele>1638.4</ele></trkpt>
<trkpt lat="44.967994" lon="-115.423064"><ele>1642.8</ele></trkpt>
<trkpt lat="44.969541" lon="-115.422984"><ele>1650.8</ele></trkpt>
<trkpt lat="44.970074" lon="-115.422595"><ele>1654.0</ele></trkpt>
<trkpt lat="44.970622" lon="-115.422405"><ele>1657.8</ele></trkpt>
<trkpt lat="44.970947" lon="-115.422076"><ele>1659.6</ele></trkpt>
<trkpt lat="44.971356" lon="-115.421853"><ele>1660.8</ele></trkpt>
<trkpt lat="44.973207" lon="-115.421266"><ele>1668.6</ele></trkpt>
<trkpt lat="44.973659" lon="-115.420921"><ele>1671.8</ele></trkpt>
<trkpt lat="44.974032" lon="-115.420370"><ele>1675.0</ele></trkpt>
<trkpt lat="44.974228" lon="-115.420198"><ele>1677.0</ele></trkpt>
<trkpt lat="44.974369" lon="-115.420221"><ele>1678.2</ele></trkpt>
<trkpt lat="44.974963" lon="-115.420657"><ele>1682.6</ele></trkpt>
<trkpt lat="44.975339" lon="-115.420582"><ele>1685.6</ele></trkpt>
<trkpt lat="44.976044" lon="-115.420609"><ele>1690.4</ele></trkpt>
<trkpt lat="44.976295" lon="-115.420533"><ele>1692.2</ele></trkpt>
<trkpt lat="44.976553" lon="-115.420346"><ele>1693.8</ele></trkpt>
<trkpt lat="44.976970" lon="-115.419787"><ele>1697.4</ele></trkpt>
<trkpt lat="44.977409" lon="-115.419550"><ele>1699.0</ele></trkpt>
<trkpt lat="44.977807" lon="-115.419199"><ele>1702.4</ele></trkpt>
<trkpt lat="44.978363" lon="-115.419222"><ele>1703.4</ele></trkpt>
<trkpt lat="44.978609" lon="-115.419150"><ele>1704.2</ele></trkpt>
<trkpt lat="44.978870" lon="-115.418949"><ele>1705.6</ele></trkpt>
<trkpt lat="44.979453" lon="-115.418242"><ele>1709.0</ele></trkpt>
<trkpt lat="44.979627" lon="-115.418200"><ele>1709.8</ele></trkpt>
<trkpt lat="44.979822" lon="-115.418339"><ele>1710.8</ele></trkpt>
<trkpt lat="44.980566" lon="-115.417884"><ele>1713.4</ele></trkpt>
<trkpt lat="44.980696" lon="-115.417690"><ele>1714.2</ele></trkpt>
<trkpt lat="44.981074" lon="-115.416728"><ele>1716.0</ele></trkpt>
<trkpt lat="44.981475" lon="-115.416055"><ele>1719.0</ele></trkpt>
<trkpt lat="44.982186" lon="-115.415453"><ele>1723.6</ele></trkpt>
<trkpt lat="44.982645" lon="-115.414791"><ele>1727.8</ele></trkpt>
<trkpt lat="44.982937" lon="-115.414667"><ele>1729.2</ele></trkpt>
<trkpt lat="44.983688" lon="-115.414712"><ele>1734.2</ele></trkpt>
<trkpt lat="44.984605" lon="-115.414213"><ele>1739.6</ele></trkpt>
<trkpt lat="44.984773" lon="-115.414207"><ele>1740.8</ele></trkpt>
<trkpt lat="44.985329" lon="-115.414443"><ele>1741.8</ele></trkpt>
<trkpt lat="44.985673" lon="-115.414335"><ele>1744.0</ele></trkpt>
<trkpt lat="44.986118" lon="-115.413851"><ele>1747.2</ele></trkpt>
<trkpt lat="44.986743" lon="-115.412274"><ele>1758.4</ele></trkpt>
<trkpt lat="44.986943" lon="-115.412149"><ele>1759.8</ele></trkpt>
<trkpt lat="44.987568" lon="-115.412085"><ele>1762.2</ele></trkpt>
<trkpt lat="44.988584" lon="-115.411845"><ele>1766.2</ele></trkpt>
<trkpt lat="44.989948" lon="-115.411797"><ele>1772.4</ele></trkpt>
<trkpt lat="44.990599" lon="-115.411894"><ele>1776.6</ele></trkpt>
<trkpt lat="44.991441" lon="-115.411871"><ele>1781.0</ele></trkpt>
<trkpt lat="44.991993" lon="-115.412037"><ele>1783.4</ele></trkpt>
<trkpt lat="44.992311" lon="-115.411942"><ele>1785.4</ele></trkpt>
<trkpt lat="44.992894" lon="-115.411116"><ele>1791.0</ele></trkpt>
<trkpt lat="44.993801" lon="-115.410558"><ele>1795.6</ele></trkpt>
<trkpt lat="44.994966" lon="-115.409489"><ele>1800.2</ele></trkpt>
<trkpt lat="44.995371" lon="-115.408516"><ele>1803.4</ele></trkpt>
<trkpt lat="44.996450" lon="-115.407142"><ele>1807.6</ele></trkpt>
<trkpt lat="44.996828" lon="-115.406805"><ele>1809.2</ele></trkpt>
<trkpt lat="44.997669" lon="-115.406391"><ele>1814.4</ele></trkpt>
<trkpt lat="44.998427" lon="-115.405809"><ele>1820.0</ele></trkpt>
<trkpt lat="45.001907" lon="-115.402185"><ele>1842.0</ele></trkpt>
<trkpt lat="45.002873" lon="-115.401466"><ele>1848.0</ele></trkpt>
<trkpt lat="45.004009" lon="-115.400255"><ele>1853.6</ele></trkpt>
<trkpt lat="45.004473" lon="-115.399458"><ele>1855.6</ele></trkpt>
<trkpt lat="45.005440" lon="-115.398468"><ele>1859.4</ele></trkpt>
<trkpt lat="45.005850" lon="-115.397358"><ele>1861.0</ele></trkpt>
<trkpt lat="45.005978" lon="-115.397157"><ele>1861.0</ele></trkpt>
<trkpt lat="45.006138" lon="-115.397032"><ele>1861.0</ele></trkpt>
<trkpt lat="45.007051" lon="-115.396864"><ele>1866.6</ele></trkpt>
<trkpt lat="45.007370" lon="-115.396691"><ele>1868.0</ele></trkpt>
<trkpt lat="45.007628" lon="-115.396373"><ele>1869.0</ele></trkpt>
<trkpt lat="45.008049" lon="-115.395578"><ele>1871.8</ele></trkpt>
<trkpt lat="45.008535" lon="-115.395015"><ele>1875.0</ele></trkpt>
<trkpt lat="45.008891" lon="-115.394766"><ele>1875.2</ele></trkpt>
<trkpt lat="45.009956" lon="-115.394654"><ele>1877.6</ele></trkpt>
<trkpt lat="45.010756" lon="-115.394369"><ele>1877.6</ele></trkpt>
<trkpt lat="45.010951" lon="-115.394208"><ele>1878.4</ele></trkpt>
<trkpt lat="45.011149" lon="-115.393630"><ele>1881.4</ele></trkpt>
<trkpt lat="45.011341" lon="-115.393326"><ele>1884.6</ele></trkpt>
<trkpt lat="45.011802" lon="-115.392846"><ele>1890.4</ele></trkpt>
<trkpt lat="45.012933" lon="-115.392756"><ele>1898.8</ele></trkpt>
<trkpt lat="45.013505" lon="-115.392512"><ele>1903.4</ele></trkpt>
<trkpt lat="45.013733" lon="-115.392512"><ele>1905.2</ele></trkpt>
<trkpt lat="45.014121" lon="-115.392724"><ele>1908.2</ele></trkpt>
<trkpt lat="45.014341" lon="-115.392743"><ele>1909.4</ele></trkpt>
<trkpt lat="45.016703" lon="-115.392522"><ele>1922.8</ele></trkpt>
<trkpt lat="45.017207" lon="-115.392572"><ele>1925.2</ele></trkpt>
<trkpt lat="45.017837" lon="-115.393068"><ele>1928.8</ele></trkpt>
<trkpt lat="45.018907" lon="-115.393414"><ele>1935.6</ele></trkpt>
<trkpt lat="45.019180" lon="-115.393708"><ele>1937.0</ele></trkpt>
<trkpt lat="45.019464" lon="-115.394298"><ele>1942.6</ele></trkpt>
<trkpt lat="45.020056" lon="-115.394972"><ele>1945.8</ele></trkpt>
<trkpt lat="45.020744" lon="-115.395310"><ele>1944.0</ele></trkpt>
<trkpt lat="45.021409" lon="-115.395499"><ele>1945.6</ele></trkpt>
<trkpt lat="45.022768" lon="-115.396203"><ele>1955.6</ele></trkpt>
<trkpt lat="45.023227" lon="-115.396687"><ele>1960.8</ele></trkpt>
<trkpt lat="45.023488" lon="-115.397136"><ele>1962.8</ele></trkpt>
<trkpt lat="45.024271" lon="-115.397862"><ele>1967.8</ele></trkpt>
<trkpt lat="45.024990" lon="-115.398278"><ele>1975.2</ele></trkpt>
<trkpt lat="45.025565" lon="-115.398395"><ele>1979.2</ele></trkpt>
<trkpt lat="45.026040" lon="-115.399088"><ele>1985.4</ele></trkpt>
<trkpt lat="45.026505" lon="-115.399443"><ele>1989.6</ele></trkpt>
<trkpt lat="45.026708" lon="-115.400027"><ele>1993.8</ele></trkpt>
<trkpt lat="45.027233" lon="-115.400906"><ele>1999.4</ele></trkpt>
<trkpt lat="45.027395" lon="-115.401540"><ele>2002.4</ele></trkpt>
<trkpt lat="45.027883" lon="-115.402304"><ele>2009.4</ele></trkpt>
<trkpt lat="45.028452" lon="-115.402917"><ele>2016.6</ele></trkpt>
<trkpt lat="45.029311" lon="-115.404168"><ele>2029.2</ele></trkpt>
<trkpt lat="45.030886" lon="-115.405741"><ele>2050.6</ele></trkpt>
<trkpt lat="45.031331" lon="-115.406340"><ele>2056.0</ele></trkpt>
<trkpt lat="45.032010" lon="-115.407064"><ele>2063.8</ele></trkpt>
<trkpt lat="45.032556" lon="-115.407464"><ele>2069.0</ele></trkpt>
<trkpt lat="45.032990" lon="-115.407913"><ele>2075.0</ele></trkpt>
<trkpt lat="45.033912" lon="-115.408357"><ele>2083.8</ele></trkpt>
<trkpt lat="45.034332" lon="-115.408644"><ele>2089.6</ele></trkpt>
<trkpt lat="45.034969" lon="-115.408746"><ele>2095.8</ele></trkpt>
<trkpt lat="45.035470" lon="-115.408945"><ele>2100.0</ele></trkpt>
<trkpt lat="45.035937" lon="-115.409888"><ele>2104.2</ele></trkpt>
<trkpt lat="45.036649" lon="-115.410682"><ele>2113.2</ele></trkpt>
<trkpt lat="45.036810" lon="-115.411272"><ele>2115.4</ele></trkpt>
<trkpt lat="45.036832" lon="-115.411768"><ele>2117.4</ele></trkpt>
<trkpt lat="45.036906" lon="-115.411870"><ele>2118.2</ele></trkpt>
<trkpt lat="45.036982" lon="-115.411828"><ele>2118.8</ele></trkpt>
<trkpt lat="45.037581" lon="-115.410676"><ele>2128.4</ele></trkpt>
<trkpt lat="45.037770" lon="-115.410239"><ele>2131.6</ele></trkpt>
<trkpt lat="45.037870" lon="-115.409726"><ele>2135.4</ele></trkpt>
<trkpt lat="45.038086" lon="-115.409110"><ele>2141.4</ele></trkpt>
<trkpt lat="45.038654" lon="-115.408088"><ele>2147.0</ele></trkpt>
<trkpt lat="45.039377" lon="-115.407984"><ele>2154.0</ele></trkpt>
<trkpt lat="45.039954" lon="-115.407468"><ele>2162.2</ele></trkpt>
<trkpt lat="45.040215" lon="-115.407334"><ele>2164.4</ele></trkpt>
<trkpt lat="45.041241" lon="-115.407108"><ele>2172.2</ele></trkpt>
<trkpt lat="45.042916" lon="-115.407137"><ele>2185.8</ele></trkpt>
<trkpt lat="45.043805" lon="-115.406621"><ele>2192.4</ele></trkpt>
<trkpt lat="45.044440" lon="-115.406443"><ele>2198.2</ele></trkpt>
<trkpt lat="45.045287" lon="-115.406474"><ele>2203.8</ele></trkpt>
<trkpt lat="45.045992" lon="-115.406715"><ele>2210.2</ele></trkpt>
<trkpt lat="45.046909" lon="-115.406619"><ele>2218.6</ele></trkpt>
<trkpt lat="45.047890" lon="-115.406885"><ele>2220.8</ele></trkpt>
<trkpt lat="45.048808" lon="-115.407292"><ele>2222.4</ele></trkpt>
<trkpt lat="45.049574" lon="-115.406948"><ele>2222.8</ele></trkpt>
<trkpt lat="45.050151" lon="-115.406827"><ele>2226.2</ele></trkpt>
<trkpt lat="45.050540" lon="-115.406869"><ele>2228.2</ele></trkpt>
<trkpt lat="45.051189" lon="-115.407130"><ele>2229.6</ele></trkpt>
<trkpt lat="45.051954" lon="-115.407901"><ele>2235.8</ele></trkpt>
<trkpt lat="45.052140" lon="-115.408203"><ele>2236.8</ele></trkpt>
<trkpt lat="45.052366" lon="-115.408809"><ele>2241.2</ele></trkpt>
<trkpt lat="45.053127" lon="-115.409418"><ele>2249.8</ele></trkpt>
<trkpt lat="45.053405" lon="-115.410165"><ele>2257.2</ele></trkpt>
<trkpt lat="45.053869" lon="-115.410814"><ele>2264.0</ele></trkpt>
<trkpt lat="45.054287" lon="-115.411138"><ele>2267.4</ele></trkpt>
<trkpt lat="45.055141" lon="-115.411586"><ele>2273.0</ele></trkpt>
<trkpt lat="45.055365" lon="-115.411807"><ele>2275.8</ele></trkpt>
<trkpt lat="45.055875" lon="-115.412780"><ele>2284.6</ele></trkpt>
<trkpt lat="45.056344" lon="-115.413953"><ele>2294.4</ele></trkpt>
<trkpt lat="45.056745" lon="-115.414214"><ele>2298.6</ele></trkpt>
<trkpt lat="45.056981" lon="-115.414551"><ele>2301.8</ele></trkpt>
<trkpt lat="45.057138" lon="-115.415247"><ele>2307.0</ele></trkpt>
<trkpt lat="45.057395" lon="-115.415756"><ele>2310.0</ele></trkpt>
<trkpt lat="45.057403" lon="-115.415962"><ele>2310.8</ele></trkpt>
<trkpt lat="45.057316" lon="-115.416293"><ele>2313.4</ele></trkpt>
<trkpt lat="45.057419" lon="-115.416478"><ele>2315.0</ele></trkpt>
<trkpt lat="45.057534" lon="-115.416440"><ele>2315.6</ele></trkpt>
<trkpt lat="45.058175" lon="-115.415683"><ele>2318.8</ele></trkpt>
<trkpt lat="45.058071" lon="-115.415709"><ele>2318.8</ele></trkpt>
<trkpt lat="45.058147" lon="-115.415753"><ele>2318.6</ele></trkpt>
<trkpt lat="45.058546" lon="-115.415263"><ele>2318.4</ele></trkpt>
<trkpt lat="45.058699" lon="-115.414971"><ele>2316.4</ele></trkpt>
<trkpt lat="45.058661" lon="-115.414916"><ele>2316.4</ele></trkpt>
<trkpt lat="45.058693" lon="-115.414950"><ele>2316.4</ele></trkpt>
<trkpt lat="45.058974" lon="-115.414543"><ele>2314.0</ele></trkpt>
<trkpt lat="45.059408" lon="-115.413470"><ele>2310.2</ele></trkpt>
<trkpt lat="45.060255" lon="-115.412128"><ele>2303.0</ele></trkpt>
<trkpt lat="45.060871" lon="-115.409647"><ele>2291.2</ele></trkpt>
<trkpt lat="45.061340" lon="-115.408435"><ele>2283.4</ele></trkpt>
<trkpt lat="45.061844" lon="-115.407422"><ele>2278.4</ele></trkpt>
<trkpt lat="45.062646" lon="-115.406239"><ele>2270.4</ele></trkpt>
<trkpt lat="45.062863" lon="-115.405712"><ele>2268.2</ele></trkpt>
<trkpt lat="45.063516" lon="-115.404868"><ele>2263.2</ele></trkpt>
<trkpt lat="45.064072" lon="-115.404339"><ele>2259.6</ele></trkpt>
<trkpt lat="45.064422" lon="-115.403891"><ele>2256.4</ele></trkpt>
<trkpt lat="45.065041" lon="-115.403348"><ele>2251.6</ele></trkpt>
<trkpt lat="45.065482" lon="-115.402608"><ele>2248.6</ele></trkpt>
<trkpt lat="45.065679" lon="-115.402449"><ele>2246.2</ele></trkpt>
<trkpt lat="45.065760" lon="-115.402627"><ele>2245.4</ele></trkpt>
<trkpt lat="45.064874" lon="-115.403995"><ele>2234.6</ele></trkpt>
<trkpt lat="45.063633" lon="-115.406373"><ele>2222.0</ele></trkpt>
<trkpt lat="45.063071" lon="-115.408071"><ele>2213.6</ele></trkpt>
<trkpt lat="45.062963" lon="-115.408682"><ele>2209.4</ele></trkpt>
<trkpt lat="45.062805" lon="-115.409181"><ele>2206.8</ele></trkpt>
<trkpt lat="45.062521" lon="-115.411483"><ele>2196.0</ele></trkpt>
<trkpt lat="45.062368" lon="-115.412163"><ele>2193.8</ele></trkpt>
<trkpt lat="45.062333" lon="-115.413654"><ele>2185.0</ele></trkpt>
<trkpt lat="45.062591" lon="-115.414144"><ele>2182.8</ele></trkpt>
<trkpt lat="45.062846" lon="-115.415239"><ele>2178.4</ele></trkpt>
<trkpt lat="45.063111" lon="-115.415987"><ele>2176.2</ele></trkpt>
<trkpt lat="45.063391" lon="-115.416269"><ele>2174.2</ele></trkpt>
<trkpt lat="45.064163" lon="-115.416431"><ele>2170.8</ele></trkpt>
<trkpt lat="45.064426" lon="-115.416394"><ele>2170.6</ele></trkpt>
<trkpt lat="45.064864" lon="-115.416147"><ele>2169.2</ele></trkpt>
<trkpt lat="45.065085" lon="-115.415893"><ele>2167.6</ele></trkpt>
<trkpt lat="45.065576" lon="-115.414476"><ele>2159.2</ele></trkpt>
<trkpt lat="45.065853" lon="-115.414083"><ele>2156.8</ele></trkpt>
<trkpt lat="45.067022" lon="-115.412901"><ele>2150.8</ele></trkpt>
<trkpt lat="45.067993" lon="-115.411306"><ele>2138.0</ele></trkpt>
<trkpt lat="45.068442" lon="-115.410406"><ele>2133.0</ele></trkpt>
<trkpt lat="45.069692" lon="-115.408857"><ele>2120.6</ele></trkpt>
<trkpt lat="45.070318" lon="-115.408325"><ele>2114.2</ele></trkpt>
<trkpt lat="45.070683" lon="-115.407830"><ele>2109.6</ele></trkpt>
<trkpt lat="45.071070" lon="-115.407608"><ele>2106.0</ele></trkpt>
<trkpt lat="45.071541" lon="-115.407043"><ele>2099.2</ele></trkpt>
<trkpt lat="45.072016" lon="-115.406681"><ele>2093.8</ele></trkpt>
<trkpt lat="45.072549" lon="-115.405369"><ele>2086.0</ele></trkpt>
<trkpt lat="45.072972" lon="-115.404756"><ele>2082.4</ele></trkpt>
<trkpt lat="45.074050" lon="-115.402221"><ele>2066.0</ele></trkpt>
<trkpt lat="45.074126" lon="-115.401755"><ele>2063.2</ele></trkpt>
<trkpt lat="45.074154" lon="-115.400265"><ele>2056.4</ele></trkpt>
<trkpt lat="45.074234" lon="-115.399815"><ele>2053.8</ele></trkpt>
<trkpt lat="45.075208" lon="-115.397481"><ele>2045.8</ele></trkpt>
<trkpt lat="45.075170" lon="-115.396817"><ele>2043.6</ele></trkpt>
<trkpt lat="45.074851" lon="-115.395895"><ele>2041.0</ele></trkpt>
<trkpt lat="45.074757" lon="-115.395091"><ele>2039.8</ele></trkpt>
<trkpt lat="45.074574" lon="-115.394421"><ele>2037.4</ele></trkpt>
<trkpt lat="45.074336" lon="-115.393971"><ele>2034.6</ele></trkpt>
<trkpt lat="45.073763" lon="-115.393159"><ele>2025.6</ele></trkpt>
<trkpt lat="45.072151" lon="-115.390174"><ele>2007.4</ele></trkpt>
<trkpt lat="45.072093" lon="-115.389351"><ele>2002.4</ele></trkpt>
<trkpt lat="45.071327" lon="-115.386987"><ele>1987.2</ele></trkpt>
<trkpt lat="45.071091" lon="-115.385665"><ele>1978.0</ele></trkpt>
<trkpt lat="45.070290" lon="-115.384653"><ele>1973.8</ele></trkpt>
<trkpt lat="45.070141" lon="-115.384330"><ele>1971.8</ele></trkpt>
<trkpt lat="45.070010" lon="-115.382291"><ele>1964.6</ele></trkpt>
<trkpt lat="45.069676" lon="-115.381024"><ele>1960.2</ele></trkpt>
<trkpt lat="45.069205" lon="-115.379743"><ele>1955.4</ele></trkpt>
<trkpt lat="45.068589" lon="-115.379057"><ele>1954.0</ele></trkpt>
<trkpt lat="45.068454" lon="-115.378821"><ele>1952.6</ele></trkpt>
<trkpt lat="45.068487" lon="-115.377600"><ele>1946.0</ele></trkpt>
<trkpt lat="45.068607" lon="-115.377057"><ele>1944.0</ele></trkpt>
<trkpt lat="45.068534" lon="-115.376748"><ele>1941.8</ele></trkpt>
<trkpt lat="45.068203" lon="-115.376025"><ele>1938.6</ele></trkpt>
<trkpt lat="45.068174" lon="-115.375780"><ele>1937.2</ele></trkpt>
<trkpt lat="45.068185" lon="-115.374811"><ele>1933.2</ele></trkpt>
<trkpt lat="45.068259" lon="-115.374395"><ele>1930.6</ele></trkpt>
<trkpt lat="45.068195" lon="-115.373379"><ele>1924.2</ele></trkpt>
<trkpt lat="45.068293" lon="-115.371955"><ele>1917.6</ele></trkpt>
<trkpt lat="45.068227" lon="-115.371251"><ele>1914.6</ele></trkpt>
<trkpt lat="45.068336" lon="-115.370315"><ele>1908.6</ele></trkpt>
<trkpt lat="45.068627" lon="-115.369489"><ele>1903.6</ele></trkpt>
<trkpt lat="45.068685" lon="-115.368966"><ele>1900.4</ele></trkpt>
<trkpt lat="45.068801" lon="-115.368655"><ele>1898.4</ele></trkpt>
<trkpt lat="45.069110" lon="-115.368229"><ele>1894.6</ele></trkpt>
<trkpt lat="45.070084" lon="-115.367453"><ele>1885.6</ele></trkpt>
<trkpt lat="45.070264" lon="-115.367220"><ele>1884.0</ele></trkpt>
<trkpt lat="45.070391" lon="-115.366485"><ele>1881.2</ele></trkpt>
<trkpt lat="45.070774" lon="-115.362355"><ele>1871.4</ele></trkpt>
<trkpt lat="45.070939" lon="-115.362050"><ele>1871.8</ele></trkpt>
<trkpt lat="45.072112" lon="-115.360618"><ele>1866.4</ele></trkpt>
<trkpt lat="45.072719" lon="-115.358093"><ele>1864.0</ele></trkpt>
<trkpt lat="45.073030" lon="-115.357242"><ele>1861.4</ele></trkpt>
<trkpt lat="45.073249" lon="-115.356020"><ele>1855.6</ele></trkpt>
<trkpt lat="45.073347" lon="-115.354419"><ele>1848.8</ele></trkpt>
<trkpt lat="45.073307" lon="-115.353446"><ele>1843.0</ele></trkpt>
<trkpt lat="45.073439" lon="-115.352496"><ele>1837.2</ele></trkpt>
<trkpt lat="45.073440" lon="-115.352005"><ele>1836.8</ele></trkpt>
<trkpt lat="45.073508" lon="-115.351687"><ele>1836.0</ele></trkpt>
<trkpt lat="45.074082" lon="-115.350165"><ele>1830.4</ele></trkpt>
<trkpt lat="45.074222" lon="-115.349384"><ele>1827.8</ele></trkpt>
<trkpt lat="45.074212" lon="-115.348713"><ele>1824.6</ele></trkpt>
<trkpt lat="45.073883" lon="-115.348323"><ele>1823.8</ele></trkpt>
<trkpt lat="45.073751" lon="-115.347905"><ele>1822.4</ele></trkpt>
<trkpt lat="45.074062" lon="-115.346452"><ele>1821.0</ele></trkpt>
<trkpt lat="45.074091" lon="-115.345469"><ele>1817.8</ele></trkpt>
<trkpt lat="45.074520" lon="-115.343591"><ele>1809.0</ele></trkpt>
<trkpt lat="45.074763" lon="-115.342823"><ele>1805.6</ele></trkpt>
<trkpt lat="45.074927" lon="-115.341862"><ele>1802.0</ele></trkpt>
<trkpt lat="45.075114" lon="-115.341272"><ele>1799.4</ele></trkpt>
<trkpt lat="45.075418" lon="-115.340786"><ele>1796.0</ele></trkpt>
<trkpt lat="45.076090" lon="-115.340118"><ele>1789.0</ele></trkpt>
<trkpt lat="45.076213" lon="-115.339757"><ele>1786.4</ele></trkpt>
<trkpt lat="45.076218" lon="-115.339042"><ele>1782.4</ele></trkpt>
<trkpt lat="45.076393" lon="-115.338718"><ele>1779.6</ele></trkpt>
<trkpt lat="45.076670" lon="-115.338409"><ele>1777.8</ele></trkpt>
<trkpt lat="45.076897" lon="-115.338323"><ele>1777.4</ele></trkpt>
<trkpt lat="45.079803" lon="-115.338587"><ele>1768.8</ele></trkpt>
<trkpt lat="45.081013" lon="-115.338540"><ele>1767.0</ele></trkpt>
<trkpt lat="45.082004" lon="-115.339097"><ele>1766.6</ele></trkpt>
<trkpt lat="45.082562" lon="-115.339272"><ele>1766.0</ele></trkpt>
<trkpt lat="45.083713" lon="-115.339177"><ele>1764.2</ele></trkpt>
<trkpt lat="45.085785" lon="-115.339623"><ele>1761.2</ele></trkpt>
<trkpt lat="45.088131" lon="-115.339635"><ele>1759.0</ele></trkpt>
<trkpt lat="45.089492" lon="-115.339141"><ele>1759.8</ele></trkpt>
<trkpt lat="45.092297" lon="-115.336970"><ele>1758.0</ele></trkpt>
<trkpt lat="45.092941" lon="-115.336591"><ele>1760.2</ele></trkpt>
<trkpt lat="45.093296" lon="-115.336521"><ele>1761.4</ele></trkpt>
<trkpt lat="45.095074" lon="-115.336847"><ele>1755.6</ele></trkpt>
<trkpt lat="45.095520" lon="-115.336830"><ele>1754.4</ele></trkpt>
<trkpt lat="45.097030" lon="-115.335196"><ele>1754.2</ele></trkpt>
<trkpt lat="45.101274" lon="-115.332504"><ele>1748.2</ele></trkpt>
<trkpt lat="45.102199" lon="-115.332034"><ele>1745.6</ele></trkpt>
<trkpt lat="45.103671" lon="-115.331922"><ele>1745.6</ele></trkpt>
<trkpt lat="45.104202" lon="-115.331618"><ele>1747.2</ele></trkpt>
<trkpt lat="45.105372" lon="-115.331325"><ele>1743.0</ele></trkpt>
<trkpt lat="45.107047" lon="-115.330626"><ele>1742.6</ele></trkpt>
<trkpt lat="45.107363" lon="-115.330360"><ele>1741.2</ele></trkpt>
<trkpt lat="45.108511" lon="-115.328454"><ele>1738.2</ele></trkpt>
<trkpt lat="45.108645" lon="-115.328393"><ele>1738.0</ele></trkpt>
<trkpt lat="45.109239" lon="-115.328617"><ele>1737.4</ele></trkpt>
<trkpt lat="45.109609" lon="-115.328610"><ele>1737.0</ele></trkpt>
<trkpt lat="45.110662" lon="-115.328240"><ele>1737.4</ele></trkpt>
<trkpt lat="45.113073" lon="-115.326835"><ele>1734.8</ele></trkpt>
<trkpt lat="45.115059" lon="-115.325548"><ele>1738.4</ele></trkpt>
<trkpt lat="45.116181" lon="-115.324560"><ele>1736.6</ele></trkpt>
<trkpt lat="45.116425" lon="-115.324500"><ele>1737.0</ele></trkpt>
<trkpt lat="45.117323" lon="-115.324524"><ele>1734.2</ele></trkpt>
<trkpt lat="45.118031" lon="-115.324575"><ele>1735.0</ele></trkpt>
<trkpt lat="45.118240" lon="-115.324673"><ele>1737.2</ele></trkpt>
<trkpt lat="45.118417" lon="-115.325066"><ele>1738.8</ele></trkpt>
<trkpt lat="45.118404" lon="-115.327447"><ele>1748.0</ele></trkpt>
<trkpt lat="45.118457" lon="-115.328039"><ele>1751.4</ele></trkpt>
<trkpt lat="45.118522" lon="-115.328236"><ele>1752.4</ele></trkpt>
<trkpt lat="45.118713" lon="-115.328455"><ele>1754.4</ele></trkpt>
<trkpt lat="45.119329" lon="-115.328718"><ele>1759.4</ele></trkpt>
<trkpt lat="45.119562" lon="-115.328619"><ele>1760.2</ele></trkpt>
<trkpt lat="45.119865" lon="-115.327846"><ele>1763.4</ele></trkpt>
<trkpt lat="45.120198" lon="-115.327450"><ele>1765.2</ele></trkpt>
<trkpt lat="45.120612" lon="-115.327452"><ele>1764.0</ele></trkpt>
<trkpt lat="45.121213" lon="-115.327955"><ele>1766.6</ele></trkpt>
<trkpt lat="45.121675" lon="-115.327904"><ele>1765.6</ele></trkpt>
<trkpt lat="45.122828" lon="-115.327358"><ele>1760.6</ele></trkpt>
<trkpt lat="45.124591" lon="-115.325663"><ele>1756.2</ele></trkpt>
<trkpt lat="45.127077" lon="-115.323963"><ele>1750.8</ele></trkpt>
<trkpt lat="45.127125" lon="-115.323974"><ele>1751.2</ele></trkpt>
<trkpt lat="45.127229" lon="-115.324365"><ele>1752.2</ele></trkpt>
<trkpt lat="45.127222" lon="-115.324484"><ele>1753.0</ele></trkpt>
<trkpt lat="45.127130" lon="-115.324562"><ele>1752.8</ele></trkpt>
<trkpt lat="45.127287" lon="-115.324473"><ele>1752.6</ele></trkpt>
<trkpt lat="45.127412" lon="-115.324204"><ele>1752.2</ele></trkpt>
<trkpt lat="45.127281" lon="-115.324507"><ele>1751.4</ele></trkpt>
<trkpt lat="45.127142" lon="-115.324571"><ele>1752.6</ele></trkpt>
<trkpt lat="45.127445" lon="-115.324739"><ele>1754.8</ele></trkpt>
<trkpt lat="45.127545" lon="-115.324637"><ele>1755.2</ele></trkpt>
<trkpt lat="45.127473" lon="-115.324708"><ele>1755.0</ele></trkpt>
<trkpt lat="45.127251" lon="-115.324714"><ele>1755.2</ele></trkpt>
<trkpt lat="45.127055" lon="-115.324885"><ele>1754.8</ele></trkpt>
<trkpt lat="45.127077" lon="-115.324786"><ele>1755.2</ele></trkpt>
<trkpt lat="45.127155" lon="-115.324800"><ele>1754.8</ele></trkpt>
<trkpt lat="45.127018" lon="-115.324966"><ele>1755.2</ele></trkpt>
<trkpt lat="45.127198" lon="-115.324407"><ele>1752.8</ele></trkpt>
<trkpt lat="45.127016" lon="-115.324806"><ele>1752.4</ele></trkpt>
<trkpt lat="45.127022" lon="-115.324998"><ele>1752.4</ele></trkpt>
<trkpt lat="45.127152" lon="-115.324819"><ele>1752.4</ele></trkpt>
<trkpt lat="45.127261" lon="-115.324835"><ele>1752.2</ele></trkpt>
<trkpt lat="45.127354" lon="-115.324993"><ele>1752.4</ele></trkpt>
<trkpt lat="45.127248" lon="-115.324677"><ele>1752.4</ele></trkpt>
<trkpt lat="45.127176" lon="-115.324747"><ele>1752.0</ele></trkpt>
<trkpt lat="45.127175" lon="-115.324678"><ele>1752.0</ele></trkpt>
<trkpt lat="45.127287" lon="-115.324686"><ele>1752.0</ele></trkpt>
<trkpt lat="45.127201" lon="-115.324614"><ele>1752.0</ele></trkpt>
<trkpt lat="45.127244" lon="-115.324556"><ele>1752.0</ele></trkpt>
<trkpt lat="45.127284" lon="-115.324672"><ele>1751.8</ele></trkpt>
</trkseg></trk>
</gpx>
