<?xml version="1.0" encoding="UTF-8"?>
<gpx version="1.1" creator="strava" xmlns="http://www.topografix.com/GPX/1/1">
<trk><name>Salmon River Day 3 - Hike a Bike &amp; downhill bliss</name><trkseg>
<trkpt lat="45.276922" lon="-115.913333"><ele>1866.2</ele></trkpt>
<trkpt lat="45.277001" lon="-115.913198"><ele>1866.2</ele></trkpt>
<trkpt lat="45.277049" lon="-115.913573"><ele>1866.8</ele></trkpt>
<trkpt lat="45.276927" lon="-115.914211"><ele>1866.4</ele></trkpt>
<trkpt lat="45.276694" lon="-115.914424"><ele>1865.8</ele></trkpt>
<trkpt lat="45.276174" lon="-115.914525"><ele>1864.6</ele></trkpt>
<trkpt lat="45.275217" lon="-115.914061"><ele>1863.0</ele></trkpt>
<trkpt lat="45.274434" lon="-115.913787"><ele>1860.6</ele></trkpt>
<trkpt lat="45.272685" lon="-115.913565"><ele>1858.0</ele></trkpt>
<trkpt lat="45.272307" lon="-115.913356"><ele>1857.6</ele></trkpt>
<trkpt lat="45.271790" lon="-115.912920"><ele>1857.2</ele></trkpt>
<trkpt lat="45.269839" lon="-115.911159"><ele>1854.2</ele></trkpt>
<trkpt lat="45.269372" lon="-115.910598"><ele>1853.8</ele></trkpt>
<trkpt lat="45.268984" lon="-115.909729"><ele>1854.0</ele></trkpt>
<trkpt lat="45.268495" lon="-115.908376"><ele>1854.0</ele></trkpt>
<trkpt lat="45.268220" lon="-115.907968"><ele>1854.0</ele></trkpt>
<trkpt lat="45.267819" lon="-115.907592"><ele>1853.6</ele></trkpt>
<trkpt lat="45.266979" lon="-115.907226"><ele>1853.0</ele></trkpt>
<trkpt lat="45.266590" lon="-115.906964"><ele>1853.0</ele></trkpt>
<trkpt lat="45.264809" lon="-115.905211"><ele>1850.8</ele></trkpt>
<trkpt lat="45.262997" lon="-115.903743"><ele>1849.2</ele></trkpt>
<trkpt lat="45.261721" lon="-115.902898"><ele>1849.2</ele></trkpt>
<trkpt lat="45.259938" lon="-115.902088"><ele>1846.6</ele></trkpt>
<trkpt lat="45.259493" lon="-115.901738"><ele>1844.8</ele></trkpt>
<trkpt lat="45.259155" lon="-115.901277"><ele>1844.4</ele></trkpt>
<trkpt lat="45.258855" lon="-115.900383"><ele>1845.0</ele></trkpt>
<trkpt lat="45.258805" lon="-115.899837"><ele>1845.6</ele></trkpt>
<trkpt lat="45.258865" lon="-115.898745"><ele>1846.8</ele></trkpt>
<trkpt lat="45.258768" lon="-115.898301"><ele>1847.0</ele></trkpt>
<trkpt lat="45.258492" lon="-115.897840"><ele>1846.6</ele></trkpt>
<trkpt lat="45.258192" lon="-115.897666"><ele>1846.6</ele></trkpt>
<trkpt lat="45.257582" lon="-115.897537"><ele>1845.4</ele></trkpt>
<trkpt lat="45.257259" lon="-115.897350"><ele>1844.4</ele></trkpt>
<trkpt lat="45.256737" lon="-115.896749"><ele>1843.2</ele></trkpt>
<trkpt lat="45.256571" lon="-115.896684"><ele>1842.0</ele></trkpt>
<trkpt lat="45.255563" lon="-115.898478"><ele>1844.4</ele></trkpt>
<trkpt lat="45.255411" lon="-115.898643"><ele>1845.0</ele></trkpt>
<trkpt lat="45.255301" lon="-115.898576"><ele>1845.2</ele></trkpt>
<trkpt lat="45.254967" lon="-115.897831"><ele>1843.6</ele></trkpt>
<trkpt lat="45.255028" lon="-115.897683"><ele>1843.8</ele></trkpt>
<trkpt lat="45.255510" lon="-115.897225"><ele>1843.6</ele></trkpt>
<trkpt lat="45.255629" lon="-115.896996"><ele>1843.6</ele></trkpt>
<trkpt lat="45.255738" lon="-115.896164"><ele>1843.2</ele></trkpt>
<trkpt lat="45.255032" lon="-115.895177"><ele>1843.8</ele></trkpt>
<trkpt lat="45.254466" lon="-115.893933"><ele>1843.2</ele></trkpt>
<trkpt lat="45.254287" lon="-115.893790"><ele>1843.4</ele></trkpt>
<trkpt lat="45.254171" lon="-115.893794"><ele>1843.4</ele></trkpt>
<trkpt lat="45.254154" lon="-115.893671"><ele>1843.8</ele></trkpt>
<trkpt lat="45.253568" lon="-115.893193"><ele>1848.6</ele></trkpt>
<trkpt lat="45.253191" lon="-115.893051"><ele>1849.8</ele></trkpt>
<trkpt lat="45.252941" lon="-115.893159"><ele>1849.2</ele></trkpt>
<trkpt lat="45.252616" lon="-115.893601"><ele>1850.2</ele></trkpt>
<trkpt lat="45.252427" lon="-115.894202"><ele>1852.0</ele></trkpt>
<trkpt lat="45.252112" lon="-115.894256"><ele>1855.0</ele></trkpt>
<trkpt lat="45.249516" lon="-115.893864"><ele>1865.4</ele></trkpt>
<trkpt lat="45.249226" lon="-115.894002"><ele>1866.6</ele></trkpt>
<trkpt lat="45.248285" lon="-115.893948"><ele>1871.2</ele></trkpt>
<trkpt lat="45.247736" lon="-115.894040"><ele>1874.0</ele></trkpt>
<trkpt lat="45.247449" lon="-115.893905"><ele>1873.8</ele></trkpt>
<trkpt lat="45.247053" lon="-115.893368"><ele>1875.6</ele></trkpt>
<trkpt lat="45.246917" lon="-115.893329"><ele>1876.8</ele></trkpt>
<trkpt lat="45.246688" lon="-115.893431"><ele>1878.2</ele></trkpt>
<trkpt lat="45.246221" lon="-115.893445"><ele>1884.4</ele></trkpt>
<trkpt lat="45.246110" lon="-115.893287"><ele>1886.6</ele></trkpt>
<trkpt lat="45.246092" lon="-115.893039"><ele>1889.0</ele></trkpt>
<trkpt lat="45.246343" lon="-115.892095"><ele>1895.6</ele></trkpt>
<trkpt lat="45.245943" lon="-115.891926"><ele>1900.6</ele></trkpt>
<trkpt lat="45.245486" lon="-115.891424"><ele>1903.8</ele></trkpt>
<trkpt lat="45.245105" lon="-115.891169"><ele>1907.6</ele></trkpt>
<trkpt lat="45.245051" lon="-115.891024"><ele>1909.4</ele></trkpt>
<trkpt lat="45.245075" lon="-115.890884"><ele>1911.0</ele></trkpt>
<trkpt lat="45.245291" lon="-115.890561"><ele>1912.4</ele></trkpt>
<trkpt lat="45.245211" lon="-115.889403"><ele>1918.6</ele></trkpt>
<trkpt lat="45.244972" lon="-115.888139"><ele>1924.0</ele></trkpt>
<trkpt lat="45.244787" lon="-115.887815"><ele>1926.0</ele></trkpt>
<trkpt lat="45.244677" lon="-115.887734"><ele>1927.0</ele></trkpt>
<trkpt lat="45.244409" lon="-115.887770"><ele>1929.2</ele></trkpt>
<trkpt lat="45.243928" lon="-115.887600"><ele>1932.6</ele></trkpt>
<trkpt lat="45.242600" lon="-115.888295"><ele>1937.8</ele></trkpt>
<trkpt lat="45.242447" lon="-115.888343"><ele>1938.2</ele></trkpt>
<trkpt lat="45.242075" lon="-115.888275"><ele>1937.6</ele></trkpt>
<trkpt lat="45.241789" lon="-115.888482"><ele>1937.8</ele></trkpt>
<trkpt lat="45.241645" lon="-115.888500"><ele>1938.0</ele></trkpt>
<trkpt lat="45.240978" lon="-115.888275"><ele>1935.4</ele></trkpt>
<trkpt lat="45.240364" lon="-115.887465"><ele>1929.8</ele></trkpt>
<trkpt lat="45.240216" lon="-115.887136"><ele>1927.4</ele></trkpt>
<trkpt lat="45.239757" lon="-115.886757"><ele>1922.6</ele></trkpt>
<trkpt lat="45.239541" lon="-115.886309"><ele>1916.6</ele></trkpt>
<trkpt lat="45.239711" lon="-115.885725"><ele>1912.6</ele></trkpt>
<trkpt lat="45.239577" lon="-115.884891"><ele>1907.8</ele></trkpt>
<trkpt lat="45.239620" lon="-115.884479"><ele>1906.8</ele></trkpt>
<trkpt lat="45.239382" lon="-115.884400"><ele>1906.2</ele></trkpt>
<trkpt lat="45.239219" lon="-115.884137"><ele>1906.0</ele></trkpt>
<trkpt lat="45.238440" lon="-115.883590"><ele>1901.6</ele></trkpt>
<trkpt lat="45.238316" lon="-115.883367"><ele>1901.2</ele></trkpt>
<trkpt lat="45.238312" lon="-115.883105"><ele>1901.0</ele></trkpt>
<trkpt lat="45.238242" lon="-115.882940"><ele>1901.2</ele></trkpt>
<trkpt lat="45.237861" lon="-115.882815"><ele>1900.2</ele></trkpt>
<trkpt lat="45.237758" lon="-115.882633"><ele>1900.6</ele></trkpt>
<trkpt lat="45.238056" lon="-115.881908"><ele>1896.0</ele></trkpt>
<trkpt lat="45.238313" lon="-115.881514"><ele>1891.4</ele></trkpt>
<trkpt lat="45.238320" lon="-115.881183"><ele>1887.8</ele></trkpt>
<trkpt lat="45.238190" lon="-115.880867"><ele>1885.6</ele></trkpt>
<trkpt lat="45.238187" lon="-115.880699"><ele>1884.8</ele></trkpt>
<trkpt lat="45.238270" lon="-115.880486"><ele>1884.0</ele></trkpt>
<trkpt lat="45.238411" lon="-115.880397"><ele>1883.0</ele></trkpt>
<trkpt lat="45.238465" lon="-115.880267"><ele>1882.2</ele></trkpt>
<trkpt lat="45.238562" lon="-115.879884"><ele>1880.6</ele></trkpt>
<trkpt lat="45.238531" lon="-115.879729"><ele>1880.0</ele></trkpt>
<trkpt lat="45.238254" lon="-115.879394"><ele>1879.4</ele></trkpt>
<trkpt lat="45.237964" lon="-115.878445"><ele>1877.4</ele></trkpt>
<trkpt lat="45.237738" lon="-115.878036"><ele>1874.8</ele></trkpt>
<trkpt lat="45.237508" lon="-115.877945"><ele>1872.0</ele></trkpt>
<trkpt lat="45.236794" lon="-115.878137"><ele>1864.6</ele></trkpt>
<trkpt lat="45.236112" lon="-115.877225"><ele>1860.4</ele></trkpt>
<trkpt lat="45.236124" lon="-115.876890"><ele>1859.8</ele></trkpt>
<trkpt lat="45.235793" lon="-115.876672"><ele>1860.8</ele></trkpt>
<trkpt lat="45.235224" lon="-115.876887"><ele>1861.2</ele></trkpt>
<trkpt lat="45.234929" lon="-115.876616"><ele>1865.0</ele></trkpt>
<trkpt lat="45.234585" lon="-115.875989"><ele>1872.0</ele></trkpt>
<trkpt lat="45.234293" lon="-115.875911"><ele>1876.0</ele></trkpt>
<trkpt lat="45.233678" lon="-115.876763"><ele>1876.6</ele></trkpt>
<trkpt lat="45.233117" lon="-115.877179"><ele>1875.6</ele></trkpt>
<trkpt lat="45.232860" lon="-115.877265"><ele>1873.8</ele></trkpt>
<trkpt lat="45.232562" lon="-115.877542"><ele>1869.2</ele></trkpt>
<trkpt lat="45.232167" lon="-115.877354"><ele>1865.2</ele></trkpt>
<trkpt lat="45.231649" lon="-115.877413"><ele>1864.2</ele></trkpt>
<trkpt lat="45.231353" lon="-115.877199"><ele>1865.4</ele></trkpt>
<trkpt lat="45.230734" lon="-115.877329"><ele>1866.0</ele></trkpt>
<trkpt lat="45.230025" lon="-115.877015"><ele>1866.8</ele></trkpt>
<trkpt lat="45.229480" lon="-115.877127"><ele>1867.6</ele></trkpt>
<trkpt lat="45.229173" lon="-115.876899"><ele>1871.0</ele></trkpt>
<trkpt lat="45.228640" lon="-115.876998"><ele>1874.8</ele></trkpt>
<trkpt lat="45.227278" lon="-115.877018"><ele>1881.6</ele></trkpt>
<trkpt lat="45.226856" lon="-115.876770"><ele>1883.4</ele></trkpt>
<trkpt lat="45.226421" lon="-115.876686"><ele>1884.0</ele></trkpt>
<trkpt lat="45.225562" lon="-115.876722"><ele>1884.8</ele></trkpt>
<trkpt lat="45.224672" lon="-115.877135"><ele>1884.8</ele></trkpt>
<trkpt lat="45.224448" lon="-115.877194"><ele>1884.8</ele></trkpt>
<trkpt lat="45.224125" lon="-115.877130"><ele>1883.6</ele></trkpt>
<trkpt lat="45.223755" lon="-115.877239"><ele>1883.2</ele></trkpt>
<trkpt lat="45.222610" lon="-115.876629"><ele>1883.6</ele></trkpt>
<trkpt lat="45.222174" lon="-115.876552"><ele>1884.0</ele></trkpt>
<trkpt lat="45.221465" lon="-115.876226"><ele>1884.6</ele></trkpt>
<trkpt lat="45.220506" lon="-115.876050"><ele>1887.6</ele></trkpt>
<trkpt lat="45.220041" lon="-115.876233"><ele>1888.6</ele></trkpt>
<trkpt lat="45.219140" lon="-115.876350"><ele>1891.6</ele></trkpt>
<trkpt lat="45.218109" lon="-115.876706"><ele>1894.4</ele></trkpt>
<trkpt lat="45.217745" lon="-115.876940"><ele>1895.0</ele></trkpt>
<trkpt lat="45.217204" lon="-115.876966"><ele>1894.0</ele></trkpt>
<trkpt lat="45.216332" lon="-115.876866"><ele>1900.0</ele></trkpt>
<trkpt lat="45.215726" lon="-115.876384"><ele>1902.4</ele></trkpt>
<trkpt lat="45.214952" lon="-115.875990"><ele>1909.0</ele></trkpt>
<trkpt lat="45.214472" lon="-115.875651"><ele>1911.8</ele></trkpt>
<trkpt lat="45.214252" lon="-115.875641"><ele>1911.6</ele></trkpt>
<trkpt lat="45.214059" lon="-115.875504"><ele>1913.0</ele></trkpt>
<trkpt lat="45.213738" lon="-115.875128"><ele>1916.6</ele></trkpt>
<trkpt lat="45.213690" lon="-115.874522"><ele>1918.0</ele></trkpt>
<trkpt lat="45.213404" lon="-115.874279"><ele>1920.2</ele></trkpt>
<trkpt lat="45.212960" lon="-115.874293"><ele>1922.4</ele></trkpt>
<trkpt lat="45.212750" lon="-115.874216"><ele>1924.8</ele></trkpt>
<trkpt lat="45.212281" lon="-115.873952"><ele>1927.8</ele></trkpt>
<trkpt lat="45.211772" lon="-115.873463"><ele>1931.0</ele></trkpt>
<trkpt lat="45.210816" lon="-115.873783"><ele>1932.2</ele></trkpt>
<trkpt lat="45.210523" lon="-115.873980"><ele>1936.4</ele></trkpt>
<trkpt lat="45.210126" lon="-115.874029"><ele>1938.0</ele></trkpt>
<trkpt lat="45.209482" lon="-115.873884"><ele>1941.6</ele></trkpt>
<trkpt lat="45.208954" lon="-115.873648"><ele>1943.2</ele></trkpt>
<trkpt lat="45.208831" lon="-115.873248"><ele>1943.4</ele></trkpt>
<trkpt lat="45.208761" lon="-115.873223"><ele>1943.2</ele></trkpt>
<trkpt lat="45.208012" lon="-115.873537"><ele>1943.4</ele></trkpt>
<trkpt lat="45.207642" lon="-115.873442"><ele>1943.4</ele></trkpt>
<trkpt lat="45.207154" lon="-115.872665"><ele>1942.2</ele></trkpt>
<trkpt lat="45.207212" lon="-115.871736"><ele>1935.6</ele></trkpt>
<trkpt lat="45.206920" lon="-115.871221"><ele>1931.6</ele></trkpt>
<trkpt lat="45.206825" lon="-115.871217"><ele>1930.8</ele></trkpt>
<trkpt lat="45.206735" lon="-115.871354"><ele>1929.8</ele></trkpt>
<trkpt lat="45.206574" lon="-115.871424"><ele>1929.2</ele></trkpt>
<trkpt lat="45.205961" lon="-115.871292"><ele>1926.4</ele></trkpt>
<trkpt lat="45.205744" lon="-115.871330"><ele>1924.6</ele></trkpt>
<trkpt lat="45.205515" lon="-115.871142"><ele>1924.2</ele></trkpt>
<trkpt lat="45.204993" lon="-115.869989"><ele>1920.6</ele></trkpt>
<trkpt lat="45.204403" lon="-115.869659"><ele>1912.2</ele></trkpt>
<trkpt lat="45.204107" lon="-115.869317"><ele>1908.2</ele></trkpt>
<trkpt lat="45.203436" lon="-115.868961"><ele>1905.0</ele></trkpt>
<trkpt lat="45.203325" lon="-115.868579"><ele>1903.2</ele></trkpt>
<trkpt lat="45.203321" lon="-115.868288"><ele>1901.0</ele></trkpt>
<trkpt lat="45.203505" lon="-115.867808"><ele>1896.0</ele></trkpt>
<trkpt lat="45.203266" lon="-115.867831"><ele>1891.0</ele></trkpt>
<trkpt lat="45.203029" lon="-115.868041"><ele>1886.6</ele></trkpt>
<trkpt lat="45.202790" lon="-115.868115"><ele>1884.0</ele></trkpt>
<trkpt lat="45.202477" lon="-115.868171"><ele>1884.0</ele></trkpt>
<trkpt lat="45.202122" lon="-115.868119"><ele>1880.0</ele></trkpt>
<trkpt lat="45.201937" lon="-115.868205"><ele>1877.0</ele></trkpt>
<trkpt lat="45.201934" lon="-115.867910"><ele>1874.6</ele></trkpt>
<trkpt lat="45.202060" lon="-115.867737"><ele>1873.6</ele></trkpt>
<trkpt lat="45.202710" lon="-115.867909"><ele>1873.0</ele></trkpt>
<trkpt lat="45.202815" lon="-115.867766"><ele>1873.6</ele></trkpt>
<trkpt lat="45.202880" lon="-115.867518"><ele>1873.8</ele></trkpt>
<trkpt lat="45.203102" lon="-115.867301"><ele>1874.0</ele></trkpt>
<trkpt lat="45.203682" lon="-115.867079"><ele>1872.8</ele></trkpt>
<trkpt lat="45.204125" lon="-115.867144"><ele>1870.0</ele></trkpt>
<trkpt lat="45.203890" lon="-115.866876"><ele>1866.4</ele></trkpt>
<trkpt lat="45.203826" lon="-115.866644"><ele>1862.6</ele></trkpt>
<trkpt lat="45.203418" lon="-115.866617"><ele>1859.6</ele></trkpt>
<trkpt lat="45.203151" lon="-115.866448"><ele>1857.4</ele></trkpt>
<trkpt lat="45.202719" lon="-115.866375"><ele>1854.0</ele></trkpt>
<trkpt lat="45.202855" lon="-115.866203"><ele>1853.8</ele></trkpt>
<trkpt lat="45.203061" lon="-115.866111"><ele>1853.2</ele></trkpt>
<trkpt lat="45.203471" lon="-115.865406"><ele>1850.0</ele></trkpt>
<trkpt lat="45.203422" lon="-115.865291"><ele>1850.0</ele></trkpt>
<trkpt lat="45.202746" lon="-115.865300"><ele>1849.6</ele></trkpt>
<trkpt lat="45.202467" lon="-115.864903"><ele>1851.0</ele></trkpt>
<trkpt lat="45.202374" lon="-115.864877"><ele>1850.2</ele></trkpt>
<trkpt lat="45.202098" lon="-115.864892"><ele>1850.2</ele></trkpt>
<trkpt lat="45.202012" lon="-115.865008"><ele>1849.8</ele></trkpt>
<trkpt lat="45.202019" lon="-115.865327"><ele>1848.6</ele></trkpt>
<trkpt lat="45.201764" lon="-115.865571"><ele>1847.8</ele></trkpt>
<trkpt lat="45.201534" lon="-115.865640"><ele>1846.6</ele></trkpt>
<trkpt lat="45.201288" lon="-115.865651"><ele>1846.4</ele></trkpt>
<trkpt lat="45.201149" lon="-115.865561"><ele>1846.2</ele></trkpt>
<trkpt lat="45.201003" lon="-115.865330"><ele>1844.6</ele></trkpt>
<trkpt lat="45.200727" lon="-115.865334"><ele>1843.2</ele></trkpt>
<trkpt lat="45.200333" lon="-115.865150"><ele>1841.0</ele></trkpt>
<trkpt lat="45.199888" lon="-115.865278"><ele>1835.2</ele></trkpt>
<trkpt lat="45.199752" lon="-115.865158"><ele>1834.8</ele></trkpt>
<trkpt lat="45.199696" lon="-115.864860"><ele>1835.6</ele></trkpt>
<trkpt lat="45.199831" lon="-115.864591"><ele>1838.0</ele></trkpt>
<trkpt lat="45.200106" lon="-115.864342"><ele>1841.4</ele></trkpt>
<trkpt lat="45.200097" lon="-115.864158"><ele>1842.2</ele></trkpt>
<trkpt lat="45.199675" lon="-115.864048"><ele>1844.4</ele></trkpt>
<trkpt lat="45.198847" lon="-115.863397"><ele>1834.2</ele></trkpt>
<trkpt lat="45.198696" lon="-115.863353"><ele>1834.2</ele></trkpt>
<trkpt lat="45.198225" lon="-115.862650"><ele>1833.2</ele></trkpt>
<trkpt lat="45.198032" lon="-115.862102"><ele>1831.2</ele></trkpt>
<trkpt lat="45.198267" lon="-115.861367"><ele>1828.8</ele></trkpt>
<trkpt lat="45.198281" lon="-115.860522"><ele>1826.2</ele></trkpt>
<trkpt lat="45.198063" lon="-115.860090"><ele>1826.0</ele></trkpt>
<trkpt lat="45.197642" lon="-115.859659"><ele>1830.2</ele></trkpt>
<trkpt lat="45.197489" lon="-115.859075"><ele>1831.2</ele></trkpt>
<trkpt lat="45.197546" lon="-115.858209"><ele>1834.2</ele></trkpt>
<trkpt lat="45.197807" lon="-115.857785"><ele>1835.6</ele></trkpt>
<trkpt lat="45.198337" lon="-115.857644"><ele>1830.4</ele></trkpt>
<trkpt lat="45.198358" lon="-115.857175"><ele>1827.4</ele></trkpt>
<trkpt lat="45.198125" lon="-115.856952"><ele>1829.2</ele></trkpt>
<trkpt lat="45.197838" lon="-115.856829"><ele>1828.4</ele></trkpt>
<trkpt lat="45.197403" lon="-115.856885"><ele>1824.0</ele></trkpt>
<trkpt lat="45.196919" lon="-115.856804"><ele>1825.4</ele></trkpt>
<trkpt lat="45.196830" lon="-115.856699"><ele>1824.6</ele></trkpt>
<trkpt lat="45.196789" lon="-115.856119"><ele>1820.4</ele></trkpt>
<trkpt lat="45.196669" lon="-115.855859"><ele>1820.6</ele></trkpt>
<trkpt lat="45.196448" lon="-115.855652"><ele>1822.0</ele></trkpt>
<trkpt lat="45.195743" lon="-115.855419"><ele>1816.0</ele></trkpt>
<trkpt lat="45.195654" lon="-115.855307"><ele>1815.2</ele></trkpt>
<trkpt lat="45.195556" lon="-115.854729"><ele>1815.8</ele></trkpt>
<trkpt lat="45.195640" lon="-115.854233"><ele>1812.6</ele></trkpt>
<trkpt lat="45.195591" lon="-115.854086"><ele>1812.0</ele></trkpt>
<trkpt lat="45.194850" lon="-115.853222"><ele>1817.6</ele></trkpt>
<trkpt lat="45.194775" lon="-115.852907"><ele>1813.8</ele></trkpt>
<trkpt lat="45.194621" lon="-115.852626"><ele>1811.2</ele></trkpt>
<trkpt lat="45.194694" lon="-115.852158"><ele>1809.4</ele></trkpt>
<trkpt lat="45.194603" lon="-115.851799"><ele>1810.4</ele></trkpt>
<trkpt lat="45.194208" lon="-115.851171"><ele>1810.4</ele></trkpt>
<trkpt lat="45.193986" lon="-115.850285"><ele>1805.8</ele></trkpt>
<trkpt lat="45.193430" lon="-115.849495"><ele>1806.2</ele></trkpt>
<trkpt lat="45.192950" lon="-115.848543"><ele>1804.0</ele></trkpt>
<trkpt lat="45.192761" lon="-115.847349"><ele>1806.2</ele></trkpt>
<trkpt lat="45.192335" lon="-115.846540"><ele>1801.2</ele></trkpt>
<trkpt lat="45.192133" lon="-115.846320"><ele>1800.4</ele></trkpt>
<trkpt lat="45.192144" lon="-115.846106"><ele>1799.8</ele></trkpt>
<trkpt lat="45.191766" lon="-115.844885"><ele>1802.4</ele></trkpt>
<trkpt lat="45.191783" lon="-115.844458"><ele>1802.8</ele></trkpt>
<trkpt lat="45.191463" lon="-115.843847"><ele>1803.0</ele></trkpt>
<trkpt lat="45.191383" lon="-115.843055"><ele>1801.2</ele></trkpt>
<trkpt lat="45.191117" lon="-115.842674"><ele>1802.0</ele></trkpt>
<trkpt lat="45.191095" lon="-115.842470"><ele>1800.8</ele></trkpt>
<trkpt lat="45.191276" lon="-115.841658"><ele>1795.6</ele></trkpt>
<trkpt lat="45.191449" lon="-115.841461"><ele>1794.6</ele></trkpt>
<trkpt lat="45.191709" lon="-115.840805"><ele>1792.8</ele></trkpt>
<trkpt lat="45.191953" lon="-115.840609"><ele>1794.6</ele></trkpt>
<trkpt lat="45.192222" lon="-115.840202"><ele>1798.8</ele></trkpt>
<trkpt lat="45.192220" lon="-115.839821"><ele>1797.2</ele></trkpt>
<trkpt lat="45.192336" lon="-115.839260"><ele>1793.6</ele></trkpt>
<trkpt lat="45.192337" lon="-115.837862"><ele>1791.6</ele></trkpt>
<trkpt lat="45.192273" lon="-115.837565"><ele>1791.0</ele></trkpt>
<trkpt lat="45.192306" lon="-115.837253"><ele>1790.8</ele></trkpt>
<trkpt lat="45.192194" lon="-115.836562"><ele>1792.2</ele></trkpt>
<trkpt lat="45.192328" lon="-115.835862"><ele>1790.6</ele></trkpt>
<trkpt lat="45.192148" lon="-115.835693"><ele>1787.6</ele></trkpt>
<trkpt lat="45.192049" lon="-115.835462"><ele>1787.6</ele></trkpt>
<trkpt lat="45.191927" lon="-115.834494"><ele>1786.6</ele></trkpt>
<trkpt lat="45.191999" lon="-115.833767"><ele>1785.6</ele></trkpt>
<trkpt lat="45.192296" lon="-115.833214"><ele>1786.2</ele></trkpt>
<trkpt lat="45.192160" lon="-115.832596"><ele>1790.0</ele></trkpt>
<trkpt lat="45.192117" lon="-115.832064"><ele>1792.2</ele></trkpt>
<trkpt lat="45.192067" lon="-115.831944"><ele>1791.8</ele></trkpt>
<trkpt lat="45.191855" lon="-115.831777"><ele>1789.8</ele></trkpt>
<trkpt lat="45.191473" lon="-115.831695"><ele>1787.4</ele></trkpt>
<trkpt lat="45.191215" lon="-115.831419"><ele>1784.8</ele></trkpt>
<trkpt lat="45.190876" lon="-115.831254"><ele>1784.2</ele></trkpt>
<trkpt lat="45.190551" lon="-115.831184"><ele>1784.2</ele></trkpt>
<trkpt lat="45.190310" lon="-115.831358"><ele>1783.8</ele></trkpt>
<trkpt lat="45.189833" lon="-115.830982"><ele>1784.4</ele></trkpt>
<trkpt lat="45.189089" lon="-115.830833"><ele>1785.4</ele></trkpt>
<trkpt lat="45.188567" lon="-115.830423"><ele>1789.8</ele></trkpt>
<trkpt lat="45.188103" lon="-115.830366"><ele>1787.2</ele></trkpt>
<trkpt lat="45.187615" lon="-115.830452"><ele>1786.4</ele></trkpt>
<trkpt lat="45.187302" lon="-115.830556"><ele>1785.0</ele></trkpt>
<trkpt lat="45.186747" lon="-115.830917"><ele>1781.0</ele></trkpt>
<trkpt lat="45.186157" lon="-115.831107"><ele>1780.8</ele></trkpt>
<trkpt lat="45.185619" lon="-115.831578"><ele>1779.8</ele></trkpt>
<trkpt lat="45.185541" lon="-115.831562"><ele>1779.6</ele></trkpt>
<trkpt lat="45.185304" lon="-115.831871"><ele>1778.2</ele></trkpt>
<trkpt lat="45.185181" lon="-115.831926"><ele>1777.6</ele></trkpt>
<trkpt lat="45.185082" lon="-115.832368"><ele>1776.6</ele></trkpt>
<trkpt lat="45.184883" lon="-115.832642"><ele>1778.2</ele></trkpt>
<trkpt lat="45.184850" lon="-115.832855"><ele>1779.6</ele></trkpt>
<trkpt lat="45.184571" lon="-115.833107"><ele>1784.0</ele></trkpt>
<trkpt lat="45.184389" lon="-115.833126"><ele>1787.0</ele></trkpt>
<trkpt lat="45.183968" lon="-115.832982"><ele>1793.8</ele></trkpt>
<trkpt lat="45.183765" lon="-115.833036"><ele>1795.6</ele></trkpt>
<trkpt lat="45.183422" lon="-115.832978"><ele>1799.4</ele></trkpt>
<trkpt lat="45.183087" lon="-115.833257"><ele>1803.0</ele></trkpt>
<trkpt lat="45.182452" lon="-115.834145"><ele>1810.2</ele></trkpt>
<trkpt lat="45.182130" lon="-115.833933"><ele>1812.2</ele></trkpt>
<trkpt lat="45.182062" lon="-115.833403"><ele>1816.4</ele></trkpt>
<trkpt lat="45.181939" lon="-115.833389"><ele>1817.4</ele></trkpt>
<trkpt lat="45.181752" lon="-115.833445"><ele>1820.0</ele></trkpt>
<trkpt lat="45.181282" lon="-115.833907"><ele>1827.0</ele></trkpt>
<trkpt lat="45.180899" lon="-115.834025"><ele>1831.6</ele></trkpt>
<trkpt lat="45.180629" lon="-115.833902"><ele>1832.6</ele></trkpt>
<trkpt lat="45.180236" lon="-115.834085"><ele>1836.6</ele></trkpt>
<trkpt lat="45.179793" lon="-115.834166"><ele>1841.2</ele></trkpt>
<trkpt lat="45.178996" lon="-115.834858"><ele>1840.2</ele></trkpt>
<trkpt lat="45.177575" lon="-115.835414"><ele>1831.0</ele></trkpt>
<trkpt lat="45.176622" lon="-115.835176"><ele>1819.0</ele></trkpt>
<trkpt lat="45.176082" lon="-115.835722"><ele>1818.8</ele></trkpt>
<trkpt lat="45.175959" lon="-115.836214"><ele>1822.4</ele></trkpt>
<trkpt lat="45.175457" lon="-115.836262"><ele>1830.8</ele></trkpt>
<trkpt lat="45.174393" lon="-115.837208"><ele>1826.8</ele></trkpt>
<trkpt lat="45.173816" lon="-115.837434"><ele>1823.4</ele></trkpt>
<trkpt lat="45.173668" lon="-115.837724"><ele>1819.4</ele></trkpt>
<trkpt lat="45.173490" lon="-115.837786"><ele>1816.8</ele></trkpt>
<trkpt lat="45.173127" lon="-115.837594"><ele>1812.8</ele></trkpt>
<trkpt lat="45.172463" lon="-115.836868"><ele>1800.0</ele></trkpt>
<trkpt lat="45.172224" lon="-115.836045"><ele>1800.4</ele></trkpt>
<trkpt lat="45.171760" lon="-115.835592"><ele>1798.0</ele></trkpt>
<trkpt lat="45.171733" lon="-115.835362"><ele>1797.6</ele></trkpt>
<trkpt lat="45.171482" lon="-115.834704"><ele>1795.6</ele></trkpt>
<trkpt lat="45.171193" lon="-115.834450"><ele>1793.2</ele></trkpt>
<trkpt lat="45.170962" lon="-115.834449"><ele>1793.4</ele></trkpt>
<trkpt lat="45.170937" lon="-115.835178"><ele>1786.4</ele></trkpt>
<trkpt lat="45.170733" lon="-115.835321"><ele>1785.6</ele></trkpt>
<trkpt lat="45.170459" lon="-115.835695"><ele>1784.2</ele></trkpt>
<trkpt lat="45.169949" lon="-115.835650"><ele>1782.8</ele></trkpt>
<trkpt lat="45.169564" lon="-115.835868"><ele>1781.2</ele></trkpt>
<trkpt lat="45.169073" lon="-115.835798"><ele>1780.6</ele></trkpt>
<trkpt lat="45.168704" lon="-115.836054"><ele>1778.8</ele></trkpt>
<trkpt lat="45.168598" lon="-115.835961"><ele>1779.0</ele></trkpt>
<trkpt lat="45.168431" lon="-115.835530"><ele>1781.2</ele></trkpt>
<trkpt lat="45.168203" lon="-115.835300"><ele>1781.8</ele></trkpt>
<trkpt lat="45.168442" lon="-115.835537"><ele>1781.4</ele></trkpt>
<trkpt lat="45.168555" lon="-115.835840"><ele>1779.8</ele></trkpt>
<trkpt lat="45.168579" lon="-115.836152"><ele>1778.8</ele></trkpt>
<trkpt lat="45.168444" lon="-115.836517"><ele>1779.4</ele></trkpt>
<trkpt lat="45.168462" lon="-115.836825"><ele>1780.4</ele></trkpt>
<trkpt lat="45.168619" lon="-115.837525"><ele>1783.8</ele></trkpt>
<trkpt lat="45.168641" lon="-115.837934"><ele>1784.6</ele></trkpt>
<trkpt lat="45.168966" lon="-115.838414"><ele>1784.2</ele></trkpt>
<trkpt lat="45.169041" lon="-115.838632"><ele>1784.4</ele></trkpt>
<trkpt lat="45.168969" lon="-115.838995"><ele>1784.4</ele></trkpt>
<trkpt lat="45.169043" lon="-115.838642"><ele>1783.8</ele></trkpt>
<trkpt lat="45.168998" lon="-115.838462"><ele>1784.2</ele></trkpt>
<trkpt lat="45.168675" lon="-115.837995"><ele>1784.2</ele></trkpt>
<trkpt lat="45.168438" lon="-115.836623"><ele>1778.8</ele></trkpt>
<trkpt lat="45.168591" lon="-115.835964"><ele>1778.2</ele></trkpt>
<trkpt lat="45.168695" lon="-115.836078"><ele>1778.2</ele></trkpt>
<trkpt lat="45.169042" lon="-115.835816"><ele>1778.4</ele></trkpt>
<trkpt lat="45.169593" lon="-115.835869"><ele>1779.4</ele></trkpt>
<trkpt lat="45.170021" lon="-115.835633"><ele>1780.6</ele></trkpt>
<trkpt lat="45.170360" lon="-115.835760"><ele>1781.2</ele></trkpt>
<trkpt lat="45.170935" lon="-115.835156"><ele>1785.2</ele></trkpt>
<trkpt lat="45.170727" lon="-115.833946"><ele>1789.2</ele></trkpt>
<trkpt lat="45.170468" lon="-115.833371"><ele>1788.4</ele></trkpt>
<trkpt lat="45.170143" lon="-115.832847"><ele>1786.4</ele></trkpt>
<trkpt lat="45.169759" lon="-115.832779"><ele>1782.2</ele></trkpt>
<trkpt lat="45.169219" lon="-115.832466"><ele>1778.8</ele></trkpt>
<trkpt lat="45.169130" lon="-115.832273"><ele>1779.4</ele></trkpt>
<trkpt lat="45.169114" lon="-115.832031"><ele>1781.6</ele></trkpt>
<trkpt lat="45.168891" lon="-115.831634"><ele>1777.2</ele></trkpt>
<trkpt lat="45.168915" lon="-115.831366"><ele>1774.6</ele></trkpt>
<trkpt lat="45.168676" lon="-115.831141"><ele>1774.8</ele></trkpt>
<trkpt lat="45.168520" lon="-115.830497"><ele>1776.8</ele></trkpt>
<trkpt lat="45.168467" lon="-115.829391"><ele>1773.2</ele></trkpt>
<trkpt lat="45.168254" lon="-115.828781"><ele>1774.6</ele></trkpt>
<trkpt lat="45.168034" lon="-115.827870"><ele>1775.8</ele></trkpt>
<trkpt lat="45.168193" lon="-115.826329"><ele>1776.2</ele></trkpt>
<trkpt lat="45.168386" lon="-115.825602"><ele>1775.2</ele></trkpt>
<trkpt lat="45.168681" lon="-115.824998"><ele>1768.6</ele></trkpt>
<trkpt lat="45.168712" lon="-115.824305"><ele>1767.2</ele></trkpt>
<trkpt lat="45.169107" lon="-115.823174"><ele>1756.8</ele></trkpt>
<trkpt lat="45.169296" lon="-115.821966"><ele>1747.8</ele></trkpt>
<trkpt lat="45.169599" lon="-115.820646"><ele>1739.6</ele></trkpt>
<trkpt lat="45.169555" lon="-115.819448"><ele>1736.4</ele></trkpt>
<trkpt lat="45.169788" lon="-115.819150"><ele>1734.0</ele></trkpt>
<trkpt lat="45.170211" lon="-115.818204"><ele>1740.8</ele></trkpt>
<trkpt lat="45.170430" lon="-115.817484"><ele>1745.8</ele></trkpt>
<trkpt lat="45.170436" lon="-115.817367"><ele>1745.8</ele></trkpt>
<trkpt lat="45.170171" lon="-115.816703"><ele>1748.2</ele></trkpt>
<trkpt lat="45.170169" lon="-115.816234"><ele>1748.8</ele></trkpt>
<trkpt lat="45.170301" lon="-115.815612"><ele>1749.2</ele></trkpt>
<trkpt lat="45.169965" lon="-115.815375"><ele>1750.8</ele></trkpt>
<trkpt lat="45.170071" lon="-115.814905"><ele>1746.2</ele></trkpt>
<trkpt lat="45.170330" lon="-115.814429"><ele>1740.4</ele></trkpt>
<trkpt lat="45.170281" lon="-115.814202"><ele>1740.8</ele></trkpt>
<trkpt lat="45.170399" lon="-115.813814"><ele>1740.6</ele></trkpt>
<trkpt lat="45.170261" lon="-115.813575"><ele>1739.2</ele></trkpt>
<trkpt lat="45.170244" lon="-115.813351"><ele>1737.2</ele></trkpt>
<trkpt lat="45.170090" lon="-115.813031"><ele>1731.2</ele></trkpt>
<trkpt lat="45.170143" lon="-115.812635"><ele>1728.0</ele></trkpt>
<trkpt lat="45.170276" lon="-115.812340"><ele>1724.6</ele></trkpt>
<trkpt lat="45.170614" lon="-115.812086"><ele>1721.4</ele></trkpt>
<trkpt lat="45.170569" lon="-115.811771"><ele>1718.2</ele></trkpt>
<trkpt lat="45.170718" lon="-115.811499"><ele>1714.6</ele></trkpt>
<trkpt lat="45.170451" lon="-115.811654"><ele>1711.4</ele></trkpt>
<trkpt lat="45.170567" lon="-115.811438"><ele>1707.0</ele></trkpt>
<trkpt lat="45.170569" lon="-115.811275"><ele>1705.6</ele></trkpt>
<trkpt lat="45.170421" lon="-115.811101"><ele>1699.8</ele></trkpt>
<trkpt lat="45.170006" lon="-115.809569"><ele>1681.2</ele></trkpt>
<trkpt lat="45.170145" lon="-115.809202"><ele>1680.6</ele></trkpt>
<trkpt lat="45.170467" lon="-115.809076"><ele>1683.8</ele></trkpt>
<trkpt lat="45.170452" lon="-115.808761"><ele>1685.0</ele></trkpt>
<trkpt lat="45.170371" lon="-115.808781"><ele>1684.4</ele></trkpt>
<trkpt lat="45.170411" lon="-115.808729"><ele>1684.8</ele></trkpt>
<trkpt lat="45.170529" lon="-115.808715"><ele>1686.2</ele></trkpt>
<trkpt lat="45.170446" lon="-115.808735"><ele>1686.0</ele></trkpt>
<trkpt lat="45.170451" lon="-115.808910"><ele>1685.8</ele></trkpt>
<trkpt lat="45.170468" lon="-115.808742"><ele>1686.0</ele></trkpt>
<trkpt lat="45.170594" lon="-115.808706"><ele>1687.8</ele></trkpt>
<trkpt lat="45.170435" lon="-115.808756"><ele>1686.8</ele></trkpt>
<trkpt lat="45.170457" lon="-115.809089"><ele>1686.8</ele></trkpt>
<trkpt lat="45.170106" lon="-115.809204"><ele>1684.2</ele></trkpt>
<trkpt lat="45.170039" lon="-115.809420"><ele>1684.6</ele></trkpt>
<trkpt lat="45.170127" lon="-115.809219"><ele>1684.8</ele></trkpt>
<trkpt lat="45.170481" lon="-115.809085"><ele>1687.6</ele></trkpt>
<trkpt lat="45.170446" lon="-115.808743"><ele>1688.2</ele></trkpt>
<trkpt lat="45.170729" lon="-115.808693"><ele>1691.0</ele></trkpt>
<trkpt lat="45.171346" lon="-115.808771"><ele>1703.0</ele></trkpt>
<trkpt lat="45.171550" lon="-115.808962"><ele>1706.2</ele></trkpt>
<trkpt lat="45.172097" lon="-115.809213"><ele>1709.0</ele></trkpt>
<trkpt lat="45.172559" lon="-115.809683"><ele>1705.8</ele></trkpt>
<trkpt lat="45.173032" lon="-115.809680"><ele>1705.6</ele></trkpt>
<trkpt lat="45.173255" lon="-115.809797"><ele>1705.2</ele></trkpt>
<trkpt lat="45.173489" lon="-115.809802"><ele>1702.6</ele></trkpt>
<trkpt lat="45.173918" lon="-115.809967"><ele>1698.4</ele></trkpt>
<trkpt lat="45.174182" lon="-115.810190"><ele>1694.0</ele></trkpt>
<trkpt lat="45.174712" lon="-115.810453"><ele>1696.6</ele></trkpt>
<trkpt lat="45.175101" lon="-115.811125"><ele>1697.2</ele></trkpt>
<trkpt lat="45.175224" lon="-115.811510"><ele>1700.6</ele></trkpt>
<trkpt lat="45.175280" lon="-115.812417"><ele>1699.0</ele></trkpt>
<trkpt lat="45.175391" lon="-115.813086"><ele>1703.6</ele></trkpt>
<trkpt lat="45.175939" lon="-115.814758"><ele>1697.8</ele></trkpt>
<trkpt lat="45.176499" lon="-115.815301"><ele>1702.2</ele></trkpt>
<trkpt lat="45.176836" lon="-115.815888"><ele>1700.6</ele></trkpt>
<trkpt lat="45.177066" lon="-115.816054"><ele>1701.6</ele></trkpt>
<trkpt lat="45.177504" lon="-115.816159"><ele>1703.6</ele></trkpt>
<trkpt lat="45.177927" lon="-115.816090"><ele>1708.0</ele></trkpt>
<trkpt lat="45.178213" lon="-115.816143"><ele>1706.8</ele></trkpt>
<trkpt lat="45.178572" lon="-115.816540"><ele>1701.0</ele></trkpt>
<trkpt lat="45.179156" lon="-115.816750"><ele>1703.4</ele></trkpt>
<trkpt lat="45.179482" lon="-115.817243"><ele>1704.0</ele></trkpt>
<trkpt lat="45.179671" lon="-115.817678"><ele>1709.2</ele></trkpt>
<trkpt lat="45.179769" lon="-115.818337"><ele>1709.0</ele></trkpt>
<trkpt lat="45.179578" lon="-115.818800"><ele>1703.0</ele></trkpt>
<trkpt lat="45.179521" lon="-115.819169"><ele>1703.0</ele></trkpt>
<trkpt lat="45.179600" lon="-115.819571"><ele>1707.8</ele></trkpt>
<trkpt lat="45.179558" lon="-115.820107"><ele>1706.0</ele></trkpt>
<trkpt lat="45.179718" lon="-115.820581"><ele>1705.6</ele></trkpt>
<trkpt lat="45.179815" lon="-115.820674"><ele>1706.2</ele></trkpt>
<trkpt lat="45.180675" lon="-115.821259"><ele>1710.0</ele></trkpt>
<trkpt lat="45.180892" lon="-115.821496"><ele>1712.4</ele></trkpt>
<trkpt lat="45.181469" lon="-115.821726"><ele>1714.0</ele></trkpt>
<trkpt lat="45.181652" lon="-115.821877"><ele>1708.8</ele></trkpt>
<trkpt lat="45.182697" lon="-115.822109"><ele>1712.8</ele></trkpt>
<trkpt lat="45.184321" lon="-115.822868"><ele>1713.6</ele></trkpt>
<trkpt lat="45.184597" lon="-115.822947"><ele>1712.8</ele></trkpt>
<trkpt lat="45.185228" lon="-115.822904"><ele>1715.4</ele></trkpt>
<trkpt lat="45.185480" lon="-115.822850"><ele>1717.0</ele></trkpt>
<trkpt lat="45.185858" lon="-115.822626"><ele>1716.8</ele></trkpt>
<trkpt lat="45.186614" lon="-115.821839"><ele>1717.6</ele></trkpt>
<trkpt lat="45.187224" lon="-115.821600"><ele>1718.4</ele></trkpt>
<trkpt lat="45.187771" lon="-115.821046"><ele>1721.4</ele></trkpt>
<trkpt lat="45.188374" lon="-115.819517"><ele>1724.0</ele></trkpt>
<trkpt lat="45.188579" lon="-115.819222"><ele>1725.8</ele></trkpt>
<trkpt lat="45.188784" lon="-115.819097"><ele>1726.0</ele></trkpt>
<trkpt lat="45.189474" lon="-115.819109"><ele>1727.8</ele></trkpt>
<trkpt lat="45.189874" lon="-115.819426"><ele>1728.0</ele></trkpt>
<trkpt lat="45.190422" lon="-115.820214"><ele>1729.6</ele></trkpt>
<trkpt lat="45.190748" lon="-115.820853"><ele>1731.6</ele></trkpt>
<trkpt lat="45.191308" lon="-115.821519"><ele>1728.0</ele></trkpt>
<trkpt lat="45.191822" lon="-115.821485"><ele>1732.4</ele></trkpt>
<trkpt lat="45.192911" lon="-115.821098"><ele>1736.0</ele></trkpt>
<trkpt lat="45.193639" lon="-115.820937"><ele>1737.2</ele></trkpt>
<trkpt lat="45.194384" lon="-115.820870"><ele>1737.2</ele></trkpt>
<trkpt lat="45.194756" lon="-115.820686"><ele>1736.4</ele></trkpt>
<trkpt lat="45.195751" lon="-115.819633"><ele>1739.4</ele></trkpt>
<trkpt lat="45.196756" lon="-115.818993"><ele>1741.8</ele></trkpt>
<trkpt lat="45.197456" lon="-115.818409"><ele>1739.2</ele></trkpt>
<trkpt lat="45.197838" lon="-115.818182"><ele>1741.6</ele></trkpt>
<trkpt lat="45.198299" lon="-115.818061"><ele>1741.8</ele></trkpt>
<trkpt lat="45.198804" lon="-115.817736"><ele>1739.4</ele></trkpt>
<trkpt lat="45.198944" lon="-115.817512"><ele>1738.0</ele></trkpt>
<trkpt lat="45.199048" lon="-115.816879"><ele>1737.0</ele></trkpt>
<trkpt lat="45.199172" lon="-115.816615"><ele>1736.6</ele></trkpt>
<trkpt lat="45.199466" lon="-115.816491"><ele>1737.4</ele></trkpt>
<trkpt lat="45.200369" lon="-115.816615"><ele>1737.0</ele></trkpt>
<trkpt lat="45.200875" lon="-115.816490"><ele>1738.6</ele></trkpt>
<trkpt lat="45.201722" lon="-115.815753"><ele>1738.8</ele></trkpt>
<trkpt lat="45.201814" lon="-115.815569"><ele>1738.6</ele></trkpt>
<trkpt lat="45.201805" lon="-115.815371"><ele>1737.8</ele></trkpt>
<trkpt lat="45.201972" lon="-115.815446"><ele>1738.4</ele></trkpt>
<trkpt lat="45.202277" lon="-115.815114"><ele>1738.2</ele></trkpt>
<trkpt lat="45.202800" lon="-115.814753"><ele>1737.8</ele></trkpt>
<trkpt lat="45.203081" lon="-115.814406"><ele>1738.4</ele></trkpt>
<trkpt lat="45.203823" lon="-115.813868"><ele>1738.8</ele></trkpt>
<trkpt lat="45.204521" lon="-115.813030"><ele>1745.8</ele></trkpt>
<trkpt lat="45.204941" lon="-115.812756"><ele>1741.4</ele></trkpt>
<trkpt lat="45.205436" lon="-115.812601"><ele>1738.0</ele></trkpt>
<trkpt lat="45.205921" lon="-115.812204"><ele>1740.2</ele></trkpt>
<trkpt lat="45.206625" lon="-115.812076"><ele>1741.6</ele></trkpt>
<trkpt lat="45.208347" lon="-115.811466"><ele>1740.4</ele></trkpt>
<trkpt lat="45.208723" lon="-115.811060"><ele>1739.6</ele></trkpt>
<trkpt lat="45.209064" lon="-115.810361"><ele>1741.6</ele></trkpt>
<trkpt lat="45.209707" lon="-115.809745"><ele>1741.0</ele></trkpt>
<trkpt lat="45.210128" lon="-115.809131"><ele>1744.2</ele></trkpt>
<trkpt lat="45.210513" lon="-115.808771"><ele>1740.6</ele></trkpt>
<trkpt lat="45.210643" lon="-115.808537"><ele>1740.6</ele></trkpt>
<trkpt lat="45.210942" lon="-115.808549"><ele>1742.2</ele></trkpt>
<trkpt lat="45.211480" lon="-115.808348"><ele>1748.0</ele></trkpt>
<trkpt lat="45.211677" lon="-115.808411"><ele>1749.0</ele></trkpt>
<trkpt lat="45.212351" lon="-115.808838"><ele>1743.4</ele></trkpt>
<trkpt lat="45.212559" lon="-115.809134"><ele>1743.0</ele></trkpt>
<trkpt lat="45.212558" lon="-115.809228"><ele>1742.8</ele></trkpt>
<trkpt lat="45.212390" lon="-115.808959"><ele>1742.0</ele></trkpt>
<trkpt lat="45.212380" lon="-115.808835"><ele>1742.6</ele></trkpt>
<trkpt lat="45.212332" lon="-115.808857"><ele>1742.8</ele></trkpt>
<trkpt lat="45.212473" lon="-115.808717"><ele>1742.8</ele></trkpt>
<trkpt lat="45.211996" lon="-115.809217"><ele>1740.8</ele></trkpt>
<trkpt lat="45.212300" lon="-115.808845"><ele>1741.6</ele></trkpt>
<trkpt lat="45.212555" lon="-115.808685"><ele>1743.8</ele></trkpt>
<trkpt lat="45.213215" lon="-115.808640"><ele>1746.8</ele></trkpt>
<trkpt lat="45.213772" lon="-115.808458"><ele>1746.6</ele></trkpt>
<trkpt lat="45.213918" lon="-115.808605"><ele>1745.8</ele></trkpt>
<trkpt lat="45.213976" lon="-115.808793"><ele>1745.0</ele></trkpt>
<trkpt lat="45.213854" lon="-115.809038"><ele>1743.6</ele></trkpt>
<trkpt lat="45.213960" lon="-115.808779"><ele>1743.8</ele></trkpt>
<trkpt lat="45.213859" lon="-115.808555"><ele>1744.6</ele></trkpt>
<trkpt lat="45.213714" lon="-115.808504"><ele>1745.2</ele></trkpt>
<trkpt lat="45.213219" lon="-115.808662"><ele>1746.0</ele></trkpt>
<trkpt lat="45.212490" lon="-115.808749"><ele>1742.4</ele></trkpt>
<trkpt lat="45.212314" lon="-115.808816"><ele>1740.6</ele></trkpt>
<trkpt lat="45.212356" lon="-115.808883"><ele>1740.0</ele></trkpt>
<trkpt lat="45.212528" lon="-115.808700"><ele>1741.2</ele></trkpt>
<trkpt lat="45.213219" lon="-115.808644"><ele>1745.4</ele></trkpt>
<trkpt lat="45.213724" lon="-115.808454"><ele>1745.6</ele></trkpt>
<trkpt lat="45.213914" lon="-115.808629"><ele>1744.8</ele></trkpt>
<trkpt lat="45.214180" lon="-115.809043"><ele>1744.6</ele></trkpt>
<trkpt lat="45.214381" lon="-115.809102"><ele>1745.8</ele></trkpt>
<trkpt lat="45.215195" lon="-115.808960"><ele>1750.2</ele></trkpt>
<trkpt lat="45.215705" lon="-115.808561"><ele>1750.2</ele></trkpt>
<trkpt lat="45.216962" lon="-115.808141"><ele>1750.4</ele></trkpt>
<trkpt lat="45.217327" lon="-115.807790"><ele>1749.8</ele></trkpt>
<trkpt lat="45.217885" lon="-115.806939"><ele>1750.4</ele></trkpt>
<trkpt lat="45.218443" lon="-115.806422"><ele>1749.0</ele></trkpt>
<trkpt lat="45.218650" lon="-115.806026"><ele>1746.6</ele></trkpt>
<trkpt lat="45.218749" lon="-115.805693"><ele>1748.0</ele></trkpt>
<trkpt lat="45.218709" lon="-115.804702"><ele>1752.2</ele></trkpt>
<trkpt lat="45.218911" lon="-115.803973"><ele>1754.0</ele></trkpt>
<trkpt lat="45.219120" lon="-115.802348"><ele>1756.4</ele></trkpt>
<trkpt lat="45.219205" lon="-115.802067"><ele>1757.0</ele></trkpt>
<trkpt lat="45.219354" lon="-115.801854"><ele>1757.8</ele></trkpt>
<trkpt lat="45.219593" lon="-115.801677"><ele>1757.6</ele></trkpt>
<trkpt lat="45.219858" lon="-115.801606"><ele>1757.8</ele></trkpt>
<trkpt lat="45.220597" lon="-115.801987"><ele>1756.4</ele></trkpt>
<trkpt lat="45.221125" lon="-115.802494"><ele>1754.6</ele></trkpt>
<trkpt lat="45.221795" lon="-115.802643"><ele>1755.2</ele></trkpt>
<trkpt lat="45.222369" lon="-115.802468"><ele>1755.4</ele></trkpt>
<trkpt lat="45.223854" lon="-115.802599"><ele>1755.2</ele></trkpt>
<trkpt lat="45.224519" lon="-115.802862"><ele>1755.8</ele></trkpt>
<trkpt lat="45.225213" lon="-115.803516"><ele>1754.8</ele></trkpt>
<trkpt lat="45.225481" lon="-115.803537"><ele>1754.0</ele></trkpt>
<trkpt lat="45.225879" lon="-115.803408"><ele>1753.8</ele></trkpt>
<trkpt lat="45.225934" lon="-115.803490"><ele>1753.8</ele></trkpt>
<trkpt lat="45.226005" lon="-115.804526"><ele>1751.6</ele></trkpt>
<trkpt lat="45.226108" lon="-115.805017"><ele>1750.6</ele></trkpt>
<trkpt lat="45.226489" lon="-115.805845"><ele>1750.6</ele></trkpt>
<trkpt lat="45.227330" lon="-115.806802"><ele>1748.6</ele></trkpt>
<trkpt lat="45.228719" lon="-115.808211"><ele>1750.2</ele></trkpt>
<trkpt lat="45.229497" lon="-115.808806"><ele>1750.4</ele></trkpt>
<trkpt lat="45.232046" lon="-115.809918"><ele>1750.6</ele></trkpt>
<trkpt lat="45.232622" lon="-115.810431"><ele>1750.4</ele></trkpt>
<trkpt lat="45.233047" lon="-115.811395"><ele>1750.8</ele></trkpt>
<trkpt lat="45.233322" lon="-115.811809"><ele>1750.8</ele></trkpt>
<trkpt lat="45.233677" lon="-115.812112"><ele>1750.4</ele></trkpt>
<trkpt lat="45.237676" lon="-115.814436"><ele>1752.4</ele></trkpt>
<trkpt lat="45.238703" lon="-115.814839"><ele>1753.8</ele></trkpt>
<trkpt lat="45.240763" lon="-115.814941"><ele>1754.0</ele></trkpt>
<trkpt lat="45.241536" lon="-115.815117"><ele>1753.8</ele></trkpt>
<trkpt lat="45.242041" lon="-115.815479"><ele>1754.6</ele></trkpt>
<trkpt lat="45.242619" lon="-115.816088"><ele>1755.6</ele></trkpt>
<trkpt lat="45.243282" lon="-115.816459"><ele>1756.8</ele></trkpt>
<trkpt lat="45.243812" lon="-115.816500"><ele>1756.2</ele></trkpt>
<trkpt lat="45.246003" lon="-115.816086"><ele>1756.8</ele></trkpt>
<trkpt lat="45.246808" lon="-115.816049"><ele>1757.2</ele></trkpt>
<trkpt lat="45.248277" lon="-115.816172"><ele>1758.0</ele></trkpt>
<trkpt lat="45.248375" lon="-115.816333"><ele>1757.8</ele></trkpt>
<trkpt lat="45.248355" lon="-115.816784"><ele>1758.0</ele></trkpt>
<trkpt lat="45.248389" lon="-115.816922"><ele>1758.0</ele></trkpt>
<trkpt lat="45.248461" lon="-115.816965"><ele>1757.8</ele></trkpt>
<trkpt lat="45.248477" lon="-115.816896"><ele>1756.6</ele></trkpt>
<trkpt lat="45.248463" lon="-115.816969"><ele>1757.2</ele></trkpt>
<trkpt lat="45.248346" lon="-115.816869"><ele>1757.2</ele></trkpt>
<trkpt lat="45.248424" lon="-115.816741"><ele>1757.6</ele></trkpt>
<trkpt lat="45.248375" lon="-115.816688"><ele>1757.4</ele></trkpt>
<trkpt lat="45.248426" lon="-115.816578"><ele>1757.4</ele></trkpt>
<trkpt lat="45.248435" lon="-115.816173"><ele>1757.6</ele></trkpt>
<trkpt lat="45.249193" lon="-115.816294"><ele>1758.0</ele></trkpt>
<trkpt lat="45.250302" lon="-115.816874"><ele>1759.2</ele></trkpt>
<trkpt lat="45.256464" lon="-115.821482"><ele>1767.8</ele></trkpt>
<trkpt lat="45.256881" lon="-115.822126"><ele>1770.0</ele></trkpt>
<trkpt lat="45.257652" lon="-115.824342"><ele>1779.6</ele></trkpt>
<trkpt lat="45.258064" lon="-115.825172"><ele>1783.8</ele></trkpt>
<trkpt lat="45.258420" lon="-115.825620"><ele>1786.8</ele></trkpt>
<trkpt lat="45.259424" lon="-115.826455"><ele>1784.8</ele></trkpt>
<trkpt lat="45.260041" lon="-115.827136"><ele>1780.6</ele></trkpt>
<trkpt lat="45.265689" lon="-115.835033"><ele>1778.8</ele></trkpt>
<trkpt lat="45.266113" lon="-115.835785"><ele>1779.4</ele></trkpt>
<trkpt lat="45.266619" lon="-115.837211"><ele>1781.2</ele></trkpt>
<trkpt lat="45.266735" lon="-115.837794"><ele>1781.4</ele></trkpt>
<trkpt lat="45.266838" lon="-115.838830"><ele>1782.8</ele></trkpt>
<trkpt lat="45.266651" lon="-115.845379"><ele>1788.8</ele></trkpt>
<trkpt lat="45.266847" lon="-115.845859"><ele>1789.4</ele></trkpt>
<trkpt lat="45.267891" lon="-115.846986"><ele>1790.6</ele></trkpt>
<trkpt lat="45.268060" lon="-115.847370"><ele>1791.2</ele></trkpt>
<trkpt lat="45.268109" lon="-115.847677"><ele>1791.2</ele></trkpt>
<trkpt lat="45.268062" lon="-115.848082"><ele>1790.6</ele></trkpt>
<trkpt lat="45.267937" lon="-115.848405"><ele>1790.6</ele></trkpt>
<trkpt lat="45.266656" lon="-115.850155"><ele>1792.4</ele></trkpt>
<trkpt lat="45.266532" lon="-115.850468"><ele>1792.6</ele></trkpt>
<trkpt lat="45.266389" lon="-115.852194"><ele>1795.0</ele></trkpt>
<trkpt lat="45.266269" lon="-115.852836"><ele>1796.8</ele></trkpt>
<trkpt lat="45.266141" lon="-115.853192"><ele>1797.6</ele></trkpt>
<trkpt lat="45.264818" lon="-115.854800"><ele>1800.0</ele></trkpt>
<trkpt lat="45.264492" lon="-115.855446"><ele>1801.6</ele></trkpt>
<trkpt lat="45.264402" lon="-115.855904"><ele>1802.4</ele></trkpt>
<trkpt lat="45.264477" lon="-115.856522"><ele>1803.2</ele></trkpt>
<trkpt lat="45.265127" lon="-115.858597"><ele>1805.0</ele></trkpt>
<trkpt lat="45.265264" lon="-115.859360"><ele>1805.8</ele></trkpt>
<trkpt lat="45.265271" lon="-115.859783"><ele>1806.6</ele></trkpt>
<trkpt lat="45.265175" lon="-115.860345"><ele>1808.2</ele></trkpt>
<trkpt lat="45.264837" lon="-115.861161"><ele>1808.4</ele></trkpt>
<trkpt lat="45.261382" lon="-115.868199"><ele>1815.0</ele></trkpt>
<trkpt lat="45.260843" lon="-115.871513"><ele>1816.8</ele></trkpt>
<trkpt lat="45.260223" lon="-115.873781"><ele>1819.0</ele></trkpt>
<trkpt lat="45.260006" lon="-115.874952"><ele>1819.6</ele></trkpt>
<trkpt lat="45.258774" lon="-115.877577"><ele>1823.4</ele></trkpt>
<trkpt lat="45.258464" lon="-115.878411"><ele>1823.8</ele></trkpt>
<trkpt lat="45.258412" lon="-115.878835"><ele>1823.8</ele></trkpt>
<trkpt lat="45.258496" lon="-115.879726"><ele>1824.6</ele></trkpt>
<trkpt lat="45.259642" lon="-115.882205"><ele>1828.2</ele></trkpt>
<trkpt lat="45.259730" lon="-115.882512"><ele>1828.8</ele></trkpt>
<trkpt lat="45.259746" lon="-115.882895"><ele>1828.6</ele></trkpt>
<trkpt lat="45.259540" lon="-115.884054"><ele>1829.2</ele></trkpt>
<trkpt lat="45.257834" lon="-115.891723"><ele>1837.4</ele></trkpt>
<trkpt lat="45.257155" lon="-115.895035"><ele>1841.0</ele></trkpt>
<trkpt lat="45.256924" lon="-115.895876"><ele>1841.4</ele></trkpt>
<trkpt lat="45.256644" lon="-115.896500"><ele>1842.0</ele></trkpt>
<trkpt lat="45.256644" lon="-115.896625"><ele>1842.6</ele></trkpt>
<trkpt lat="45.257284" lon="-115.897368"><ele>1844.0</ele></trkpt>
<trkpt lat="45.257644" lon="-115.897569"><ele>1845.0</ele></trkpt>
<trkpt lat="45.258179" lon="-115.897646"><ele>1845.6</ele></trkpt>
<trkpt lat="45.258404" lon="-115.897788"><ele>1846.2</ele></trkpt>
<trkpt lat="45.258766" lon="-115.898279"><ele>1846.4</ele></trkpt>
<trkpt lat="45.258870" lon="-115.898904"><ele>1846.8</ele></trkpt>
<trkpt lat="45.258802" lon="-115.899887"><ele>1847.4</ele></trkpt>
<trkpt lat="45.258844" lon="-115.900381"><ele>1846.8</ele></trkpt>
<trkpt lat="45.259113" lon="-115.901229"><ele>1846.4</ele></trkpt>
<trkpt lat="45.259384" lon="-115.901631"><ele>1846.0</ele></trkpt>
<trkpt lat="45.259777" lon="-115.902001"><ele>1846.2</ele></trkpt>
<trkpt lat="45.261530" lon="-115.902797"><ele>1849.8</ele></trkpt>
<trkpt lat="45.262984" lon="-115.903717"><ele>1850.0</ele></trkpt>
<trkpt lat="45.264957" lon="-115.905348"><ele>1851.0</ele></trkpt>
<trkpt lat="45.266679" lon="-115.907022"><ele>1854.0</ele></trkpt>
<trkpt lat="45.267700" lon="-115.907532"><ele>1854.2</ele></trkpt>
<trkpt lat="45.268154" lon="-115.907886"><ele>1854.6</ele></trkpt>
<trkpt lat="45.268595" lon="-115.908556"><ele>1855.6</ele></trkpt>
<trkpt lat="45.269221" lon="-115.910304"><ele>1855.4</ele></trkpt>
<trkpt lat="45.269479" lon="-115.910775"><ele>1855.0</ele></trkpt>
<trkpt lat="45.269978" lon="-115.911345"><ele>1855.4</ele></trkpt>
<trkpt lat="45.272112" lon="-115.913187"><ele>1857.8</ele></trkpt>
<trkpt lat="45.272512" lon="-115.913450"><ele>1858.0</ele></trkpt>
<trkpt lat="45.273152" lon="-115.913634"><ele>1858.4</ele></trkpt>
<trkpt lat="45.273766" lon="-115.913642"><ele>1859.2</ele></trkpt>
<trkpt lat="45.274594" lon="-115.913811"><ele>1860.8</ele></trkpt>
<trkpt lat="45.275361" lon="-115.914090"><ele>1863.0</ele></trkpt>
<trkpt lat="45.276197" lon="-115.914531"><ele>1864.6</ele></trkpt>
<trkpt lat="45.276668" lon="-115.914443"><ele>1865.4</ele></trkpt>
<trkpt lat="45.276838" lon="-115.914336"><ele>1866.2</ele></trkpt>
<trkpt lat="45.276983" lon="-115.914086"><ele>1866.2</ele></trkpt>
<trkpt lat="45.277051" lon="-115.913483"><ele>1867.4</ele></trkpt>
<trkpt lat="45.277009" lon="-115.913217"><ele>1866.4</ele></trkpt>
<trkpt lat="45.276974" lon="-115.913267"><ele>1866.2</ele></trkpt>
<trkpt lat="45.277021" lon="-115.913200"><ele>1866.0</ele></trkpt>
<trkpt lat="45.277079" lon="-115.913488"><ele>1866.6</ele></trkpt>
<trkpt lat="45.277019" lon="-115.913461"><ele>1866.6</ele></trkpt>
<trkpt lat="45.277011" lon="-115.913109"><ele>1866.0</ele></trkpt>
<trkpt lat="45.277057" lon="-115.913792"><ele>1865.6</ele></trkpt>
<trkpt lat="45.277034" lon="-115.914045"><ele>1865.2</ele></trkpt>
<trkpt lat="45.276902" lon="-115.914313"><ele>1865.0</ele></trkpt>
<trkpt lat="45.276710" lon="-115.914467"><ele>1864.4</ele></trkpt>
<trkpt lat="45.276388" lon="-115.914464"><ele>1863.8</ele></trkpt>
<trkpt lat="45.276189" lon="-115.914550"><ele>1863.2</ele></trkpt>
<trkpt lat="45.274746" lon="-115.913840"><ele>1859.6</ele></trkpt>
<trkpt lat="45.274022" lon="-115.913661"><ele>1858.0</ele></trkpt>
<trkpt lat="45.273090" lon="-115.913618"><ele>1856.4</ele></trkpt>
<trkpt lat="45.272639" lon="-115.913512"><ele>1856.2</ele></trkpt>
<trkpt lat="45.272272" lon="-115.913319"><ele>1856.2</ele></trkpt>
<trkpt lat="45.271694" lon="-115.912845"><ele>1855.6</ele></trkpt>
<trkpt lat="45.269968" lon="-115.911307"><ele>1852.8</ele></trkpt>
<trkpt lat="45.269463" lon="-115.910749"><ele>1852.0</ele></trkpt>
<trkpt lat="45.269016" lon="-115.909774"><ele>1852.6</ele></trkpt>
<trkpt lat="45.268565" lon="-115.908519"><ele>1852.2</ele></trkpt>
<trkpt lat="45.268315" lon="-115.908085"><ele>1852.6</ele></trkpt>
<trkpt lat="45.267994" lon="-115.907723"><ele>1852.4</ele></trkpt>
<trkpt lat="45.267682" lon="-115.907497"><ele>1851.8</ele></trkpt>
<trkpt lat="45.266627" lon="-115.906996"><ele>1851.8</ele></trkpt>
<trkpt lat="45.264607" lon="-115.905022"><ele>1849.0</ele></trkpt>
<trkpt lat="45.262980" lon="-115.903695"><ele>1847.8</ele></trkpt>
<trkpt lat="45.261523" lon="-115.902759"><ele>1848.0</ele></trkpt>
<trkpt lat="45.260125" lon="-115.902153"><ele>1846.2</ele></trkpt>
<trkpt lat="45.259495" lon="-115.901703"><ele>1843.8</ele></trkpt>
<trkpt lat="45.259171" lon="-115.901266"><ele>1843.8</ele></trkpt>
<trkpt lat="45.258888" lon="-115.900484"><ele>1844.4</ele></trkpt>
<trkpt lat="45.258816" lon="-115.899986"><ele>1844.8</ele></trkpt>
<trkpt lat="45.258886" lon="-115.898764"><ele>1846.2</ele></trkpt>
<trkpt lat="45.258807" lon="-115.898367"><ele>1846.0</ele></trkpt>
<trkpt lat="45.258647" lon="-115.898044"><ele>1845.8</ele></trkpt>
<trkpt lat="45.258327" lon="-115.897708"><ele>1845.4</ele></trkpt>
<trkpt lat="45.257489" lon="-115.897488"><ele>1843.6</ele></trkpt>
<trkpt lat="45.257177" lon="-115.897282"><ele>1842.4</ele></trkpt>
<trkpt lat="45.256796" lon="-115.896848"><ele>1841.2</ele></trkpt>
<trkpt lat="45.256543" lon="-115.896799"><ele>1840.4</ele></trkpt>
<trkpt lat="45.254923" lon="-115.899531"><ele>1847.2</ele></trkpt>
<trkpt lat="45.254523" lon="-115.900066"><ele>1848.6</ele></trkpt>
<trkpt lat="45.253893" lon="-115.900676"><ele>1849.2</ele></trkpt>
<trkpt lat="45.246219" lon="-115.906178"><ele>1858.0</ele></trkpt>
<trkpt lat="45.245635" lon="-115.906536"><ele>1858.8</ele></trkpt>
<trkpt lat="45.243178" lon="-115.907667"><ele>1860.8</ele></trkpt>
<trkpt lat="45.242363" lon="-115.908187"><ele>1861.4</ele></trkpt>
<trkpt lat="45.242014" lon="-115.908525"><ele>1861.6</ele></trkpt>
<trkpt lat="45.233632" lon="-115.919023"><ele>1874.0</ele></trkpt>
<trkpt lat="45.231982" lon="-115.921729"><ele>1878.4</ele></trkpt>
<trkpt lat="45.231385" lon="-115.922496"><ele>1879.4</ele></trkpt>
<trkpt lat="45.230031" lon="-115.923670"><ele>1881.6</ele></trkpt>
<trkpt lat="45.224524" lon="-115.927834"><ele>1878.0</ele></trkpt>
<trkpt lat="45.223895" lon="-115.928498"><ele>1876.8</ele></trkpt>
<trkpt lat="45.222492" lon="-115.930505"><ele>1874.8</ele></trkpt>
<trkpt lat="45.220682" lon="-115.932915"><ele>1875.6</ele></trkpt>
<trkpt lat="45.220326" lon="-115.933558"><ele>1876.0</ele></trkpt>
<trkpt lat="45.219020" lon="-115.936342"><ele>1876.8</ele></trkpt>
<trkpt lat="45.218342" lon="-115.937354"><ele>1877.4</ele></trkpt>
<trkpt lat="45.217929" lon="-115.937843"><ele>1877.8</ele></trkpt>
<trkpt lat="45.213034" lon="-115.942414"><ele>1882.6</ele></trkpt>
<trkpt lat="45.211177" lon="-115.943501"><ele>1886.8</ele></trkpt>
<trkpt lat="45.210438" lon="-115.944056"><ele>1890.0</ele></trkpt>
<trkpt lat="45.209755" lon="-115.944695"><ele>1893.8</ele></trkpt>
<trkpt lat="45.208776" lon="-115.945926"><ele>1899.4</ele></trkpt>
<trkpt lat="45.206523" lon="-115.949827"><ele>1912.0</ele></trkpt>
<trkpt lat="45.205998" lon="-115.950605"><ele>1913.4</ele></trkpt>
<trkpt lat="45.204240" lon="-115.952521"><ele>1921.8</ele></trkpt>
<trkpt lat="45.202953" lon="-115.953786"><ele>1931.8</ele></trkpt>
<trkpt lat="45.201973" lon="-115.954636"><ele>1938.2</ele></trkpt>
<trkpt lat="45.201481" lon="-115.955205"><ele>1940.4</ele></trkpt>
<trkpt lat="45.201255" lon="-115.955667"><ele>1941.8</ele></trkpt>
<trkpt lat="45.201064" lon="-115.956365"><ele>1942.6</ele></trkpt>
<trkpt lat="45.200791" lon="-115.960052"><ele>1944.8</ele></trkpt>
<trkpt lat="45.200718" lon="-115.960651"><ele>1945.4</ele></trkpt>
<trkpt lat="45.200577" lon="-115.961133"><ele>1945.8</ele></trkpt>
<trkpt lat="45.200311" lon="-115.961677"><ele>1945.8</ele></trkpt>
<trkpt lat="45.198519" lon="-115.963864"><ele>1946.0</ele></trkpt>
<trkpt lat="45.197411" lon="-115.965620"><ele>1950.0</ele></trkpt>
<trkpt lat="45.196546" lon="-115.967239"><ele>1953.6</ele></trkpt>
<trkpt lat="45.195206" lon="-115.970152"><ele>1957.8</ele></trkpt>
<trkpt lat="45.194667" lon="-115.970987"><ele>1959.6</ele></trkpt>
<trkpt lat="45.193960" lon="-115.971686"><ele>1960.8</ele></trkpt>
<trkpt lat="45.193607" lon="-115.971913"><ele>1960.4</ele></trkpt>
<trkpt lat="45.190006" lon="-115.973677"><ele>1954.2</ele></trkpt>
<trkpt lat="45.189042" lon="-115.974376"><ele>1952.8</ele></trkpt>
<trkpt lat="45.188626" lon="-115.974834"><ele>1952.0</ele></trkpt>
<trkpt lat="45.188242" lon="-115.975401"><ele>1951.2</ele></trkpt>
<trkpt lat="45.187159" lon="-115.977572"><ele>1945.6</ele></trkpt>
<trkpt lat="45.186371" lon="-115.978499"><ele>1942.0</ele></trkpt>
<trkpt lat="45.185845" lon="-115.978893"><ele>1938.8</ele></trkpt>
<trkpt lat="45.185142" lon="-115.979235"><ele>1935.0</ele></trkpt>
<trkpt lat="45.184641" lon="-115.979367"><ele>1932.2</ele></trkpt>
<trkpt lat="45.182002" lon="-115.979453"><ele>1912.8</ele></trkpt>
<trkpt lat="45.181436" lon="-115.979698"><ele>1909.0</ele></trkpt>
<trkpt lat="45.180926" lon="-115.980130"><ele>1905.0</ele></trkpt>
<trkpt lat="45.180309" lon="-115.981040"><ele>1903.2</ele></trkpt>
<trkpt lat="45.180036" lon="-115.981775"><ele>1900.2</ele></trkpt>
<trkpt lat="45.179891" lon="-115.982578"><ele>1896.2</ele></trkpt>
<trkpt lat="45.179839" lon="-115.984444"><ele>1889.2</ele></trkpt>
<trkpt lat="45.179737" lon="-115.985260"><ele>1886.2</ele></trkpt>
<trkpt lat="45.179468" lon="-115.986235"><ele>1881.8</ele></trkpt>
<trkpt lat="45.179137" lon="-115.986943"><ele>1878.4</ele></trkpt>
<trkpt lat="45.178466" lon="-115.987802"><ele>1870.8</ele></trkpt>
<trkpt lat="45.173573" lon="-115.992539"><ele>1852.8</ele></trkpt>
<trkpt lat="45.172648" lon="-115.993258"><ele>1849.6</ele></trkpt>
<trkpt lat="45.171975" lon="-115.993568"><ele>1846.8</ele></trkpt>
<trkpt lat="45.171040" lon="-115.993746"><ele>1841.4</ele></trkpt>
<trkpt lat="45.170127" lon="-115.993647"><ele>1835.8</ele></trkpt>
<trkpt lat="45.169609" lon="-115.993463"><ele>1832.6</ele></trkpt>
<trkpt lat="45.168993" lon="-115.993126"><ele>1829.8</ele></trkpt>
<trkpt lat="45.166436" lon="-115.991181"><ele>1824.6</ele></trkpt>
<trkpt lat="45.165280" lon="-115.990429"><ele>1824.0</ele></trkpt>
<trkpt lat="45.164757" lon="-115.990232"><ele>1823.8</ele></trkpt>
<trkpt lat="45.163847" lon="-115.990147"><ele>1824.6</ele></trkpt>
<trkpt lat="45.162935" lon="-115.990280"><ele>1824.4</ele></trkpt>
<trkpt lat="45.160796" lon="-115.990918"><ele>1825.8</ele></trkpt>
<trkpt lat="45.159129" lon="-115.991741"><ele>1825.2</ele></trkpt>
<trkpt lat="45.157284" lon="-115.992836"><ele>1828.6</ele></trkpt>
<trkpt lat="45.154281" lon="-115.995170"><ele>1826.0</ele></trkpt>
<trkpt lat="45.153982" lon="-115.995470"><ele>1825.2</ele></trkpt>
<trkpt lat="45.153607" lon="-115.996042"><ele>1824.2</ele></trkpt>
<trkpt lat="45.153369" lon="-115.996596"><ele>1823.6</ele></trkpt>
<trkpt lat="45.153181" lon="-115.997286"><ele>1823.2</ele></trkpt>
<trkpt lat="45.153093" lon="-115.998193"><ele>1822.8</ele></trkpt>
<trkpt lat="45.153130" lon="-116.000332"><ele>1816.8</ele></trkpt>
<trkpt lat="45.152977" lon="-116.001159"><ele>1814.0</ele></trkpt>
<trkpt lat="45.152752" lon="-116.001807"><ele>1810.8</ele></trkpt>
<trkpt lat="45.151742" lon="-116.003690"><ele>1798.0</ele></trkpt>
<trkpt lat="45.151220" lon="-116.005508"><ele>1789.6</ele></trkpt>
<trkpt lat="45.150817" lon="-116.006495"><ele>1786.4</ele></trkpt>
<trkpt lat="45.148746" lon="-116.010041"><ele>1781.0</ele></trkpt>
<trkpt lat="45.147990" lon="-116.011002"><ele>1780.2</ele></trkpt>
<trkpt lat="45.147456" lon="-116.011506"><ele>1779.2</ele></trkpt>
<trkpt lat="45.144767" lon="-116.013566"><ele>1778.2</ele></trkpt>
<trkpt lat="45.144130" lon="-116.013844"><ele>1777.0</ele></trkpt>
<trkpt lat="45.143400" lon="-116.013917"><ele>1774.6</ele></trkpt>
<trkpt lat="45.142819" lon="-116.013792"><ele>1772.2</ele></trkpt>
<trkpt lat="45.142483" lon="-116.013624"><ele>1771.0</ele></trkpt>
<trkpt lat="45.141940" lon="-116.013206"><ele>1766.4</ele></trkpt>
<trkpt lat="45.140922" lon="-116.012200"><ele>1760.2</ele></trkpt>
<trkpt lat="45.140095" lon="-116.011709"><ele>1757.0</ele></trkpt>
<trkpt lat="45.139349" lon="-116.011505"><ele>1753.2</ele></trkpt>
<trkpt lat="45.136744" lon="-116.011092"><ele>1738.4</ele></trkpt>
<trkpt lat="45.135711" lon="-116.011125"><ele>1736.6</ele></trkpt>
<trkpt lat="45.134957" lon="-116.011482"><ele>1734.6</ele></trkpt>
<trkpt lat="45.131511" lon="-116.014143"><ele>1716.2</ele></trkpt>
<trkpt lat="45.129775" lon="-116.016285"><ele>1712.4</ele></trkpt>
<trkpt lat="45.129290" lon="-116.016753"><ele>1712.8</ele></trkpt>
<trkpt lat="45.128852" lon="-116.017009"><ele>1713.0</ele></trkpt>
<trkpt lat="45.125218" lon="-116.018512"><ele>1712.4</ele></trkpt>
<trkpt lat="45.124046" lon="-116.019088"><ele>1712.4</ele></trkpt>
<trkpt lat="45.115668" lon="-116.024414"><ele>1713.8</ele></trkpt>
<trkpt lat="45.115133" lon="-116.024661"><ele>1713.8</ele></trkpt>
<trkpt lat="45.113794" lon="-116.024774"><ele>1710.6</ele></trkpt>
<trkpt lat="45.113289" lon="-116.024978"><ele>1708.6</ele></trkpt>
<trkpt lat="45.112736" lon="-116.025517"><ele>1706.6</ele></trkpt>
<trkpt lat="45.112185" lon="-116.026308"><ele>1703.6</ele></trkpt>
<trkpt lat="45.111720" lon="-116.026746"><ele>1702.4</ele></trkpt>
<trkpt lat="45.111650" lon="-116.026894"><ele>1702.2</ele></trkpt>
<trkpt lat="45.111547" lon="-116.026851"><ele>1702.2</ele></trkpt>
<trkpt lat="45.111558" lon="-116.026738"><ele>1701.6</ele></trkpt>
<trkpt lat="45.111621" lon="-116.026706"><ele>1701.4</ele></trkpt>
<trkpt lat="45.111718" lon="-116.026764"><ele>1702.4</ele></trkpt>
<trkpt lat="45.111129" lon="-116.026982"><ele>1701.8</ele></trkpt>
<trkpt lat="45.108858" lon="-116.026917"><ele>1698.4</ele></trkpt>
<trkpt lat="45.108394" lon="-116.027017"><ele>1698.4</ele></trkpt>
<trkpt lat="45.107916" lon="-116.027258"><ele>1696.0</ele></trkpt>
<trkpt lat="45.107304" lon="-116.027837"><ele>1693.2</ele></trkpt>
<trkpt lat="45.106491" lon="-116.029084"><ele>1691.0</ele></trkpt>
<trkpt lat="45.105953" lon="-116.029787"><ele>1690.8</ele></trkpt>
<trkpt lat="45.101972" lon="-116.033198"><ele>1678.0</ele></trkpt>
<trkpt lat="45.101053" lon="-116.034184"><ele>1671.0</ele></trkpt>
<trkpt lat="45.100713" lon="-116.034770"><ele>1668.4</ele></trkpt>
<trkpt lat="45.100364" lon="-116.035791"><ele>1665.2</ele></trkpt>
<trkpt lat="45.099718" lon="-116.039567"><ele>1654.8</ele></trkpt>
<trkpt lat="45.099555" lon="-116.040247"><ele>1652.6</ele></trkpt>
<trkpt lat="45.099204" lon="-116.041188"><ele>1648.4</ele></trkpt>
<trkpt lat="45.098580" lon="-116.042205"><ele>1645.8</ele></trkpt>
<trkpt lat="45.098146" lon="-116.042705"><ele>1644.8</ele></trkpt>
<trkpt lat="45.096452" lon="-116.044499"><ele>1640.8</ele></trkpt>
<trkpt lat="45.095852" lon="-116.045053"><ele>1639.4</ele></trkpt>
<trkpt lat="45.095310" lon="-116.045432"><ele>1638.8</ele></trkpt>
<trkpt lat="45.091679" lon="-116.046855"><ele>1629.8</ele></trkpt>
<trkpt lat="45.087321" lon="-116.048977"><ele>1616.4</ele></trkpt>
<trkpt lat="45.083414" lon="-116.050238"><ele>1610.2</ele></trkpt>
<trkpt lat="45.078957" lon="-116.052135"><ele>1601.0</ele></trkpt>
<trkpt lat="45.078452" lon="-116.052235"><ele>1601.0</ele></trkpt>
<trkpt lat="45.068377" lon="-116.051527"><ele>1587.0</ele></trkpt>
<trkpt lat="45.067362" lon="-116.051608"><ele>1582.6</ele></trkpt>
<trkpt lat="45.062942" lon="-116.052431"><ele>1568.2</ele></trkpt>
<trkpt lat="45.062324" lon="-116.052385"><ele>1568.2</ele></trkpt>
<trkpt lat="45.059832" lon="-116.051690"><ele>1561.6</ele></trkpt>
<trkpt lat="45.058531" lon="-116.051613"><ele>1558.8</ele></trkpt>
<trkpt lat="45.057543" lon="-116.051751"><ele>1559.4</ele></trkpt>
<trkpt lat="45.056661" lon="-116.052026"><ele>1560.4</ele></trkpt>
<trkpt lat="45.053958" lon="-116.053111"><ele>1556.4</ele></trkpt>
<trkpt lat="45.052695" lon="-116.053469"><ele>1554.8</ele></trkpt>
<trkpt lat="45.051424" lon="-116.053724"><ele>1553.8</ele></trkpt>
<trkpt lat="45.049647" lon="-116.053900"><ele>1556.8</ele></trkpt>
<trkpt lat="45.047282" lon="-116.053437"><ele>1551.6</ele></trkpt>
<trkpt lat="45.046363" lon="-116.053539"><ele>1551.0</ele></trkpt>
<trkpt lat="45.042681" lon="-116.054815"><ele>1554.2</ele></trkpt>
<trkpt lat="45.040737" lon="-116.055776"><ele>1554.6</ele></trkpt>
<trkpt lat="45.038945" lon="-116.057053"><ele>1547.6</ele></trkpt>
<trkpt lat="45.034888" lon="-116.060744"><ele>1537.6</ele></trkpt>
<trkpt lat="45.034422" lon="-116.061093"><ele>1537.4</ele></trkpt>
<trkpt lat="45.033875" lon="-116.061342"><ele>1537.2</ele></trkpt>
<trkpt lat="45.032880" lon="-116.061421"><ele>1537.8</ele></trkpt>
<trkpt lat="45.031825" lon="-116.061281"><ele>1540.8</ele></trkpt>
<trkpt lat="45.031395" lon="-116.061406"><ele>1540.6</ele></trkpt>
<trkpt lat="45.029979" lon="-116.062095"><ele>1540.6</ele></trkpt>
<trkpt lat="45.028844" lon="-116.062395"><ele>1541.4</ele></trkpt>
<trkpt lat="45.025516" lon="-116.062503"><ele>1539.6</ele></trkpt>
<trkpt lat="45.022123" lon="-116.063150"><ele>1540.2</ele></trkpt>
<trkpt lat="45.021564" lon="-116.063158"><ele>1540.4</ele></trkpt>
<trkpt lat="45.019894" lon="-116.062902"><ele>1535.6</ele></trkpt>
<trkpt lat="45.018743" lon="-116.062921"><ele>1533.0</ele></trkpt>
<trkpt lat="45.015260" lon="-116.063710"><ele>1532.8</ele></trkpt>
<trkpt lat="45.010650" lon="-116.064099"><ele>1532.0</ele></trkpt>
<trkpt lat="45.009316" lon="-116.064329"><ele>1532.2</ele></trkpt>
<trkpt lat="45.005678" lon="-116.065714"><ele>1534.6</ele></trkpt>
<trkpt lat="45.004866" lon="-116.066128"><ele>1533.2</ele></trkpt>
<trkpt lat="45.004103" lon="-116.066657"><ele>1531.2</ele></trkpt>
<trkpt lat="45.001401" lon="-116.068798"><ele>1532.0</ele></trkpt>
<trkpt lat="45.000459" lon="-116.069318"><ele>1532.4</ele></trkpt>
<trkpt lat="44.999808" lon="-116.069396"><ele>1534.2</ele></trkpt>
<trkpt lat="44.998765" lon="-116.069357"><ele>1535.2</ele></trkpt>
<trkpt lat="44.998272" lon="-116.069452"><ele>1536.0</ele></trkpt>
<trkpt lat="44.997347" lon="-116.069851"><ele>1538.2</ele></trkpt>
<trkpt lat="44.995068" lon="-116.071041"><ele>1533.8</ele></trkpt>
<trkpt lat="44.994497" lon="-116.071251"><ele>1533.0</ele></trkpt>
<trkpt lat="44.990420" lon="-116.071902"><ele>1531.0</ele></trkpt>
<trkpt lat="44.989352" lon="-116.072323"><ele>1531.8</ele></trkpt>
<trkpt lat="44.988639" lon="-116.072334"><ele>1533.0</ele></trkpt>
<trkpt lat="44.986202" lon="-116.072110"><ele>1531.6</ele></trkpt>
<trkpt lat="44.985776" lon="-116.072146"><ele>1532.2</ele></trkpt>
<trkpt lat="44.985432" lon="-116.072270"><ele>1532.6</ele></trkpt>
<trkpt lat="44.985103" lon="-116.072496"><ele>1532.6</ele></trkpt>
<trkpt lat="44.984094" lon="-116.073535"><ele>1532.4</ele></trkpt>
<trkpt lat="44.983042" lon="-116.074189"><ele>1533.0</ele></trkpt>
<trkpt lat="44.980893" lon="-116.075433"><ele>1533.6</ele></trkpt>
<trkpt lat="44.979657" lon="-116.075879"><ele>1533.6</ele></trkpt>
<trkpt lat="44.976104" lon="-116.077591"><ele>1535.6</ele></trkpt>
<trkpt lat="44.975377" lon="-116.078118"><ele>1537.0</ele></trkpt>
<trkpt lat="44.974922" lon="-116.078746"><ele>1538.2</ele></trkpt>
<trkpt lat="44.974598" lon="-116.079488"><ele>1539.0</ele></trkpt>
<trkpt lat="44.973335" lon="-116.083929"><ele>1541.4</ele></trkpt>
<trkpt lat="44.973042" lon="-116.084624"><ele>1540.4</ele></trkpt>
<trkpt lat="44.972445" lon="-116.085447"><ele>1538.4</ele></trkpt>
<trkpt lat="44.969258" lon="-116.088383"><ele>1540.6</ele></trkpt>
<trkpt lat="44.965200" lon="-116.090696"><ele>1539.4</ele></trkpt>
<trkpt lat="44.963745" lon="-116.091329"><ele>1538.2</ele></trkpt>
<trkpt lat="44.962181" lon="-116.092268"><ele>1537.2</ele></trkpt>
<trkpt lat="44.961208" lon="-116.092703"><ele>1537.0</ele></trkpt>
<trkpt lat="44.959395" lon="-116.093314"><ele>1536.2</ele></trkpt>
<trkpt lat="44.958242" lon="-116.094042"><ele>1536.0</ele></trkpt>
<trkpt lat="44.957916" lon="-116.094456"><ele>1538.0</ele></trkpt>
<trkpt lat="44.957152" lon="-116.096380"><ele>1540.0</ele></trkpt>
<trkpt lat="44.956977" lon="-116.097002"><ele>1542.4</ele></trkpt>
<trkpt lat="44.956849" lon="-116.097884"><ele>1544.0</ele></trkpt>
<trkpt lat="44.956642" lon="-116.098728"><ele>1544.6</ele></trkpt>
<trkpt lat="44.956307" lon="-116.099399"><ele>1545.0</ele></trkpt>
<trkpt lat="44.956055" lon="-116.099724"><ele>1545.2</ele></trkpt>
<trkpt lat="44.955534" lon="-116.100169"><ele>1545.2</ele></trkpt>
<trkpt lat="44.950054" lon="-116.103723"><ele>1542.6</ele></trkpt>
<trkpt lat="44.949237" lon="-116.104376"><ele>1544.2</ele></trkpt>
<trkpt lat="44.948369" lon="-116.105191"><ele>1543.6</ele></trkpt>
<trkpt lat="44.947739" lon="-116.106018"><ele>1543.4</ele></trkpt>
<trkpt lat="44.945193" lon="-116.108458"><ele>1543.6</ele></trkpt>
<trkpt lat="44.942445" lon="-116.111304"><ele>1544.0</ele></trkpt>
<trkpt lat="44.940110" lon="-116.113369"><ele>1540.4</ele></trkpt>
<trkpt lat="44.937581" lon="-116.115953"><ele>1538.2</ele></trkpt>
<trkpt lat="44.936619" lon="-116.117105"><ele>1538.8</ele></trkpt>
<trkpt lat="44.932792" lon="-116.122294"><ele>1544.6</ele></trkpt>
<trkpt lat="44.931666" lon="-116.123635"><ele>1542.6</ele></trkpt>
<trkpt lat="44.930903" lon="-116.124350"><ele>1542.8</ele></trkpt>
<trkpt lat="44.929928" lon="-116.125077"><ele>1543.0</ele></trkpt>
<trkpt lat="44.928495" lon="-116.125862"><ele>1542.6</ele></trkpt>
<trkpt lat="44.927599" lon="-116.126161"><ele>1542.2</ele></trkpt>
<trkpt lat="44.925915" lon="-116.126445"><ele>1541.2</ele></trkpt>
<trkpt lat="44.923773" lon="-116.126436"><ele>1541.2</ele></trkpt>
<trkpt lat="44.923327" lon="-116.126534"><ele>1542.2</ele></trkpt>
<trkpt lat="44.921792" lon="-116.127215"><ele>1540.6</ele></trkpt>
<trkpt lat="44.921474" lon="-116.127268"><ele>1540.8</ele></trkpt>
<trkpt lat="44.920413" lon="-116.127164"><ele>1539.4</ele></trkpt>
<trkpt lat="44.919516" lon="-116.126731"><ele>1536.4</ele></trkpt>
<trkpt lat="44.917912" lon="-116.126618"><ele>1538.8</ele></trkpt>
<trkpt lat="44.917347" lon="-116.126277"><ele>1538.6</ele></trkpt>
<trkpt lat="44.916159" lon="-116.124800"><ele>1537.6</ele></trkpt>
<trkpt lat="44.915272" lon="-116.123905"><ele>1537.2</ele></trkpt>
<trkpt lat="44.914400" lon="-116.123332"><ele>1537.2</ele></trkpt>
<trkpt lat="44.912885" lon="-116.122786"><ele>1536.6</ele></trkpt>
<trkpt lat="44.912727" lon="-116.122655"><ele>1536.0</ele></trkpt>
<trkpt lat="44.911369" lon="-116.116228"><ele>1531.2</ele></trkpt>
<trkpt lat="44.910817" lon="-116.112750"><ele>1532.0</ele></trkpt>
<trkpt lat="44.910226" lon="-116.108262"><ele>1531.8</ele></trkpt>
<trkpt lat="44.910187" lon="-116.107643"><ele>1532.2</ele></trkpt>
<trkpt lat="44.910369" lon="-116.105188"><ele>1531.0</ele></trkpt>
<trkpt lat="44.910452" lon="-116.101691"><ele>1532.8</ele></trkpt>
<trkpt lat="44.910519" lon="-116.101024"><ele>1533.0</ele></trkpt>
<trkpt lat="44.910405" lon="-116.100945"><ele>1533.0</ele></trkpt>
<trkpt lat="44.909955" lon="-116.100910"><ele>1534.8</ele></trkpt>
<trkpt lat="44.909862" lon="-116.100825"><ele>1535.6</ele></trkpt>
<trkpt lat="44.909931" lon="-116.099957"><ele>1535.2</ele></trkpt>
<trkpt lat="44.910102" lon="-116.099146"><ele>1534.4</ele></trkpt>
<trkpt lat="44.910040" lon="-116.099327"><ele>1534.4</ele></trkpt>
<trkpt lat="44.909264" lon="-116.099197"><ele>1536.8</ele></trkpt>
<trkpt lat="44.909194" lon="-116.099310"><ele>1537.2</ele></trkpt>
</trkseg></trk>
</gpx>
