{
  "_comment": "STUB DATA — replace with your actual GPX export. Each feature is one day's segment; set 'day' to an integer for color coding. The map layout also accepts .gpx files directly — just update map_track in the post front matter.",
  "type": "FeatureCollection",
  "features": [
    {
      "type": "Feature",
      "properties": {
        "day": 1,
        "name": "Day 1: Bow Lake to Bow Hut"
      },
      "geometry": {
        "type": "LineString",
        "coordinates": [
          [-116.4751, 51.6683, 1920],
          [-116.4763, 51.6703, 1955],
          [-116.4775, 51.6728, 1990],
          [-116.4790, 51.6758, 2030],
          [-116.4808, 51.6793, 2095],
          [-116.4825, 51.6832, 2165],
          [-116.4843, 51.6865, 2230],
          [-116.4862, 51.6902, 2280],
          [-116.4880, 51.6928, 2310],
          [-116.4899, 51.6943, 2330]
        ]
      }
    },
    {
      "type": "Feature",
      "properties": {
        "day": 2,
        "name": "Day 2: Bow Hut to Peyto Hut"
      },
      "geometry": {
        "type": "LineString",
        "coordinates": [
          [-116.4899, 51.6943, 2330],
          [-116.4948, 51.6968, 2360],
          [-116.5012, 51.6995, 2390],
          [-116.5082, 51.7022, 2415],
          [-116.5160, 51.7052, 2440],
          [-116.5245, 51.7083, 2460],
          [-116.5332, 51.7112, 2475],
          [-116.5420, 51.7138, 2485],
          [-116.5508, 51.7158, 2488],
          [-116.5590, 51.7170, 2490],
          [-116.5668, 51.7176, 2488],
          [-116.5756, 51.7178, 2485]
        ]
      }
    },
    {
      "type": "Feature",
      "properties": {
        "day": 3,
        "name": "Day 3: Peyto Hut to Balfour Hut"
      },
      "geometry": {
        "type": "LineString",
        "coordinates": [
          [-116.5756, 51.7178, 2485],
          [-116.5848, 51.7208, 2500],
          [-116.5942, 51.7238, 2515],
          [-116.6040, 51.7268, 2530],
          [-116.6148, 51.7300, 2545],
          [-116.6260, 51.7332, 2558],
          [-116.6380, 51.7362, 2562],
          [-116.6510, 51.7390, 2558],
          [-116.6648, 51.7412, 2548],
          [-116.6795, 51.7433, 2532],
          [-116.6952, 51.7447, 2510],
          [-116.7112, 51.7455, 2490],
          [-116.7265, 51.7459, 2470]
        ]
      }
    },
    {
      "type": "Feature",
      "properties": {
        "day": 4,
        "name": "Day 4: Balfour Hut to Scott Duncan Hut"
      },
      "geometry": {
        "type": "LineString",
        "coordinates": [
          [-116.7265, 51.7459, 2470],
          [-116.7332, 51.7498, 2490],
          [-116.7400, 51.7540, 2512],
          [-116.7465, 51.7585, 2530],
          [-116.7525, 51.7628, 2545],
          [-116.7582, 51.7670, 2555],
          [-116.7640, 51.7712, 2562],
          [-116.7698, 51.7752, 2560],
          [-116.7752, 51.7790, 2548],
          [-116.7800, 51.7822, 2530],
          [-116.7836, 51.7845, 2510]
        ]
      }
    },
    {
      "type": "Feature",
      "properties": {
        "day": 5,
        "name": "Day 5: Scott Duncan Hut to Yoho Valley"
      },
      "geometry": {
        "type": "LineString",
        "coordinates": [
          [-116.7836, 51.7845, 2510],
          [-116.7792, 51.7802, 2480],
          [-116.7740, 51.7750, 2440],
          [-116.7680, 51.7690, 2388],
          [-116.7612, 51.7622, 2325],
          [-116.7540, 51.7548, 2255],
          [-116.7462, 51.7468, 2180],
          [-116.7378, 51.7382, 2108],
          [-116.7290, 51.7292, 2042],
          [-116.7200, 51.7198, 1985],
          [-116.7112, 51.7105, 1940],
          [-116.7040, 51.7025, 1905],
          [-116.6980, 51.6960, 1880]
        ]
      }
    }
  ]
}
